,CDSCode,School,Zip,EILCode,Virtual,Latitude,Longitude,LastUpDate,Address,Zipcode
0,37103710108548,Iftin Charter,92115-3620,ELEM,N,32.757908,-117.07814,2020-08-13,"5465 El Cajon Boulevard,San Diego,CA,92115",92115
1,37103710115998,San Pasqual Academy,92025-5301,HS,C,33.09058,-116.95009,2019-02-13,"17701 San Pasqual Valley Road,Escondido,CA,92025",92025
2,37103710120485,Davila Day,91910-3604,ELEM,N,32.635041,-117.08832,2019-02-13,"540 G Street,Chula Vista,CA,91910",91910
3,37103710120493,Monarch,92113-1012,ELEMHIGH,C,32.702375,-117.15045,2020-08-24,"1625 Newton Avenue,San Diego,CA,92113",92113
4,37103710128520,San Diego County Community,92111-7399,ELEMHIGH,C,32.769578,-117.17984,2020-08-21,"6401 Linda Vista Road, Room 216,San Diego,CA,92111",92111
5,37103710128538,San Diego County Court,92123,HS,C,32.794147,-117.15396,2019-02-13,"2801 Meadow Lark Drive,San Diego,CA,92123",92123
6,37103710135202,HOPE Infant-Toddler Special Education,92111-7319,PS,N,32.769578,-117.17984,2018-03-14,"6401 Linda Vista Road,San Diego,CA,92111",92111
7,37103710136085,Scholarship Prep - Oceanside,92057-6402,ELEM,N,33.232373,-117.317,2020-08-27,"4070 Mission Avenue,Oceanside,CA,92057",92057
8,37103710137695,Community Montessori,92026-2242,ELEM,N,33.129426,-117.11209,2020-08-13,"1441 Montiel Road, Suite 143,Escondido,CA,92026",92026
9,37103710137752,Dimensions Collaborative,92026-2242,ELEMHIGH,N,33.129426,-117.11209,2020-08-13,"1441 Montiel Road, Suite 143,Escondido,CA,92026",92026
10,37103710138016,Pacific Springs Charter,91913-3953,ELEM,N,32.620433,-116.97632,2020-08-13,"1615 Mater Dei Drive,Chula Vista,CA,91913",91913
11,37103710138404,Classical Academy Vista,92056-5471,ELEM,N,33.165025,-117.27027,2020-08-13,"4010 Mystra Way,Oceanside,CA,92056",92056
12,37103710138594,National University Academy Dual Language Institute,92803-7736,ELEM,N,33.172999,-117.21997,2019-03-27,"2030 University Drive,Vista,CA,92803",92803
13,37103710138792,JCS - Manzanita,91942-6014,ELEMHIGH,N,32.775721,-117.01398,2020-08-13,"5300 Jackson Drive,La Mesa,CA,91942",91942
14,37103711996545,North Coastal Consortium Schools,92069-3709,ELEMHIGH,N,33.142539,-117.16504,2019-02-13,"255 Pico Avenue, Room 220,San Marcos,CA,92069",92069
15,37103716069355,San Diego County Special Education,92111-7319,ELEMHIGH,N,32.769409,-117.1796,2019-11-20,"6401 Linda Vista Road, Room 409,San Diego,CA,92111",92111
16,37103716119119,Literacy First Charter,92020-5327,ELEMHIGH,N,32.787667,-116.95201,2020-08-13,"799 East Washington Avenue,El Cajon,CA,92020",92020
17,37679676037535,Joan MacQueen Middle,91901-3129,INTMIDJR,N,32.825432,-116.77538,2019-02-13,"2001 Tavern Road,Alpine,CA,91901",91901
18,37679676106256,Shadow Hills Elementary,91901-2615,ELEM,N,32.8319,-116.81522,2019-02-26,"8770 Harbison Canyon Road,Alpine,CA,91901",91901
19,37679676109086,Boulder Oaks Elementary,91901-3134,ELEM,N,32.819163,-116.77617,2020-08-13,"2320 Tavern Road,Alpine,CA,91901",91901
20,37679676109953,Mountain View Learning Academy,91901-2615,ELEM,N,32.832208,-116.81507,2020-08-13,"8770 Harbison Canyon Road,Alpine,CA,91901",91901
21,37679676118723,Creekside Early Learning Center,91901-2616,ELEM,N,32.832208,-116.81507,2019-02-13,"8818 Harbison Canyon Road,Alpine,CA,91901",91901
22,37679830134890,San Diego Workforce Innovation High,91950-1967,HS,N,32.689527,-117.0851,2020-08-13,"2 Euclid Avenue Suite A,National City,CA,91950",91950
23,37679833730447,Borrego Springs High,92004-0235,HS,N,33.265514,-116.38373,2019-11-06,"2281 Diegueno Road,Borrego Springs,CA,92004",92004
24,37679836037550,Borrego Springs Elementary,92004-0235,ELEM,N,33.256865,-116.34685,2019-02-13,"1315 Palm Canyon Drive,Borrego Springs,CA,92004",92004
25,37679836115315,Borrego Springs Middle,92004,INTMIDJR,N,33.264682,-116.38367,2019-11-06,"2255 Diegueno Road,Borrego Springs,CA,92004",92004
26,37679910108563,EJE Elementary Academy Charter,92020-5811,ELEM,N,32.784935,-116.97083,2019-06-17,"851 South Johnson Avenue,El Cajon,CA,92020",92020
27,37679910111005,Los Coches Creek Middle,92021-2619,INTMIDJR,N,32.858622,-116.81938,2020-08-13,"9669 Dunbar Lane,El Cajon,CA,92021",92021
28,37679910119255,EJE Middle Academy,92020-5811,INTMIDJR,N,32.784935,-116.97083,2019-02-13,"851 South Johnson Avenue,El Cajon,CA,92020",92020
29,37679910136176,Empower,92020-4015,INTMIDJR,N,32.795836,-116.95489,2020-08-13,"165 Roanoke Road,El Cajon,CA,92020",92020
30,37679910139394,Kidinnu Academy,92021-5844,ELEM,N,32.809266,-116.93478,2020-08-13,"1025 North Second Street,El Cajon,CA,92021",92021
31,37679916037568,Anza Elementary,92020-8602,ELEM,N,32.786,-116.9478,2020-08-13,"1005 South Anza Street,El Cajon,CA,92020",92020
32,37679916037576,Bostonia Language Academy,92021-5812,ELEM,N,32.807818,-116.93171,2019-08-22,"1390 East Broadway,El Cajon,CA,92021",92021
33,37679916037584,Cajon Valley Middle,92020-3922,INTMIDJR,N,32.798383,-116.95555,2020-08-13,"550 Park Avenue,El Cajon,CA,92020",92020
34,37679916037592,Chase Avenue Elementary,92020-6201,ELEM,N,32.780336,-116.96003,2020-08-13,"195 East Chase Avenue,El Cajon,CA,92020",92020
35,37679916037600,Crest Elementary,92021-4249,ELEM,N,32.805538,-116.86647,2020-08-14,"2000 Suncrest Boulevard,El Cajon,CA,92021",92021
36,37679916037626,Emerald Middle,92020-7315,INTMIDJR,N,32.778996,-116.96869,2020-08-14,"1221 South Emerald Avenue,El Cajon,CA,92020",92020
37,37679916037634,Flying Hills School of Arts,92020-1433,ELEM,N,32.811827,-116.9824,2020-08-13,"1251 Finch Street,El Cajon,CA,92020",92020
38,37679916037642,Fuerte Elementary,92020-8309,ELEM,N,32.762217,-116.94678,2020-08-13,"11625 Fuerte Drive,El Cajon,CA,92020",92020
39,37679916037659,Greenfield Middle,92021-3414,INTMIDJR,N,32.811048,-116.92834,2020-08-14,"1495 Greenfield Drive,El Cajon,CA,92021",92021
40,37679916037675,Johnson Elementary,92020-3211,ELEM,N,32.8008,-116.9562,2019-02-13,"500 West Madison,El Cajon,CA,92020",92020
41,37679916037683,Lexington Elementary,92019-4739,ELEM,N,32.791145,-116.94234,2020-08-14,"1145 Redwood Avenue,El Cajon,CA,92019",92019
42,37679916037691,Madison Avenue Elementary,92019-1046,ELEM,N,32.800143,-116.922,2020-08-13,"1615 East Madison Avenue,El Cajon,CA,92019",92019
43,37679916037709,Magnolia Elementary,92021-2957,ELEM,N,32.813388,-116.95404,2020-08-13,"650 Greenfield Drive,El Cajon,CA,92021",92021
44,37679916037717,Meridian Elementary,92019-2517,ELEM,N,32.788386,-116.92685,2020-08-13,"651 South Third Street,El Cajon,CA,92019",92019
45,37679916037725,Naranca Elementary,92021-5615,ELEM,N,32.803995,-116.94638,2020-08-13,"1030 Naranca Avenue,El Cajon,CA,92021",92021
46,37679916037733,Rios Elementary,92021-2725,ELEM,N,32.840076,-116.87577,2020-08-13,"14314 Rios Canyon Road,El Cajon,CA,92021",92021
47,37679916037741,W. D. Hall Elementary,92021-1460,ELEM,N,32.820878,-116.93116,2020-08-14,"1376 Pepper Drive,El Cajon,CA,92021",92021
48,37679916069082,Avocado Elementary,91941-7319,ELEM,N,32.750432,-116.96075,2020-08-13,"3845 Avocado School Road,La Mesa,CA,91941",91941
49,37679916093199,Sevick Special Education,92019-1046,ELEM,N,32.800143,-116.92221,2017-08-14,"1609 East Madison Avenue,El Cajon,CA,92019",92019
50,37679916093207,Montgomery Middle,92019-2015,INTMIDJR,N,32.79653,-116.92542,2020-08-13,"1570 Melody Lane,El Cajon,CA,92019",92019
51,37679916101794,Vista Grande Elementary,92019-3823,ELEM,N,32.76508,-116.91501,2020-08-13,"1908 Vista Grande Road,El Cajon,CA,92019",92019
52,37679916106025,Rancho San Diego Elementary,92019-4825,ELEM,N,32.754628,-116.93287,2020-08-13,"12151 Calle Albara,El Cajon,CA,92019",92019
53,37679916110787,Jamacha Elementary,92019-4640,ELEM,N,32.740143,-116.91223,2020-08-13,"2962 Jamul Drive,El Cajon,CA,92019",92019
54,37679916112148,Blossom Valley Elementary,92021-2300,ELEM,N,32.861732,-116.84665,2020-08-13,"9863 Oakmont Terrace,El Cajon,CA,92021",92021
55,37679916112890,Hillsdale Middle,92019-4374,INTMIDJR,N,32.74944,-116.9324,2020-08-14,"1301 Brabham Street,El Cajon,CA,92019",92019
56,37679916118319,Cajon Valley Home,92021-5812,ELEM,N,32.807708,-116.93212,2020-08-13,"1384 Broadway,El Cajon,CA,92021",92021
57,37680076037758,Ada W. Harris Elementary,92007-1356,ELEM,N,33.03128,-117.27349,2020-08-13,"1508 Windsor Road,Cardiff-by-the-Sea,CA,92007",92007
58,37680076037766,Cardiff Elementary,92007-2313,ELEM,N,33.025044,-117.2822,2020-08-13,"1888 Montgomery Avenue,Cardiff-by-the-Sea,CA,92007",92007
59,37680230101592,Hedenkamp (Anne and William) Elementary,91913-2895,ELEM,N,32.61674,-117.015,2019-02-13,"930 East Palomar,Chula Vista,CA,91913",91913
60,37680230105957,Liberty Elementary,91914-4026,ELEM,N,32.663976,-116.97761,2019-02-13,"2175 Proctor Valley Road,Chula Vista,CA,91914",91914
61,37680230105965,Salt Creek Elementary,91914-3622,ELEM,N,32.649018,-116.94925,2019-02-13,"1055 Hunte Parkway,Chula Vista,CA,91914",91914
62,37680230108662,Veterans Elementary,91913-3948,ELEM,N,32.623835,-116.97634,2019-02-13,"1550 Magdalena Avenue,Chula Vista,CA,91913",91913
63,37680230114009,Wolf Canyon Elementary,91913-3948,ELEM,N,32.611931,-116.97324,2020-08-13,"1950 Wolf Canyon Loop,Chula Vista,CA,91913",91913
64,37680230119594,Leonardo da Vinci Health Sciences Charter,91911-2332,ELEM,N,32.619689,-117.04798,2020-08-13,"229 East Naples,Chula Vista,CA,91911",91911
65,37680230124321,Howard Gardner Community Charter,91910-2119,ELEM,N,32.641093,-117.09543,2019-02-13,"647 E Street,Chula Vista,CA,91910",91910
66,37680230127431,Camarena (Enrique S.) Elementary,91915-1961,ELEM,N,32.622811,-116.95651,2019-02-13,"1650 Exploration Falls Drive,Chula Vista,CA,91915",91915
67,37680230131474,Special Education Preschool,91910-6115,PS,N,32.631632,-117.05816,2019-08-19,"84 East J Street, Room 301,Chula Vista,CA,91910",91910
68,37680230135277,Muraoka (Saburo) Elementary,91915,ELEM,N,32.615167,-116.99163,2020-01-27,"1644 Santa Alexia Avenue,Chula Vista,CA,91915",91915
69,37680230138073,Learning Choice Academy - Chula Vista,91914-3563,ELEMHIGH,C,32.652419,-116.96551,2020-08-13,"881 Kuhn Drive Suite, 106,Chula Vista,CA,91914",91914
70,37680236037824,Castle Park Elementary,91910-3309,ELEM,N,32.615057,-117.05726,2020-08-12,"25 Emerson Street,Chula Vista,CA,91910",91910
71,37680236037832,Allen (Ella B.) Elementary,91902-2309,ELEM,N,32.656765,-117.03358,2020-08-13,"4300 Allen School Road,Bonita,CA,91902",91902
72,37680236037840,Rohr (Fred H.) Elementary,91911-5999,ELEM,N,32.602452,-117.04055,2020-08-13,"1540 Malta Avenue,Chula Vista,CA,91911",91911
73,37680236037857,Rogers (Greg) Elementary,91911-2519,ELEM,N,32.611251,-117.07781,2020-08-13,"510 East Naples Street,Chula Vista,CA,91911",91911
74,37680236037865,Halecrest Elementary,91910-6499,ELEM,N,32.634394,-117.04331,2020-08-13,"475 East J Street,Chula Vista,CA,91910",91910
75,37680236037873,Harborside Elementary,91911-1619,ELEM,N,32.609058,-117.08551,2019-02-13,"681 Naples Street,Chula Vista,CA,91911",91911
76,37680236037881,Cook (Hazel Goes) Elementary,91911-1501,ELEM,N,32.625934,-117.0562,2020-08-13,"875 Cuyamaca Avenue,Chula Vista,CA,91911",91911
77,37680236037899,Hilltop Drive Elementary,91910-6020,ELEM,N,32.632209,-117.06414,2020-08-13,"30 Murray Street,Chula Vista,CA,91910",91910
78,37680236037907,Lauderbach (J. Calvin) Elementary,91911-3182,ELEM,N,32.620279,-117.07566,2019-02-13,"390 Palomar Street,Chula Vista,CA,91911",91911
79,37680236037915,Montgomery (John J.) Elementary,91911-5799,ELEM,N,32.597875,-117.069,2020-08-13,"1601 Fourth Avenue,Chula Vista,CA,91911",91911
80,37680236037923,Kellogg (Karl H.) Elementary,91911-2399,ELEM,N,32.619721,-117.04805,2020-08-13,"229 East Naples Street,Chula Vista,CA,91911",91911
81,37680236037931,Rice (Lilian J.) Elementary,91911-2098,ELEM,N,32.619137,-117.07569,2019-02-13,"915 Fourth Avenue,Chula Vista,CA,91911",91911
82,37680236037949,Loma Verde Elementary,91911-5310,ELEM,N,32.601123,-117.04889,2019-02-13,"1450 Loma Lane,Chula Vista,CA,91911",91911
83,37680236037956,Feaster (Mae L.) Charter,91910-1327,ELEM,N,32.642227,-117.09686,2019-02-13,"670 Flower Street,Chula Vista,CA,91910",91910
84,37680236037964,Finney (Myrtle S.) Elementary,92154-1799,ELEM,N,32.584496,-117.04839,2020-08-13,"3950 Byrd Street,San Diego,CA,92154",92154
85,37680236037972,Palomar Elementary,91911-3799,ELEM,N,32.613776,-117.04282,2020-08-13,"300 East Palomar Street,Chula Vista,CA,91911",91911
86,37680236037980,Mueller Charter (Robert L.),91910-5112,ELEMHIGH,N,32.626229,-117.09284,2020-08-21,"715 I Street,Chula Vista,CA,91910",91910
87,37680236037998,Rosebank Elementary,91911-1997,ELEM,N,32.649741,-117.07336,2020-08-13,"80 Flower Street,Chula Vista,CA,91911",91911
88,37680236038004,Silver Wing Elementary,92154-2422,ELEM,N,32.578749,-117.05258,2019-12-05,"3730 Arey Drive,San Diego,CA,92154",92154
89,37680236038012,Sunnyside Elementary,91902-2209,ELEM,N,32.674619,-117.01545,2020-08-13,"5430 San Miguel Road,Bonita,CA,91902",91902
90,37680236038020,Valle Lindo Elementary,91911-5699,ELEM,N,32.604937,-117.03275,2020-08-12,"1515 Oleander Avenue,Chula Vista,CA,91911",91911
91,37680236038038,Valley Vista Elementary,91902-1139,ELEM,N,32.659676,-117.04907,2019-02-13,"3724 Valley Vista Way,Bonita,CA,91902",91902
92,37680236038046,Vista Square Elementary,91910-3604,ELEM,N,32.635041,-117.08832,2020-08-13,"540 G Street,Chula Vista,CA,91910",91910
93,37680236066971,Parkview Elementary,91911-3826,ELEM,N,32.612989,-117.03115,2020-08-13,"575 Juniper Street,Chula Vista,CA,91911",91911
94,37680236069090,Juarez-Lincoln Elementary,92154-2599,ELEM,N,32.58072,-117.04543,2020-08-13,"849 Twining Avenue,San Diego,CA,92154",92154
95,37680236070825,Los Altos Elementary,92154-3731,ELEM,N,32.572654,-117.04889,2019-02-13,"1332 Kenalan Drive,San Diego,CA,92154",92154
96,37680236095020,Tiffany (Burton C.) Elementary,91913-2612,ELEM,N,32.64483,-116.99102,2020-08-13,"1691 Elmhurst Street,Chula Vista,CA,91913",91913
97,37680236095038,Otay Elementary,91911-5801,ELEM,N,32.595806,-117.05804,2020-08-13,"1651 Albany Avenue,Chula Vista,CA,91911",91911
98,37680236107775,Chula Vista Hills Elementary,91910-7133,ELEM,N,32.636251,-117.00246,2020-08-13,"980 Buena Vista Way,Chula Vista,CA,91910",91910
99,37680236108492,EastLake Elementary,91913-1263,ELEM,N,32.657494,-116.98515,2019-02-13,"1955 Hillside Drive,Chula Vista,CA,91913",91913
100,37680236109771,Clear View,91910-7400,ELEM,N,32.644805,-117.04506,2019-06-25,"455 Windrose Way,Chula Vista,CA,91910",91910
101,37680236111322,Discovery Charter,91910-7737,ELEM,N,32.641918,-117.01759,2020-05-28,"1100 Camino Biscay,Chula Vista,CA,91910",91910
102,37680236113021,Olympic View Elementary,91915-2127,ELEM,N,32.63572,-116.96342,2020-08-13,"1220 South Greensview Drive,Chula Vista,CA,91915",91915
103,37680236115646,Casillas (Joseph) Elementary,91910-7164,ELEM,N,32.630446,-117.00915,2020-08-13,"1130 East J Street,Chula Vista,CA,91910",91910
104,37680236115778,Chula Vista Learning Community Charter,91911-1118,ELEMHIGH,N,32.620687,-117.08495,2019-02-13,"590 K Street,Chula Vista,CA,91911",91911
105,37680236116396,Marshall (Thurgood) Elementary,91914-3537,ELEM,N,32.659064,-116.9682,2020-08-13,"2295 MacKenzie Creek Road,Chula Vista,CA,91914",91914
106,37680236116859,Arroyo Vista Charter,91915-2534,ELEM,N,32.638128,-116.95252,2019-02-13,"2491 School House Road,Chula Vista,CA,91915",91915
107,37680236118970,Heritage Elementary,91913-1480,ELEM,N,32.626236,-116.9953,2019-02-13,"1450 Santa Lucia Road,Chula Vista,CA,91913",91913
108,37680236118988,McMillin (Corky) Elementary,91913-1799,ELEM,N,32.631793,-116.98529,2020-08-13,"1201 Santa Cora Avenue,Chula Vista,CA,91913",91913
109,37680310131375,Coronado Unified Special Education Pre-K,92118-1638,PS,N,32.696405,-117.18735,2018-03-14,"201 6th Street,Coronado,CA,92118",92118
110,37680313731478,Coronado High,92118-2113,HS,C,32.691403,-117.17817,2020-08-13,"650 D Avenue,Coronado,CA,92118",92118
111,37680316038053,Coronado Village Elementary,92118-1600,ELEM,N,32.693914,-117.18213,2020-08-13,"600 Sixth Street,Coronado,CA,92118",92118
112,37680316038087,Silver Strand Elementary,92118-3124,ELEM,N,32.643984,-117.14542,2020-08-13,"1350 Leyte Road,Coronado,CA,92118",92118
113,37680316059570,Coronado Middle,92118-2110,INTMIDJR,N,32.69378,-117.17956,2020-08-13,"550 F Avenue,Coronado,CA,92118",92118
114,37680490127118,The Heights Charter,91901-2389,ELEM,N,32.835104,-116.75529,2020-08-13,"2710 Alpine Boulevard, Suite E,Alpine,CA,91901",91901
115,37680490129221,MethodSchools,92019-2922,ELEMHIGH,V,32.781118,-116.84889,2020-03-02,"4612 Dehesa Road,El Cajon,CA,92019",92019
116,37680490132506,Cabrillo Point Academy,92019-2922,ELEMHIGH,V,32.781118,-116.84889,2020-08-13,"4612 Dehesa Road,El Cajon,CA,92019",92019
117,37680490136416,Pacific Coast Academy,92064-8884,ELEMHIGH,V,32.939893,-117.03003,2020-08-13,"13915 Danielson Street #103,Poway,CA,92064",92064
118,37680490136614,Diego Hills Central Public Charter,92115-5300,ELEMHIGH,N,32.756779,-117.0803,2020-08-13,"4348 54th Street,San Diego,CA,92115",92115
119,37680496038095,Dehesa Elementary,92019-2922,ELEM,N,32.781239,-116.8512,2020-03-10,"4612 Dehesa Road,El Cajon,CA,92019",92019
120,37680560110114,Sycamore Ridge,92130-2650,ELEM,N,32.954011,-117.19998,2020-08-13,"5333 Old Carmel Valley Road,San Diego,CA,92130",92130
121,37680560114686,Ocean Air,92130-6974,ELEM,N,32.9281,-117.2147,2020-08-13,"11444 Canter Heights Drive,San Diego,CA,92130",92130
122,37680566038111,Del Mar Heights Elementary,92014-3453,ELEM,N,32.945637,-117.24973,2020-08-13,"13555 Boquita Drive,Del Mar,CA,92014",92014
123,37680566088983,Del Mar Hills Elementary,92014-0640,ELEM,N,32.954058,-117.24724,2020-08-13,"14085 Mango Drive,Del Mar,CA,92014",92014
124,37680566110696,Carmel Del Mar Elementary,92130-2222,ELEM,N,32.94087,-117.22955,2020-08-13,"12345 Carmel Park Drive,San Diego,CA,92130",92130
125,37680566115620,Ashley Falls Elementary,92130-3717,ELEM,N,32.957549,-117.20781,2020-08-13,"13030 Ashley Falls Drive,San Diego,CA,92130",92130
126,37680566117923,Sage Canyon,92130-4875,ELEM,N,32.925277,-117.20411,2020-08-13,"5290 Harvest Run Drive,San Diego,CA,92130",92130
127,37680566120596,Torrey Hills,92130-8657,ELEM,N,32.913451,-117.2232,2020-08-13,"10830 Calle Mar de Mariposa,San Diego,CA,92130",92130
128,37680806038145,Paul Ecke-Central Elementary,92024-2119,ELEM,N,33.058062,-117.29703,2019-07-12,"185 Union Street,Encinitas,CA,92024",92024
129,37680806038152,Ocean Knoll Elementary,92024-3901,ELEM,N,33.039889,-117.2725,2020-08-13,"910 Melba Road,Encinitas,CA,92024",92024
130,37680806066989,Capri Elementary,92024-1214,ELEM,N,33.076064,-117.28846,2019-02-13,"941 Capri Road,Encinitas,CA,92024",92024
131,37680806095046,Park Dale Lane Elementary,92024-4324,ELEM,N,33.046392,-117.24311,2020-08-13,"2050 Park Dale Lane,Encinitas,CA,92024",92024
132,37680806099402,Flora Vista Elementary,92024-2417,ELEM,N,33.055334,-117.25288,2020-08-13,"1690 Wandering Road,Encinitas,CA,92024",92024
133,37680806106132,La Costa Heights Elementary,92009-8331,ELEM,N,33.080785,-117.24484,2020-08-13,"3035 Levante Street,Carlsbad,CA,92009",92009
134,37680806108534,Mission Estancia Elementary,92009-9319,ELEM,N,33.072276,-117.23533,2020-08-13,"3330 Calle Barcelona,Carlsbad,CA,92009",92009
135,37680806112445,Olivenhain Pioneer Elementary,92009-8900,ELEM,N,33.064891,-117.23227,2020-08-13,"8000 Calle Acervo,Carlsbad,CA,92009",92009
136,37680806117709,El Camino Creek Elementary,92009-9028,ELEM,N,33.077016,-117.25892,2020-08-13,"7885 Paseo Aliso,Carlsbad,CA,92009",92009
137,37680980101535,Heritage K-8 Charter,92027-2517,ELEM,N,33.136223,-117.05448,2020-08-13,"1855 East Valley Parkway,Escondido,CA,92027",92027
138,37680980102590,Bear Valley Middle,92025-7618,INTMIDJR,N,33.083711,-117.05634,2020-08-13,"3003 Bear Valley Parkway,Escondido,CA,92025",92025
139,37680980102608,Farr Avenue Elementary,92026-3121,ELEM,N,33.138769,-117.0776,2019-02-13,"933 Farr Avenue,Escondido,CA,92026",92026
140,37680980107862,Reidy Creek Elementary,92026-8802,ELEM,N,33.17259,-117.08928,2020-08-24,"2869 North Broadway,Escondido,CA,92026",92026
141,37680980107870,Bernardo Elementary,92029-5634,ELEM,N,33.084707,-117.09137,2020-08-13,"1122 Mountain Heights Drive,Escondido,CA,92029",92029
142,37680980131813,Quantum Academy,92027-5331,INTMIDJR,N,33.143614,-117.03501,2020-08-13,"420 North Falconer Road,Escondido,CA,92027",92027
143,37680980133991,Epiphany Prep Charter,92025-1703,ELEM,N,33.127935,-117.08955,2019-02-13,"725 North Escondido Boulevard,Escondido,CA,92025",92025
144,37680986038178,Central Elementary,92025-4134,ELEM,N,33.118835,-117.07991,2020-08-24,"122 West Fourth Avenue,Escondido,CA,92025",92025
145,37680986038186,Conway Elementary,92027-1629,ELEM,N,33.146289,-117.07398,2020-08-13,"1325 Conway Drive,Escondido,CA,92027",92027
146,37680986038194,Del Dios Academy of Arts and Sciences,92025-2204,INTMIDJR,N,33.11037,-117.10117,2020-08-13,"1400 West Ninth Avenue,Escondido,CA,92025",92025
147,37680986038202,Felicita Elementary,92025-5510,ELEM,N,33.106493,-117.08245,2020-08-13,"737 West 13th Avenue,Escondido,CA,92025",92025
148,37680986038210,Mission Middle,92026-2216,INTMIDJR,N,33.13394,-117.07324,2020-08-13,"939 East Mission Avenue,Escondido,CA,92026",92026
149,37680986038228,Juniper Elementary,92025-6240,ELEM,N,33.105286,-117.06731,2020-08-13,"1809 South Juniper Street,Escondido,CA,92025",92025
150,37680986038236,Lincoln Elementary,92026-3043,ELEM,N,33.134291,-117.08714,2020-08-24,"1029 North Broadway,Escondido,CA,92026",92026
151,37680986038244,Oak Hill Elementary,92027-1629,ELEM,N,33.12953,-117.05125,2020-08-13,"1820 Oak Hill Drive,Escondido,CA,92027",92027
152,37680986038251,Rose Elementary,92027-1629,ELEM,N,33.143321,-117.0659,2020-08-13,"906 North Rose Avenue,Escondido,CA,92027",92027
153,37680986038939,Glen View Elementary,92027-1629,ELEM,N,33.146627,-117.05374,2019-08-13,"2201 East Mission Avenue,Escondido,CA,92027",92027
154,37680986038947,Orange Glen Elementary,92027-2930,ELEM,N,33.145429,-117.03605,2020-08-13,"2861 Valley Parkway,Escondido,CA,92027",92027
155,37680986066997,Miller Elementary,92025-5932,ELEM,N,33.09646,-117.07896,2020-08-13,"1975 Miller Avenue,Escondido,CA,92025",92025
156,37680986093215,Hidden Valley Middle,92027-1629,INTMIDJR,N,33.133732,-117.03329,2020-08-13,"2700 Reed Road,Escondido,CA,92027",92027
157,37680986102750,North Broadway Elementary,92026-1412,ELEM,N,33.161048,-117.09293,2020-08-24,"2301 North Broadway,Escondido,CA,92026",92026
158,37680986105944,Rincon Middle,92026-1512,INTMIDJR,N,33.157721,-117.08255,2020-08-24,"925 Lehner Avenue,Escondido,CA,92026",92026
159,37680986107882,L. R. Green Elementary,92025-7300,ELEM,N,33.086003,-117.05973,2020-08-13,"3115 Las Palmas Avenue,Escondido,CA,92025",92025
160,37680986110381,Pioneer Elementary,92027-1629,ELEM,N,33.138286,-117.07223,2019-02-13,"980 North Ash Street,Escondido,CA,92027",92027
161,37680986111769,Rock Springs Elementary,92026-2200,ELEM,N,33.13701,-117.1059,2020-08-13,"1155 Deodar Road,Escondido,CA,92026",92026
162,37680986116776,Classical Academy,92025-7446,ELEM,C,33.0844,-117.0555,2020-08-13,"2950 South Bear Valley Parkway,Escondido,CA,92025",92025
163,37681060111195,Classical Academy High,92025-2808,HS,C,33.124186,-117.08057,2020-08-13,"207 East Pennsylvania Avenue,Escondido,CA,92025",92025
164,37681060127241,Del Lago Academy - Campus of Applied Science,92029-4211,HS,C,33.096589,-117.10349,2019-02-13,"1740 Scenic Trail Way,Escondido,CA,92029",92029
165,37681060137034,Audeo Charter School III,92025-8006,ELEMHIGH,N,33.070485,-117.06492,2020-08-13,"200 East Via Rancho Parkway,Escondido,CA,92025",92025
166,37681063730025,Escondido Adult,92025,A,C,33.131196,-117.08846,2020-07-16,"220 West Crest,Escondido,CA,92025",92025
167,37681063730058,San Pasqual High,92025-7636,HS,C,33.077688,-117.05724,2019-02-13,"3300 Bear Valley Parkway,Escondido,CA,92025",92025
168,37681063731023,Escondido Charter High,92027-2525,HS,C,33.136449,-117.05426,2020-08-13,"1868 East Valley Parkway,Escondido,CA,92027",92027
169,37681063732054,Valley High (Continuation),92027-5333,HS,C,33.142244,-117.02326,2019-07-12,"410 North Hidden Trails Road,Escondido,CA,92027",92027
170,37681063732062,Escondido High,92026-2015,HS,C,33.144413,-117.09028,2019-02-13,"1535 North Broadway,Escondido,CA,92026",92026
171,37681063735313,Orange Glen High,92027-4115,HS,C,33.129474,-117.038,2020-08-14,"2200 Glen Ridge Road,Escondido,CA,92027",92027
172,37681140115519,Santa Margarita Academy,92028-2108,INTMIDJR,N,33.380281,-117.25397,2020-08-13,"400 West Elder Street,Fallbrook,CA,92028",92028
173,37681140131920,Maie Ellis Elementary,92028-2108,ELEM,N,33.380281,-117.25397,2019-02-13,"400 West Elder Street,Fallbrook,CA,92028",92028
174,37681140133967,Mike Choate Early Childhood Education Center,92028-2898,PS,N,33.377188,-117.25407,2018-08-13,"407 South Mission Road,Fallbrook,CA,92028",92028
175,37681146038269,La Paloma Elementary,92028-2108,ELEM,N,33.378156,-117.23539,2020-08-13,"300 Heald Lane,Fallbrook,CA,92028",92028
176,37681146038277,James E. Potter Intermediate,92028-2108,INTMIDJR,N,33.369188,-117.22164,2020-08-13,"1743 Reche Road,Fallbrook,CA,92028",92028
177,37681146038285,Fallbrook STEM Academy,92028-2108,ELEM,N,33.376687,-117.25531,2020-08-13,"405 West Fallbrook Street,Fallbrook,CA,92028",92028
178,37681146038301,Mary Fay Pendleton Elementary,92058-8234,ELEM,N,33.323361,-117.31057,2020-08-13,"110 Marine Drive,Oceanside,CA,92058",92058
179,37681146096515,San Onofre Elementary,92672-2517,ELEM,N,33.390408,-117.57875,2020-08-13,"200 Pate Road,San Clemente,CA,92672",92672
180,37681146096911,Fallbrook Homeschool Academy,92028-2108,ELEM,N,33.378171,-117.23546,2020-08-13,"300 Heald Lane,Fallbrook,CA,92028",92028
181,37681146109524,Live Oak Elementary,92028-2108,ELEM,N,33.369178,-117.2174,2020-08-13,"1978 Reche Road,Fallbrook,CA,92028",92028
182,37681146116420,William H. Frazier Elementary,92028-2108,ELEM,N,33.387442,-117.22413,2020-08-13,"1835 Gum Tree Lane,Fallbrook,CA,92028",92028
183,37681223730967,Oasis High (Alternative),92028-4500,HS,C,33.351956,-117.23611,2020-08-13,"2208 South Stage Coach Lane,Fallbrook,CA,92028",92028
184,37681223732179,Fallbrook High,92028-4429,HS,C,33.349505,-117.24137,2020-09-08,"2400 South Stage Coach Lane,Fallbrook,CA,92028",92028
185,37681223732195,Ivy High (Continuation),92028-4500,HS,C,33.347369,-117.23808,2020-08-13,"1056 Winterhaven Road,Fallbrook,CA,92028",92028
186,37681300128793,MERIT Academy,92020-1109,HS,C,32.816861,-116.97965,2020-08-13,"1600 North Cuyamaca Street,El Cajon,CA,92020",92020
187,37681300128819,REACH Academy,92019-2359,HS,C,32.793343,-116.93536,2020-08-13,"230 Jamacha Road,El Cajon,CA,92019",92019
188,37681300132548,IDEA Center,92020-1187,HS,C,32.816861,-116.97965,2020-08-13,"1600 North Cuyamaca Street,El Cajon,CA,92020",92020
189,37681300139063,The Learning Choice Academy - East County,91941-7965,ELEMHIGH,N,32.755668,-117.01354,2020-08-13,"4215 Spring Street Suite 104,La Mesa,CA,91941",91941
190,37681303730066,Valhalla High,92019-3742,HS,C,32.762192,-116.92037,2020-09-09,"1725 Hillsdale Road,El Cajon,CA,92019",92019
191,37681303730199,Foothills Adult Education Center,92019-2015,A,C,32.79713,-116.92436,2018-08-17,"1550 Melody Lane,El Cajon,CA,92019",92019
192,37681303730249,El Cajon Adult Center,92021-6226,A,C,32.80016,-116.94594,2019-08-13,"1075 East Madison Avenue,El Cajon,CA,92021",92021
193,37681303730256,Steele Canyon Adult Center,91978-2331,A,C,32.730297,-116.92517,2018-08-17,"12440 Campo Road,Spring Valley,CA,91978",91978
194,37681303730702,West Hills High,92071-2046,HS,C,32.849846,-117.01297,2020-08-13,"8756 Mast Boulevard,Santee,CA,92071",92071
195,37681303731262,Steele Canyon High,91978-2331,HS,C,32.730297,-116.92517,2020-08-13,"12440 Campo Road,Spring Valley,CA,91978",91978
196,37681303731486,Elite Academy,92019-2359,HS,C,32.793615,-116.93495,2020-08-13,"230 Jamacha Boulevard,El Cajon,CA,92019",92019
197,37681303731536,Grossmont Middle College High,92020-1765,HS,C,32.814927,-117.00889,2017-07-19,"8800 Grossmont College Drive,El Cajon,CA,92020",92020
198,37681303731692,El Cajon Valley High,92021-6226,HS,C,32.800133,-116.94728,2020-08-13,"1035 East Madison Avenue,El Cajon,CA,92021",92021
199,37681303731809,El Capitan High,92040-2406,HS,C,32.868106,-116.91489,2020-08-13,"10410 Ashwood Street,Lakeside,CA,92040",92040
200,37681303732336,Granite Hills High,92019-1052,HS,C,32.800159,-116.91681,2020-08-13,"1719 East Madison Avenue,El Cajon,CA,92019",92019
201,37681303732419,Grossmont Adult,92019,A,C,32.79713,-116.92436,2020-08-25,"1550 Melody Lane,El Cajon,CA,92019",92019
202,37681303732559,Chaparral High,92020-1187,HS,C,32.816896,-116.9797,2020-08-13,"1600 North Cuyamaca Street,El Cajon,CA,92020",92020
203,37681303732625,Grossmont High,91944-1043,HS,C,32.78067,-116.98498,2020-08-13,"1100 Murray Drive,La Mesa,CA,91944",91944
204,37681303732732,Helix High,91941-6055,HS,C,32.755905,-117.03981,2019-02-13,"7323 University Avenue,La Mesa,CA,91941",91941
205,37681303734548,Monte Vista High,91977-6934,HS,C,32.738087,-116.97221,2020-08-13,"3230 Sweetwater Springs Boulevard,Spring Valley,CA,91977",91977
206,37681303734761,Mount Miguel High,91977-3765,HS,C,32.724917,-117.01689,2020-08-13,"8585 Blossom Lane,Spring Valley,CA,91977",91977
207,37681303737905,Santana High,92071-1903,HS,C,32.857284,-116.97097,2020-08-13,"9915 North Magnolia Avenue,Santee,CA,92071",92071
208,37681556038319,Jamul Elementary,91935-3324,ELEM,N,32.730137,-116.85456,2020-08-13,"14567 Lyons Valley Road,Jamul,CA,91935",91935
209,37681556097182,Oak Grove Middle,91935-3223,INTMIDJR,N,32.722358,-116.86159,2020-08-13,"14344 Olive Vista Drive,Jamul,CA,91935",91935
210,37681556117303,Greater San Diego Academy,91935-3208,ELEMHIGH,N,32.728998,-116.85615,2019-07-25,"14545 Lyons Valley Road,Jamul,CA,91935",91935
211,37681630128421,Harbor Springs Charter,92036,ELEMHIGH,N,33.078652,-116.59486,2020-08-13,"1704 Cape Horn,Julian,CA,92036",92036
212,37681630137109,Diego Valley East Public Charter,92021-6449,HS,N,32.800703,-116.93542,2020-08-13,"511 North Second Street,El Cajon,CA,92021",92021
213,37681630138156,JCS - Mountain Oaks,92024-3748,ELEM,N,33.045335,-117.27987,2020-08-13,"539 Encinitas Boulevard,Encinitas,CA,92024",92024
214,37681630138628,JCS - Cedar Cove,92024-3840,ELEMHIGH,N,33.035868,-117.27597,2020-08-13,"777 Santa Fe,Encinitas,CA,92024",92024
215,37681630139402,Brookfield Engineering Science Technology Academy,92036,ELEMHIGH,F,33.078652,-116.59486,2019-11-04,"1704 Cape Horn,Julian,CA,92036",92036
216,37681633731239,Julian Charter,92036,ELEMHIGH,N,33.07808,-116.59581,2020-08-13,"1704 Cape Horn,Julian,CA,92036",92036
217,37681636038327,Julian Elementary,92036-0337,ELEM,N,33.07808,-116.59581,2020-08-15,"1704 Cape Horn,Julian,CA,92036",92036
218,37681636105845,Julian Junior High,92036-0337,INTMIDJR,N,33.07808,-116.59581,2020-08-15,"1704 Cape Horn,Julian,CA,92036",92036
219,37681713733219,Julian High,92036-0417,HS,N,33.076465,-116.59451,2020-08-13,"1656 Highway 78,Julian,CA,92036",92036
220,37681890129288,Eucalyptus Hills Elementary,92040-1046,ELEM,N,32.892434,-116.94779,2019-08-23,"11838 Valle Vista Road,Lakeside,CA,92040",92040
221,37681890130740,Lakeside Early Advantage Preschool,92040-3206,PS,N,32.859273,-116.91472,2018-03-14,"12824 Lakeshore Drive,Lakeside,CA,92040",92040
222,37681893731072,River Valley Charter,92040-2868,HS,N,32.853156,-116.94065,2019-02-13,"9707 1/2 Marilla Drive,Lakeside,CA,92040",92040
223,37681896038343,Lakeside Farms Elementary,92040-0578,ELEM,N,32.867036,-116.93598,2020-08-13,"11915 Lakeside Avenue,Lakeside,CA,92040",92040
224,37681896038350,Lakeside Middle,92040-0578,INTMIDJR,N,32.85513,-116.93804,2019-02-13,"11833 Woodside Avenue,Lakeside,CA,92040",92040
225,37681896038368,Lakeview Elementary,92040-0578,ELEM,N,32.843603,-116.90428,2019-02-13,"9205 Lakeview Road,Lakeside,CA,92040",92040
226,37681896038376,Lindo Park Elementary,92040-0578,ELEM,N,32.859031,-116.91443,2020-08-13,"12824 Lakeshore Drive,Lakeside,CA,92040",92040
227,37681896038384,Riverview Elementary,92040-4539,ELEM,N,32.846449,-116.93109,2019-08-22,"9308 Winter Gardens Boulevard,Lakeside,CA,92040",92040
228,37681896038392,Winter Gardens Elementary,92040-5406,ELEM,N,32.831458,-116.93122,2019-08-23,"8501 Pueblo Road,Lakeside,CA,92040",92040
229,37681896085047,Tierra del Sol Middle,92040-4317,INTMIDJR,N,32.854481,-116.91164,2019-02-13,"9611 Petite Lane,Lakeside,CA,92040",92040
230,37681896107742,Lakeside Union Alternative Education,92040-3015,ELEM,N,32.847282,-116.9317,2020-08-13,"9308 Winter Gardens Boulevard,Lakeside,CA,92040",92040
231,37681896110092,Lemon Crest Elementary,92040-0578,ELEM,N,32.85228,-116.92172,2019-02-13,"12463 Lemon Crest Drive,Lakeside,CA,92040",92040
232,37681896120901,Barona Indian Charter,92040-1541,ELEM,N,32.933084,-116.8772,2020-08-13,"1095 Barona Road,Lakeside,CA,92040",92040
233,37681970115543,Quest Academy,91977-3336,INTMIDJR,N,32.730135,-117.00817,2019-02-13,"8805 Tyler Street,Spring Valley,CA,91977",91977
234,37681970132290,La Mesa Arts Academy,91942-6212,INTMIDJR,N,32.75519,-117.03025,2020-08-13,"4200 Parks Avenue,La Mesa,CA,91942",91942
235,37681970132431,"Science, Technology, Engineering, Arts, and Math Academy at La Presa",91977-4819,INTMIDJR,N,32.712351,-117.00522,2020-08-13,"1001 Leland Street,Spring Valley,CA,91977",91977
236,37681970132951,Trust Blended Learning,91942-3400,ELEM,V,32.790456,-117.00419,2020-08-13,"9009 Park Placeaza Drive,La Mesa,CA,91942",91942
237,37681970134155,Spring Valley Academy,91977-1437,INTMIDJR,N,32.750413,-116.98775,2020-08-13,"3900 Conrad Drive,Spring Valley,CA,91977",91977
238,37681970136408,Sparrow Academy,91941-2030,ELEM,N,32.756024,-117.01271,2020-08-13,"4207 Spring Gardens Road,La Mesa,CA,91941",91941
239,37681976038400,Avondale Elementary,91977-3737,ELEM,N,32.719139,-117.01727,2020-08-13,"8401 Stansbury Street,Spring Valley,CA,91977",91977
240,37681976038418,Bancroft Elementary,91977-3336,ELEM,N,32.730135,-117.00817,2020-08-13,"8805 Tyler Street,Spring Valley,CA,91977",91977
241,37681976038434,Casa de Oro Elementary,91977-1720,ELEM,N,32.747767,-116.97276,2020-08-13,"10227 Ramona Drive,Spring Valley,CA,91977",91977
242,37681976038442,Fletcher Hills Elementary,92020-2809,ELEM,N,32.800478,-116.99618,2020-08-13,"2330 Center Place,El Cajon,CA,92020",92020
243,37681976038459,Highlands Elementary,91977-3003,ELEM,N,32.737305,-116.98155,2020-08-13,"3131 South Barcelona Street,Spring Valley,CA,91977",91977
244,37681976038467,Kempton Street Literacy Academy,91977-5017,ELEM,N,32.710497,-117.00175,2019-09-16,"740 Kempton Street,Spring Valley,CA,91977",91977
245,37681976038475,La Mesa Dale Elementary,91941-5214,ELEM,N,32.757662,-117.03215,2020-08-13,"4370 Parks Avenue,La Mesa,CA,91941",91941
246,37681976038509,La Presa Elementary,91977-6011,ELEM,N,32.706482,-116.99327,2020-08-13,"519 La Presa Street,Spring Valley,CA,91977",91977
247,37681976038517,Lemon Avenue Elementary,91941-5214,ELEM,N,32.768184,-117.00837,2020-08-13,"8787 Lemon Avenue,La Mesa,CA,91941",91941
248,37681976038525,Maryland Avenue Elementary,91941-5214,ELEM,N,32.777787,-117.0382,2020-08-13,"5400 Maryland Avenue,La Mesa,CA,91941",91941
249,37681976038533,Murray Manor Elementary,91942-2704,ELEM,N,32.788351,-117.01987,2020-08-13,"8305 El Paso Street,La Mesa,CA,91942",91942
250,37681976038541,Northmont Elementary,91942-3811,ELEM,N,32.790877,-116.99398,2020-08-13,"9405 Gregory Street,La Mesa,CA,91942",91942
251,37681976038558,Parkway Middle,91942-3400,INTMIDJR,N,32.791277,-117.00293,2020-08-13,"9009 Park Plaza Drive,La Mesa,CA,91942",91942
252,37681976038566,Rancho Elementary,91977-5716,ELEM,N,32.70508,-117.01594,2020-08-13,"8845 Noeline Avenue,Spring Valley,CA,91977",91977
253,37681976038574,Rolando Elementary,91941-5214,ELEM,N,32.763199,-117.04876,2020-08-13,"6925 Tower Street,La Mesa,CA,91941",91941
254,37681976070833,Murdock Elementary,91941-5214,ELEM,N,32.758828,-116.98474,2020-08-13,"4354 Conrad Drive,La Mesa,CA,91941",91941
255,37681976098446,Loma Elementary,91978-1517,ELEM,N,32.736664,-116.96884,2020-08-13,"10355 Loma Lane,Spring Valley,CA,91978",91978
256,37681976111207,Sweetwater Springs Elementary,91977-6903,ELEM,N,32.731776,-116.9766,2020-08-13,"10129 Austin Drive,Spring Valley,CA,91977",91977
257,37682056038608,Lemon Grove Academy for the Sciences and Humanities,91945-2542,ELEM,N,32.738507,-117.02886,2020-08-13,"7866 Lincoln Street,Lemon Grove,CA,91945",91945
258,37682056038624,Monterey Heights Elementary,91945-2515,ELEM,N,32.722188,-117.03315,2020-08-13,"7550 Canton Drive,Lemon Grove,CA,91945",91945
259,37682056038632,Mt. Vernon,91945-3336,ELEM,N,32.732311,-117.02093,2020-07-22,"8350 Mount Vernon Street,Lemon Grove,CA,91945",91945
260,37682056038657,San Altos Elementary,91945-2515,ELEM,N,32.724107,-117.04534,2020-08-13,"1750 Madera Street,Lemon Grove,CA,91945",91945
261,37682056038665,San Miguel Elementary,91945-2515,ELEM,N,32.735134,-117.04597,2020-08-13,"7059 San Miguel Avenue,Lemon Grove,CA,91945",91945
262,37682056038673,Vista La Mesa Academy,91941-7542,ELEM,N,32.748456,-117.04497,2020-08-13,"3900 Violet Street,La Mesa,CA,91941",91941
263,37682130118711,Mountain Empire Special Education Preschool,91962-4003,ELEM,N,32.75726,-116.49271,2015-09-28,"3291 Buckman Springs Road,Pine Valley,CA,91962",91962
264,37682130123224,San Diego Virtual,92108-3848,ELEMHIGH,V,32.771347,-117.13032,2019-02-13,"2878 Camino Del Rio South Suite 410,San Diego,CA,92108",92108
265,37682130126995,Camp Lockett Middle,91906-3154,INTMIDJR,N,32.616483,-116.47593,2020-08-13,"31360 Highway 94,Campo,CA,91906",91906
266,37682130127001,Pine Valley Middle,91962,INTMIDJR,N,32.819591,-116.52548,2020-08-13,"7454 Pine Boulevard,Pine Valley,CA,91962",91962
267,37682130127084,Compass Charter Schools of San Diego,91361-2851,ELEMHIGH,F,34.155677,-118.83082,2020-08-13,"850 Hampshire Road, Suite P,Thousand Oaks,CA,91361",91361
268,37682130129668,Motivated Youth Academy,92069-2989,ELEMHIGH,V,33.141522,-117.16245,2020-08-27,"100 E San Marcos Boulevard Ste 350,San Marcos,CA,92069",92069
269,37682130136978,Elite Academic Academy - Mountain Empire,92590-5526,ELEMHIGH,V,33.50021,-117.1611,2020-08-26,"43414 Business Park Drive,Temecula,CA,92590",92590
270,37682130138636,JCS - Pine Valley,91962,ELEMHIGH,N,32.821998,-116.52871,2020-08-27,"28876 Old Highway 80,Pine Valley,CA,91962",91962
271,37682133730934,Campo High (Continuation),91962-4005,HS,N,32.734352,-116.49294,2020-08-13,"3305 Buckman Springs Road,Pine Valley,CA,91962",91962
272,37682133730991,Hillside Junior/Senior High,91962-4005,HS,N,32.734352,-116.49294,2020-08-13,"3305 Buckman Springs Road,Pine Valley,CA,91962",91962
273,37682133731080,Cottonwood Community Day,91962-4003,HS,N,32.732694,-116.49425,2019-02-13,"3291 Buckman Springs Road,Pine Valley,CA,91962",91962
274,37682133734878,Mountain Empire High,91962-4005,HS,N,32.734424,-116.4937,2020-08-13,"3305 Buckman Springs Road,Pine Valley,CA,91962",91962
275,37682136038681,Campo Elementary,91906-2004,ELEM,N,32.643626,-116.48561,2020-08-13,"1654 Buckman Springs Road,Campo,CA,91906",91906
276,37682136038699,Descanso Elementary,91916-9757,ELEM,N,32.858654,-116.61341,2020-08-13,"24842 Viejas Boulevard,Descanso,CA,91916",91916
277,37682136085054,Clover Flat Elementary,91905-9733,ELEM,N,32.668361,-116.29589,2020-08-13,"39639 Old Highway 80,Boulevard,CA,91905",91905
278,37682136097190,Potrero Elementary,91963-4110,ELEM,N,32.610058,-116.6133,2019-08-23,"24875 Potrero Valley Road,Potrero,CA,91963",91963
279,37682210101360,Integrity Charter,91950-1123,ELEM,N,32.676262,-117.10704,2020-08-13,"701 National City Boulevard,National City,CA,91950",91950
280,37682210129734,National School District Preschool,91950-6162,PS,N,32.670265,-117.07596,2018-10-29,"2401 East 24th Street,National City,CA,91950",91950
281,37682216038731,Central Elementary,91950-3416,ELEM,N,32.676133,-117.1013,2019-02-13,"933 E Avenue,National City,CA,91950",91950
282,37682216038749,El Toyon Elementary,91950-1823,ELEM,N,32.688436,-117.08889,2019-02-13,"2000 East Division Street,National City,CA,91950",91950
283,37682216038756,John A. Otis Elementary,91950-4630,ELEM,N,32.669036,-117.0972,2019-02-13,"621 East 18th Street,National City,CA,91950",91950
284,37682216038764,Ira Harbison,91950-3116,ELEM,N,32.685779,-117.07317,2020-08-13,"3235 EastEighth Street,National City,CA,91950",91950
285,37682216038772,Kimball,91950-5526,ELEM,N,32.666367,-117.10637,2019-02-13,"302 West 18th Street,National City,CA,91950",91950
286,37682216038780,Las Palmas,91950-5013,ELEM,N,32.672498,-117.08437,2019-02-13,"1900 East 18th Street,National City,CA,91950",91950
287,37682216038798,Lincoln Acres,91950-6298,ELEM,N,32.671255,-117.07569,2020-08-11,"2200 Lanoitan Avenue,National City,CA,91950",91950
288,37682216038806,Olivewood,91950-7017,ELEM,N,32.662903,-117.09498,2019-02-13,"2505 F Avenue,National City,CA,91950",91950
289,37682216038814,Palmer Way,91950-5251,ELEM,N,32.679585,-117.07477,2019-02-13,"2900 Palmer Street,National City,CA,91950",91950
290,37682216108559,Rancho de la Nacion,91950-1850,ELEM,N,32.687964,-117.09059,2020-08-11,"1830 East Division Street,National City,CA,91950",91950
291,37682960102822,Stone Ranch Elementary,92127-4431,ELEM,N,33.005421,-117.11572,2020-08-13,"16150 4S Ranch Parkway,San Diego,CA,92127",92127
292,37682960108332,Oak Valley Middle,92127-3719,INTMIDJR,C,32.999254,-117.1098,2020-08-13,"16055 Winecreek Road,San Diego,CA,92127",92127
293,37682960111187,Monterey Ridge Elementary,92127-8853,ELEM,N,33.0264,-117.1094,2020-08-13,"17117 4S Ranch Parkway,San Diego,CA,92127",92127
294,37682960116475,Del Sur Elementary,92127-6144,ELEM,N,33.0185,-117.14056,2020-08-13,"15665 Paseo Del Sur,San Diego,CA,92127",92127
295,37682960116764,Willow Grove Elementary,92127-4813,ELEM,N,32.993542,-117.16104,2020-08-13,"14727 Via Azul,San Diego,CA,92127",92127
296,37682960118935,Del Norte High,92127-4457,HS,C,33.015119,-117.12162,2020-08-15,"16601 Nighthawk Lane,San Diego,CA,92127",92127
297,37682960129056,Design 39 Campus,92127-4463,ELEM,N,33.018484,-117.12715,2020-08-13,"17050 Del Sur Ridge Road,San Diego,CA,92127",92127
298,37682963730074,Mt. Carmel High,92129-2799,HS,C,32.965926,-117.12091,2020-08-13,"9550 Carmel Mountain Road,San Diego,CA,92129",92129
299,37682963730819,Rancho Bernardo High,92128-4499,HS,C,32.994329,-117.06805,2020-08-13,"13010 Paseo Lucido,San Diego,CA,92128",92128
300,37682963731528,Westview High,92129-4465,HS,C,32.965082,-117.14808,2020-08-13,"13500 Camino Del Sur,San Diego,CA,92129",92129
301,37682963735834,Poway Adult,92064-3034,A,C,32.978786,-117.03586,2016-12-08,"13626 Twin Peaks Road,Poway,CA,92064",92064
302,37682963735842,Abraxas Continuation High,92064-3299,HS,C,32.973675,-117.06088,2020-08-13,"12450 Glenoak Road,Poway,CA,92064",92064
303,37682963735867,Poway High,92064-2299,HS,C,32.996858,-117.02366,2020-08-13,"15500 Espola Road,Poway,CA,92064",92064
304,37682966038970,Garden Road Elementary,92064-5299,ELEM,N,32.956246,-117.01434,2020-08-13,"14614 Garden Road,Poway,CA,92064",92064
305,37682966038988,Meadowbrook Middle,92064-3599,INTMIDJR,C,32.963401,-117.06405,2019-02-13,"12320 Meadowbrook Lane,Poway,CA,92064",92064
306,37682966038996,Midland Elementary,92064-4024,ELEM,N,32.966051,-117.03619,2020-08-13,"13910 Midland Road,Poway,CA,92064",92064
307,37682966039002,Pomerado Elementary,92064-3597,ELEM,N,32.958705,-117.06457,2020-08-13,"12321 Ninth Street,Poway,CA,92064",92064
308,37682966039010,Valley Elementary,92064-5799,ELEM,N,32.953597,-117.04526,2019-02-13,"13000 Bowron Road,Poway,CA,92064",92064
309,37682966070841,Los Penasquitos Elementary,92129-1852,ELEM,N,32.970519,-117.09622,2020-08-13,"14125 Cuca Street,San Diego,CA,92129",92129
310,37682966070858,Westwood Elementary,92127-1299,ELEM,N,33.03119,-117.08695,2020-08-13,"17449 Matinal Road,San Diego,CA,92127",92127
311,37682966070866,Twin Peaks Middle,92064-3091,INTMIDJR,C,32.980105,-117.02769,2020-08-13,"14640 Tierra Bonita Road,Poway,CA,92064",92064
312,37682966085088,Painted Rock Elementary,92064-1628,ELEM,N,33.017454,-117.03971,2020-08-13,"16711 Martincoit Road,Poway,CA,92064",92064
313,37682966093223,Black Mountain Middle,92129-2198,INTMIDJR,N,32.96914,-117.12709,2020-08-13,"9353 Oviedo Street,San Diego,CA,92129",92129
314,37682966093231,Sunset Hills Elementary,92129-2199,ELEM,N,32.96914,-117.12709,2020-08-13,"9291 Oviedo Street,San Diego,CA,92129",92129
315,37682966095053,Tierra Bonita Elementary,92064-3090,ELEM,N,32.98141,-117.02771,2020-08-13,"14678 Tierra Bonita Road,Poway,CA,92064",92064
316,37682966097208,Rolling Hills Elementary,92129-1016,ELEM,N,32.989542,-117.09273,2020-08-13,"15255 Penasquitos Drive,San Diego,CA,92129",92129
317,37682966097216,Chaparral Elementary,92064-1123,ELEM,N,33.023731,-117.04995,2020-08-13,"17250 Tannin Drive,Poway,CA,92064",92064
318,37682966099444,Sundance Elementary,92129-2334,ELEM,N,32.960094,-117.13331,2020-08-13,"8944 Twin Trails Drive,San Diego,CA,92129",92129
319,37682966106520,Canyon View Elementary,92129-3525,ELEM,N,32.947126,-117.12807,2020-08-13,"9225 Adolphia Street,San Diego,CA,92129",92129
320,37682966107460,Bernardo Heights Middle,92128-4479,INTMIDJR,N,32.995489,-117.06788,2020-08-13,"12990 Paseo Lucido,San Diego,CA,92128",92128
321,37682966109300,Deer Canyon Elementary,92129-4411,ELEM,N,32.964038,-117.14377,2020-08-13,"13455 Russet Leaf Lane,San Diego,CA,92129",92129
322,37682966109318,Morning Creek Elementary,92128-4047,ELEM,N,32.953272,-117.09554,2020-08-13,"10925 Morning Creek Drive, South,San Diego,CA,92128",92128
323,37682966109326,Turtleback Elementary,92127-2044,ELEM,N,33.004949,-117.08814,2020-08-13,"15855 Turtleback Road,San Diego,CA,92127",92127
324,37682966110878,Adobe Bluffs Elementary,92129-4448,ELEM,N,32.974268,-117.14039,2019-02-13,"8707 Adobe Bluffs Drive,San Diego,CA,92129",92129
325,37682966110886,Highland Ranch Elementary,92128-3702,ELEM,N,32.984064,-117.07108,2020-08-13,"14840 Waverley Downs Way,San Diego,CA,92128",92128
326,37682966111306,Mesa Verde Middle,92129-4405,INTMIDJR,C,32.962739,-117.14671,2020-08-13,"8375 Entreken Way,San Diego,CA,92129",92129
327,37682966111314,Park Village Elementary,92129-3781,ELEM,N,32.940459,-117.15069,2020-08-13,"7930 Park Village Road,San Diego,CA,92129",92129
328,37682966114854,Shoal Creek Elementary,92128-4573,ELEM,N,32.967503,-117.08054,2020-08-13,"11775 Shoal Creek Drive,San Diego,CA,92128",92128
329,37682966117469,Creekside Elementary,92128-6366,ELEM,N,32.943627,-117.07551,2020-08-13,"12362 Springhurst Drive,San Diego,CA,92128",92128
330,37683040102178,Future Bound Independent Study Secondary,92065-2348,HS,N,33.039022,-116.86397,2020-06-26,"720 Ninth Street,Ramona,CA,92065",92065
331,37683040131250,Mountain Valley Academy,92065-3222,ELEMHIGH,N,33.026764,-116.87845,2020-08-13,"1010 Ramona Street,Ramona,CA,92065",92065
332,37683040131268,Ramona Community Montessori,92065-3222,ELEM,N,33.026764,-116.87845,2020-08-13,"1010 Ramona Street,Ramona,CA,92065",92065
333,37683043730900,Ramona Adult,92065-2348,A,N,33.039329,-116.86387,2020-06-26,"720 Ninth Street,Ramona,CA,92065",92065
334,37683043735958,Montecito High (Continuation),92065-2348,HS,N,33.039022,-116.86397,2020-08-13,"720 Ninth Street,Ramona,CA,92065",92065
335,37683043735974,Ramona High,92065-3304,HS,N,33.025724,-116.86867,2020-08-13,"1401 Hanson Lane,Ramona,CA,92065",92065
336,37683046039028,Hanson Elementary,92065-3106,ELEM,N,33.018565,-116.89073,2020-08-13,"2520 Boundary Avenue,Ramona,CA,92065",92065
337,37683046039036,Ramona Elementary,92065-2346,ELEM,N,33.04261,-116.86452,2020-08-13,"415 Eighth Street,Ramona,CA,92065",92065
338,37683046105555,James Dukes Elementary,92065-4649,ELEM,N,33.007843,-116.79124,2020-08-13,"24908 Abalar Way,Ramona,CA,92065",92065
339,37683046105563,Olive Peirce Middle,92065-3306,ELEMHIGH,N,33.025724,-116.87161,2020-08-13,"1521 Hanson Lane,Ramona,CA,92065",92065
340,37683046107999,Mt. Woodson Elementary,92065-6907,ELEM,N,33.031043,-116.95661,2020-08-13,"17427 Archie Moore Road,Ramona,CA,92065",92065
341,37683046110720,Barnett Elementary,92065-4120,ELEM,N,33.01808,-116.8121,2020-08-13,"23925 Couna Way,Ramona,CA,92065",92065
342,37683126039051,R. Roger Rowe Elementary,92067-0809,ELEM,N,33.021758,-117.20694,2020-08-13,"5927 La Granada,Rancho Santa Fe,CA,92067",92067
343,37683126070908,R. Roger Rowe Middle,92067-0809,INTMIDJR,N,33.021758,-117.20694,2020-08-13,"5927 La Granada,Rancho Santa Fe,CA,92067",92067
344,37683380101204,High Tech Middle,92106-6049,INTMIDJR,N,32.73524,-117.21805,2020-08-17,"2359 Truxtun Road,San Diego,CA,92106",92106
345,37683380101345,KIPP Adelante Preparatory Academy,92114-2203,INTMIDJR,N,32.709238,-117.0851,2020-06-23,"426 Euclid Avenue,San Diego,CA,92114",92114
346,37683380106732,High Tech High International,92106-6029,HS,N,32.732613,-117.21739,2020-08-13,"2855 Farragut Road,San Diego,CA,92106",92106
347,37683380106799,Learning Choice Academy,92131-1082,ELEMHIGH,C,32.91181,-117.1113,2020-08-13,"9950 Scripps Lake Drive Suite #105,San Diego,CA,92131",92131
348,37683380107029,San Diego International Studies,92101-4722,HS,C,32.719461,-117.15366,2020-08-13,"1405 Park Boulevard,San Diego,CA,92101",92101
349,37683380107052,San Diego Business/Leadership,92101-4722,HS,C,32.719461,-117.15366,2020-08-13,"1405 Park Boulevard,San Diego,CA,92101",92101
350,37683380107078,Kearny Digital Media & Design,92111-5731,HS,C,32.798708,-117.16044,2020-08-13,"1954 Komet Way,San Diego,CA,92111",92111
351,37683380107086,Kearny School of Biomedical Science and Technology,92111-5731,HS,C,32.798708,-117.16044,2020-08-13,"1954 Komet Way,San Diego,CA,92111",92111
352,37683380107094,Kearny College Connections,92111-5731,HS,C,32.798708,-117.16044,2020-08-13,"1954 Komet Way,San Diego,CA,92111",92111
353,37683380107102,Kearny Eng Innov & Design,92111-5731,HS,C,32.798708,-117.16044,2020-08-13,"1954 Komet Way,San Diego,CA,92111",92111
354,37683380107177,Crawford High,92115-6023,HS,C,32.752163,-117.07694,2020-08-13,"4191 Colts Way,San Diego,CA,92115",92115
355,37683380107219,San Diego Science and Technology,92101-4722,HS,C,32.719461,-117.15366,2020-08-13,"1405 Park Boulevard,San Diego,CA,92101",92101
356,37683380107482,San Diego Metro Career and Tech,92111-4902,HS,C,32.803695,-117.16498,2020-08-13,"7250 Mesa College Drive, Room L-502,San Diego,CA,92111",92111
357,37683380107573,High Tech Middle Media Arts,92106-6125,INTMIDJR,N,32.734604,-117.21975,2020-08-13,"2230 Truxtun Road, 2nd Floor,San Diego,CA,92106",92106
358,37683380108266,Golden Hill K-8,92102-2409,ELEM,N,32.71876,-117.12318,2020-07-02,"1240 33rd Street,San Diego,CA,92102",92102
359,37683380108274,Porter Elementary,92113-5006,ELEM,N,32.69871,-117.09106,2020-08-13,"4800 T Street,San Diego,CA,92113",92113
360,37683380108282,Cherokee Point Elementary,92105-2414,ELEM,N,32.747185,-117.11183,2020-07-02,"3735 38th Street,San Diego,CA,92105",92105
361,37683380108290,Ibarra Elementary,92115-4947,ELEM,N,32.753027,-117.08953,2020-08-13,"4877 Orange Avenue,San Diego,CA,92115",92115
362,37683380108787,High Tech High Media Arts,92106-6039,HS,N,32.734734,-117.2197,2020-08-13,"2230 Truxtun Road Third Floor,San Diego,CA,92106",92106
363,37683380109033,King-Chavez Arts and Athletics Academy,92102-4236,ELEM,N,32.709848,-117.12742,2020-08-13,"415 31st Street,San Diego,CA,92102",92102
364,37683380109157,Magnolia Science Academy San Diego,92120-2707,INTMIDJR,N,32.791691,-117.08783,2020-08-13,"6525 Estrella Avenue,San Diego,CA,92120",92120
365,37683380111864,Normal Heights Elementary,92116-3737,ELEM,N,32.761139,-117.11376,2020-08-13,"3750 Ward Road,San Diego,CA,92116",92116
366,37683380111898,Albert Einstein Academy Charter Middle,92102-1718,INTMIDJR,N,32.709719,-117.13816,2020-08-13,"458 26th Street,San Diego,CA,92102",92102
367,37683380111906,King-Chavez Preparatory Academy,92102-3090,INTMIDJR,N,32.710591,-117.1303,2020-08-13,"500 30th Street,San Diego,CA,92102",92102
368,37683380114025,Lincoln High,92113-2071,HS,C,32.704034,-117.09196,2020-08-13,"4777 Imperial Avenue,San Diego,CA,92113",92113
369,37683380114033,Rodriguez Elementary,92113-2525,ELEM,N,32.697615,-117.12725,2020-08-13,"825 South 31st Street,San Diego,CA,92113",92113
370,37683380114041,Joyner Elementary,92105-3426,ELEM,N,32.742094,-117.1027,2020-09-10,"4271 Myrtle Avenue,San Diego,CA,92105",92105
371,37683380114462,Health Sciences High and Middle College,92105-7302,HS,C,32.749745,-117.11047,2020-08-13,"3910 University Avenue, Suite 100,San Diego,CA,92105",92105
372,37683380116939,Innovation Middle,92117-2303,INTMIDJR,N,32.838063,-117.17514,2020-08-13,"5095 Arvinels Avenue,San Diego,CA,92117",92117
373,37683380117325,Millennial Tech Middle,92102-3713,INTMIDJR,N,32.716935,-117.08861,2020-02-13,"1110 Carolina Lane,San Diego,CA,92102",92102
374,37683380118083,Innovations Academy,92123-1313,ELEM,N,32.834194,-117.1273,2020-08-13,"5454 Ruffin Road,San Diego,CA,92123",92123
375,37683380118315,East Village Middle College High,92101-4717,HS,C,32.720003,-117.15317,2020-08-13,"1405 Park Boulevard,San Diego,CA,92101",92101
376,37683380118851,King-Chavez Community High,92101-4003,HS,C,32.718821,-117.16264,2020-08-13,"201 A Street,San Diego,CA,92101",92101
377,37683380119610,Gompers Preparatory Academy,92102-3626,ELEMHIGH,C,32.716111,-117.09357,2020-08-13,"1005 47th Street,San Diego,CA,92102",92102
378,37683380120410,iHigh Virtual Academy,92110-3012,HS,V,32.751221,-117.19481,2020-08-13,"3939 Conde Street,San Diego,CA,92110",92110
379,37683380121681,San Diego Global Vision Academy,92116-3423,ELEM,N,32.762372,-117.1191,2020-08-13,"3430 School Street,San Diego,CA,92116",92116
380,37683380122788,School for Entrepreneurship and Technology,92123-1711,HS,C,32.807105,-117.1485,2020-08-13,"3540 Aero Court,San Diego,CA,92123",92123
381,37683380123778,Old Town Academy K-8 Charter,92110-2901,ELEM,N,32.746573,-117.18925,2020-08-13,"2120 San Diego Avenue,San Diego,CA,92110",92110
382,37683380124115,Knox Middle,92113-3599,INTMIDJR,N,32.695466,-117.08946,2020-08-13,"1098 South 49th Street,San Diego,CA,92113",92113
383,37683380124347,City Heights Preparatory Charter,92115-6009,ELEMHIGH,N,32.753973,-117.07982,2020-08-13,"4260 54th Street,San Diego,CA,92115",92115
384,37683380126730,Kavod Charter,92111-3447,ELEM,N,32.819772,-117.16794,2020-06-09,"6991 Balboa Avenue,San Diego,CA,92111",92111
385,37683380126938,Home & Hosp/Transition Support,92103,ELEMHIGH,N,32.715329,-117.15725,2020-08-13,"4100 Normal Street, Annex 14,San Diego,CA,92103",92103
386,37683380127647,e3 Civic High,92101,HS,C,32.709215,-117.15465,2020-08-13,"395 11th Avenue, 6th Floor,San Diego,CA,92101",92101
387,37683380129387,Empower Language Academy,92111-6013,ELEM,N,32.772382,-117.17922,2020-09-10,"6402 Linda Vista Road,San Diego,CA,92111",92111
388,37683380129395,Elevate Charter,92123-3934,ELEM,N,32.786288,-117.14434,2020-08-13,"2285 Murray Ridge Road,San Diego,CA,92123",92123
389,37683380131565,High Tech Elementary,92106-6189,ELEM,N,32.731713,-117.21737,2020-08-24,"2150 Cushing Road,San Diego,CA,92106",92106
390,37683380131979,Ingenuity Charter,92114-5620,ELEMHIGH,V,32.70204,-117.06464,2020-08-11,"6130 Skyline Drive,San Diego,CA,92114",92114
391,37683380132316,Jonas Salk Elementary,92126-3449,ELEM,N,32.906344,-117.15512,2020-08-13,"7825 Flanders Drive,San Diego,CA,92126",92126
392,37683380135913,Urban Discovery Academy Charter,92101-6608,ELEMHIGH,N,32.714193,-117.15224,2020-07-14,"840 14th Street,San Diego,CA,92101",92101
393,37683380136663,America's Finest Charter,92102-3619,ELEMHIGH,N,32.712836,-117.09808,2020-08-13,"730 45th Street,San Diego,CA,92102",92102
394,37683380137802,National University Academy 1001 STEAM,92123-1788,ELEMHIGH,V,32.808972,-117.14885,2019-03-27,"3678 Aero Court,San Diego,CA,92123",92123
395,37683380140319,Logan Memorial Educational Campus,92113-1334,UG,N,32.700754,-117.13259,2020-08-25,"2875 Ocean View Blvd,San Diego,CA,92113",92113
396,37683380140384,Mountain View,92113-2712,ELEM,N,32.69745,-117.11746,2020-09-10,"3550 Logan Avenue,San Diego,CA,92113",92113
397,37683383730116,John Muir Language Academy,92117-4728,ELEM,C,32.823298,-117.19419,2019-10-03,"4431 Mount Herbert Avenue,San Diego,CA,92117",92117
398,37683383730173,Serra High,92124-2037,HS,C,32.825282,-117.10407,2020-08-13,"5156 Santo Road,San Diego,CA,92124",92124
399,37683383730181,Mira Mesa High,92126-3275,HS,N,32.910904,-117.14037,2020-08-13,"10510 Marauder Way,San Diego,CA,92126",92126
400,37683383730231,Twain High,92111-7320,HS,C,32.771471,-117.17933,2020-08-13,"6402 Linda Vista Road,San Diego,CA,92111",92111
401,37683383730280,San Diego Adult,92113,A,F,32.703991,-117.09202,2020-05-15,"4777 Imperial Avenue Room 407,San Diego,CA,92113",92113
402,37683383730314,University City High,92122-2455,HS,C,32.861197,-117.20954,2020-08-13,"6949 Genesee Avenue,San Diego,CA,92122",92122
403,37683383730363,Whittier K-12,92117-5938,ELEMHIGH,C,32.803799,-117.19929,2020-09-10,"3401 Clairemont Drive,San Diego,CA,92117",92117
404,37683383730371,San Diego SCPA,92139-2412,ELEMHIGH,C,32.679265,-117.04953,2020-08-13,"2425 Dusk Drive,San Diego,CA,92139",92139
405,37683383730751,Mt. Everest Academy,92117-4847,ELEMHIGH,V,32.820017,-117.1861,2020-08-13,"4350 Mount Everest Boulevard,San Diego,CA,92117",92117
406,37683383730884,Scripps Ranch High,92131-1126,HS,C,32.908719,-117.11199,2020-09-10,"10410 Falcon Way,San Diego,CA,92131",92131
407,37683383730959,Charter School of San Diego,92121-2964,ELEMHIGH,N,32.902951,-117.18379,2020-08-24,"10170 Huennekens Street,San Diego,CA,92121",92121
408,37683383731056,TRACE,92110-2818,HS,N,32.750337,-117.19342,2020-08-13,"2375 Congress Street Suite 4,San Diego,CA,92110",92110
409,37683383731130,ALBA,92104-1706,HS,C,32.751186,-117.13509,2020-08-13,"4041 Oregon Street,San Diego,CA,92104",92104
410,37683383731189,Preuss School UCSD,92093-0536,ELEMHIGH,N,32.875469,-117.23912,2020-09-02,"9500 Gilman Drive,La Jolla,CA,92093",92093
411,37683383731213,Clairemont High,92117-5853,HS,C,32.807111,-117.20332,2020-08-13,"4150 Ute Drive,San Diego,CA,92117",92117
412,37683383731247,High Tech High,92106-6025,HS,N,32.73404,-117.21514,2020-08-13,"2861 Womble Road,San Diego,CA,92106",92106
413,37683383731395,Audeo Charter,92121-2964,ELEMHIGH,N,32.902951,-117.18379,2020-08-13,"10170 Huennekens Street,San Diego,CA,92121",92121
414,37683383731551,Creative Performing and Media Arts,92117-1401,INTMIDJR,N,32.835962,-117.182,2020-08-13,"5050 Conrad Avenue,San Diego,CA,92117",92117
415,37683383732781,Henry High,92120-3250,HS,C,32.796333,-117.05148,2020-09-10,"6702 Wandermere Drive,San Diego,CA,92120",92120
416,37683383732997,Hoover High,92115-4312,HS,C,32.755352,-117.09761,2020-08-13,"4474 El Cajon Boulevard,San Diego,CA,92115",92115
417,37683383733508,La Jolla High,92037-6103,HS,C,32.832726,-117.27269,2020-08-13,"750 Nautilus Street,La Jolla,CA,92037",92037
418,37683383733698,Madison High,92117-3211,HS,C,32.831046,-117.17568,2020-08-13,"4833 Doliva Drive,San Diego,CA,92117",92117
419,37683383734431,Mission Bay High,92109-4825,HS,C,32.801298,-117.22441,2020-08-13,"2475 Grand Avenue,San Diego,CA,92109",92109
420,37683383734654,Morse High,92114-5928,HS,C,32.702602,-117.04876,2020-08-13,"6905 Skyline Drive,San Diego,CA,92114",92114
421,37683383735750,Point Loma High,92106-1646,HS,C,32.740362,-117.22662,2020-09-10,"2335 Chatsworth Boulevard,San Diego,CA,92106",92106
422,37683383737962,Garfield High,92101-4759,HS,C,32.718735,-117.14953,2020-08-13,"1255 16th Street,San Diego,CA,92101",92101
423,37683386039101,Adams Elementary,92116-3536,ELEM,N,32.76156,-117.11786,2020-09-10,"4672 35th Street,San Diego,CA,92116",92116
424,37683386039119,Alcott Elementary,92117-2503,ELEM,N,32.832311,-117.22046,2020-08-13,"4680 Hidalgo Avenue,San Diego,CA,92117",92117
425,37683386039135,Angier Elementary,92123-2013,ELEM,N,32.804911,-117.14534,2020-08-13,"8450 Hurlbut Street,San Diego,CA,92123",92123
426,37683386039143,Audubon K-8,92114-4836,ELEM,N,32.71121,-117.03008,2020-07-02,"8111 San Vicente,San Diego,CA,92114",92114
427,37683386039150,Baker Elementary,92113-1808,ELEM,N,32.698826,-117.10711,2020-08-13,"4041 T Street,San Diego,CA,92113",92113
428,37683386039168,Balboa Elementary,92113-4017,ELEM,N,32.687014,-117.108,2020-07-02,"1844 South 40th Street,San Diego,CA,92113",92113
429,37683386039184,Barnard Elementary,92109-4855,ELEM,N,32.802554,-117.2251,2020-09-10,"2445 Fogg Street,San Diego,CA,92109",92109
430,37683386039200,Bay Park Elementary,92110-3338,ELEM,N,32.786443,-117.20399,2020-08-13,"2433 Denver Street,San Diego,CA,92110",92110
431,37683386039242,Bird Rock Elementary,92037-8016,ELEM,N,32.811037,-117.26501,2020-08-13,"5371 La Jolla Hermosa Avenue,La Jolla,CA,92037",92037
432,37683386039259,Birney Elementary,92103-2406,ELEM,N,32.755275,-117.14875,2020-08-13,"4345 Campus Avenue,San Diego,CA,92103",92103
433,37683386039267,Boone Elementary,92114-7115,ELEM,N,32.694651,-117.0364,2019-11-14,"7330 Brookhaven Road,San Diego,CA,92114",92114
434,37683386039283,Burbank Elementary,92113-1237,ELEM,N,32.70044,-117.13891,2020-07-02,"2146 Julian Avenue,San Diego,CA,92113",92113
435,37683386039291,Cabrillo Elementary,92106-2447,ELEM,N,32.720377,-117.23364,2020-09-10,"3120 Talbot Street,San Diego,CA,92106",92106
436,37683386039309,Cadman Elementary,92117-4543,ELEM,N,32.822127,-117.21453,2020-08-13,"4370 Kamloop Avenue,San Diego,CA,92117",92117
437,37683386039341,Carson Elementary,92111-7021,ELEM,N,32.776942,-117.17104,2020-07-02,"6905 Kramer Street,San Diego,CA,92111",92111
438,37683386039358,Carver Elementary,92105-3807,ELEM,N,32.739196,-117.07105,2020-08-13,"3251 Juanita Street,San Diego,CA,92105",92105
439,37683386039366,Central Elementary,92105-1436,ELEM,N,32.751484,-117.10716,2019-02-13,"4063 Polk Avenue,San Diego,CA,92105",92105
440,37683386039374,Chesterton Elementary,92111-5824,ELEM,N,32.794045,-117.16209,2020-08-13,"7335 Wheatley Street,San Diego,CA,92111",92111
441,37683386039382,Chollas/Mead Elementary,92102-4732,ELEM,N,32.710528,-117.09784,2020-08-13,"401 North 45th Street,San Diego,CA,92102",92102
442,37683386039390,Clay Elementary,92115-4244,ELEM,N,32.763509,-117.05796,2020-08-13,"6506 Solita Avenue,San Diego,CA,92115",92115
443,37683386039424,Crown Point Elementary,92109-5946,ELEM,N,32.793243,-117.23889,2020-08-13,"4033 Ingraham Street,San Diego,CA,92109",92109
444,37683386039432,Cubberley Elementary,92123-2638,ELEM,N,32.801667,-117.12714,2020-08-13,"3201 Marathon Drive,San Diego,CA,92123",92123
445,37683386039440,Curie Elementary,92122-2523,ELEM,N,32.854678,-117.20303,2020-08-13,"4080 Governor Drive,San Diego,CA,92122",92122
446,37683386039457,Darnall Charter,92115-6520,ELEM,N,32.746606,-117.06676,2019-02-13,"6020 Hughes Street,San Diego,CA,92115",92115
447,37683386039481,Dewey Elementary,92110-4835,ELEM,N,32.74754,-117.20804,2020-08-13,"3251 Rosecrans Street,San Diego,CA,92110",92110
448,37683386039499,Edison Elementary,92104-2291,ELEM,N,32.751057,-117.11804,2020-09-10,"4077 35th Street,San Diego,CA,92104",92104
449,37683386039507,Ralph Waldo Emerson Elementary,92113-3118,ELEM,N,32.695014,-117.11874,2020-08-20,"3510 Newton Avenue,San Diego,CA,92113",92113
450,37683386039515,Encanto Elementary,92114-2818,ELEM,N,32.714909,-117.05804,2020-07-02,"822 65th Street,San Diego,CA,92114",92114
451,37683386039523,Euclid Elementary,92105-1910,ELEM,N,32.752319,-117.09226,2020-08-13,"4166 Euclid Avenue,San Diego,CA,92105",92105
452,37683386039556,Field Elementary,92117-2810,ELEM,N,32.832971,-117.19927,2020-07-02,"4375 Bannock Avenue,San Diego,CA,92117",92117
453,37683386039564,Fletcher Elementary,92123-3701,ELEM,N,32.785778,-117.1585,2020-08-13,"7666 Bobolink Way,San Diego,CA,92123",92123
454,37683386039572,Florence Elementary,92103-3089,ELEM,N,32.748814,-117.16391,2020-08-13,"3914 First Avenue,San Diego,CA,92103",92103
455,37683386039598,Foster Elementary,92120-2794,ELEM,N,32.791734,-117.0841,2020-08-13,"6550 51st Street,San Diego,CA,92120",92120
456,37683386039606,Franklin Elementary,92116-4802,ELEM,N,32.75806,-117.104,2020-08-13,"4481 Copeland Avenue,San Diego,CA,92116",92116
457,37683386039614,Freese Elementary,92114-7309,ELEM,N,32.703611,-117.02741,2020-08-13,"8140 Greenlawn Drive,San Diego,CA,92114",92114
458,37683386039630,Fulton K-8,92114-5930,ELEM,N,32.702667,-117.04741,2020-08-13,"7055 Skyline Drive,San Diego,CA,92114",92114
459,37683386039648,Gage Elementary,92119-1918,ELEM,N,32.806947,-117.01474,2020-02-04,"6811 Bisby Lake Avenue,San Diego,CA,92119",92119
460,37683386039655,Garfield Elementary,92116-3018,ELEM,N,32.7583,-117.13512,2020-08-13,"4487 Oregon Street,San Diego,CA,92116",92116
461,37683386039671,Grant K-8,92103-1792,ELEM,N,32.749893,-117.17562,2020-09-10,"1425 Washington Place,San Diego,CA,92103",92103
462,37683386039697,Green Elementary,92119-2969,ELEM,N,32.796445,-117.04495,2020-08-13,"7030 Wandermere Place,San Diego,CA,92119",92119
463,37683386039705,Hamilton Elementary,92105-4635,ELEM,N,32.736135,-117.10096,2020-07-02,"2807 Fairmount Avenue,San Diego,CA,92105",92105
464,37683386039713,Hardy Elementary,92115-1329,ELEM,N,32.771216,-117.07974,2020-08-13,"5420 Montezuma Road,San Diego,CA,92115",92115
465,37683386039721,Hawthorne Elementary,92117-1358,ELEM,N,32.838493,-117.18864,2020-08-13,"4750 Lehrer Drive,San Diego,CA,92117",92117
466,37683386039739,Hearst Elementary,92120-4604,ELEM,N,32.782889,-117.06432,2020-08-13,"6230 Del Cerro Boulevard,San Diego,CA,92120",92120
467,37683386039747,Holmes Elementary,92111-3808,ELEM,N,32.810047,-117.18916,2020-08-13,"4902 Mount Ararat Drive,San Diego,CA,92111",92111
468,37683386039754,Horton Elementary,92102-3734,ELEM,N,32.712278,-117.08621,2020-09-10,"5050 Guymon Street,San Diego,CA,92102",92102
469,37683386039762,Fay Elementary,92105-2209,ELEM,N,32.750942,-117.08361,2020-07-02,"4080 52nd Street,San Diego,CA,92105",92105
470,37683386039770,Jefferson Elementary,92104-3532,ELEM,N,32.74722,-117.13284,2020-08-13,"3770 Utah Street,San Diego,CA,92104",92104
471,37683386039788,Johnson Elementary,92114-1229,ELEM,N,32.719126,-117.07514,2020-08-13,"1355 Kelton Road,San Diego,CA,92114",92114
472,37683386039796,Jones Elementary,92123-2836,ELEM,N,32.796255,-117.14242,2020-08-13,"2751 Greyling Drive,San Diego,CA,92123",92123
473,37683386039804,Juarez Elementary,92123-3535,ELEM,N,32.792242,-117.12589,2020-02-03,"2633 Melbourne Drive,San Diego,CA,92123",92123
474,37683386039812,Keiller Leadership Academy,92114-3007,ELEM,N,32.712076,-117.04241,2020-08-13,"7270 Lisbon Street,San Diego,CA,92114",92114
475,37683386039846,La Jolla Elementary,92037-5131,ELEM,N,32.839513,-117.27086,2020-08-13,"1111 Marine Street,La Jolla,CA,92037",92037
476,37683386039853,Lafayette Elementary,92117-3346,ELEM,N,32.827552,-117.16914,2020-08-13,"6125 Printwood Way,San Diego,CA,92117",92117
477,37683386039861,Pacific View Leadership Elementary,92139-3612,ELEM,N,32.670197,-117.0571,2020-08-13,"6196 Childs Avenue,San Diego,CA,92139",92139
478,37683386039879,Linda Vista Elementary,92111-5530,ELEM,N,32.793449,-117.17314,2020-07-02,"2772 Ulric Street,San Diego,CA,92111",92111
479,37683386039887,Lindbergh/Schweitzer Elementary,92111-3128,ELEM,N,32.819448,-117.17152,2020-08-13,"4133 Mount Albertine Avenue,San Diego,CA,92111",92111
480,37683386039903,Loma Portal Elementary,92106-1599,ELEM,N,32.740347,-117.2211,2020-08-13,"3341 Browning Street,San Diego,CA,92106",92106
481,37683386039911,Longfellow K-8,92110-1114,ELEM,N,32.783766,-117.18851,2020-09-10,"5055 July Street,San Diego,CA,92110",92110
482,37683386039929,Perkins K-8,92113-2104,ELEM,N,32.700764,-117.14913,2020-08-13,"1770 Main Street,San Diego,CA,92113",92113
483,37683386039952,Marshall Elementary,92105-3698,ELEM,N,32.742345,-117.08638,2020-09-10,"3550 Altadena Avenue,San Diego,CA,92105",92105
484,37683386039960,Marvin Elementary,92120-1905,ELEM,N,32.796157,-117.06913,2020-08-13,"5720 Brunswick Avenue,San Diego,CA,92120",92120
485,37683386039978,McKinley Elementary,92104-5218,ELEM,N,32.736627,-117.12208,2020-08-13,"3045 Felton Street,San Diego,CA,92104",92104
486,37683386040000,Language Academy,92115-2602,ELEM,N,32.768355,-117.06227,2020-02-03,"4961 64th Street,San Diego,CA,92115",92115
487,37683386040018,Harriet Tubman Village Charter,92115-1728,ELEM,N,32.769775,-117.04975,2019-02-13,"6880 Mohawk Street,San Diego,CA,92115",92115
488,37683386040026,Oak Park Elementary,92105-4999,ELEM,N,32.732601,-117.0797,2020-08-13,"2606 54th Street,San Diego,CA,92105",92105
489,37683386040034,Ocean Beach Elementary,92107-2297,ELEM,N,32.745144,-117.24615,2020-08-13,"4741 Santa Monica Avenue,San Diego,CA,92107",92107
490,37683386040042,Pacific Beach Elementary,92109-1856,ELEM,N,32.808661,-117.25041,2020-08-13,"1234 Tourmaline Street,San Diego,CA,92109",92109
491,37683386040059,Paradise Hills Elementary,92139-1799,ELEM,N,32.679597,-117.06622,2020-08-13,"5816 Alleghany Street,San Diego,CA,92139",92139
492,37683386040067,Perry Elementary,92139-1142,ELEM,N,32.684978,-117.05864,2020-08-13,"6290 Oriskany Road,San Diego,CA,92139",92139
493,37683386040083,Riley/New Dawn,92111-4016,ELEMHIGH,N,32.809086,-117.17936,2020-08-13,"5650 Mount Ackerly Drive,San Diego,CA,92111",92111
494,37683386040091,Rolando Park Elementary,92115-6740,ELEM,N,32.747808,-117.05444,2020-08-13,"6620 Marlowe Drive,San Diego,CA,92115",92115
495,37683386040109,Ross Elementary,92111-4317,ELEM,N,32.811323,-117.16124,2020-08-13,"7470 Bagdad Street,San Diego,CA,92111",92111
496,37683386040117,Rowan Elementary,92105-5631,ELEM,N,32.723626,-117.11303,2020-09-10,"1755 Rowan Street,San Diego,CA,92105",92105
497,37683386040133,Sequoia Elementary,92117-3220,ELEM,N,32.828397,-117.17864,2020-08-13,"4690 Limerick Avenue,San Diego,CA,92117",92117
498,37683386040141,Sessions Elementary,92109-3617,ELEM,N,32.8087,-117.23201,2020-09-10,"2150 Beryl Street,San Diego,CA,92109",92109
499,37683386040158,Sherman Elementary,92102-2918,ELEM,N,32.708405,-117.1439,2020-07-02,"301 22nd Street,San Diego,CA,92102",92102
500,37683386040166,Silver Gate Elementary,92107-3699,ELEM,N,32.733235,-117.24415,2020-08-13,"1499 Venice Street,San Diego,CA,92107",92107
501,37683386040174,Spreckels Elementary,92122-3399,ELEM,N,32.849998,-117.21334,2020-08-13,"6033 Stadium Street,San Diego,CA,92122",92122
502,37683386040190,King-Chavez Primary Academy,92102-4236,ELEM,N,32.709848,-117.12742,2020-08-13,"415 31st Street,San Diego,CA,92102",92102
503,37683386040208,Sunset View Elementary,92107-4199,ELEM,N,32.724692,-117.25049,2020-09-10,"4365 Hill Street,San Diego,CA,92107",92107
504,37683386040224,Toler Elementary,92117-6017,ELEM,N,32.80064,-117.20929,2020-08-13,"3350 Baker Street,San Diego,CA,92117",92117
505,37683386040232,Torrey Pines Elementary,92037-2106,ELEM,N,32.858621,-117.24378,2020-08-13,"8350 Cliffridge Avenue,La Jolla,CA,92037",92037
506,37683386040257,Valencia Park Elementary,92114-5599,ELEM,N,32.701466,-117.07178,2020-08-13,"5880 Skyline Drive,San Diego,CA,92114",92114
507,37683386040265,Washington Elementary,92101-2598,ELEM,N,32.724215,-117.1667,2020-08-13,"1789 State Street,San Diego,CA,92101",92101
508,37683386040273,Webster Elementary,92102-1354,ELEM,N,32.724157,-117.09239,2020-08-13,"4801 Elm Street,San Diego,CA,92102",92102
509,37683386040281,Wegeforth Elementary,92123-2207,ELEM,N,32.805607,-117.1365,2020-08-13,"3443 Ediwhar Avenue,San Diego,CA,92123",92123
510,37683386040299,Benchley/Weinberger Elementary,92119-3051,ELEM,N,32.794462,-117.03254,2020-08-13,"6269 Twin Lake Drive,San Diego,CA,92119",92119
511,37683386040307,Whitman Elementary,92117-1101,ELEM,N,32.836074,-117.20321,2020-08-13,"4050 Appleton Street,San Diego,CA,92117",92117
512,37683386059588,Bell Middle,92139-1399,INTMIDJR,N,32.688916,-117.03736,2019-02-13,"620 Briarwood Road,San Diego,CA,92139",92139
513,37683386059596,Correia Middle,92107-1510,INTMIDJR,N,32.748723,-117.23133,2020-08-13,"4302 Valeta Street,San Diego,CA,92107",92107
514,37683386059604,Dana,92106-3709,ELEM,N,32.73311,-117.23346,2020-08-13,"1775 Chatsworth Boulevard,San Diego,CA,92106",92106
515,37683386059638,Lewis Middle,92120-1220,INTMIDJR,N,32.795877,-117.07977,2020-08-13,"5170 Greenbrier Avenue,San Diego,CA,92120",92120
516,37683386059646,Mann Middle,92115-5336,INTMIDJR,N,32.75662,-117.0793,2020-08-13,"4345 54th Street,San Diego,CA,92115",92115
517,37683386059653,Marston Middle,92117-5915,INTMIDJR,N,32.808054,-117.20111,2020-08-13,"3799 Clairemont Drive,San Diego,CA,92117",92117
518,37683386059679,Montgomery Middle,92111-6099,INTMIDJR,N,32.788093,-117.17162,2020-09-10,"2470 Ulric Street,San Diego,CA,92111",92111
519,37683386059687,Muirlands Middle,92037-6299,INTMIDJR,N,32.83213,-117.2697,2020-09-10,"1056 Nautilus Street,La Jolla,CA,92037",92037
520,37683386059695,Pacific Beach Middle,92109-3192,INTMIDJR,N,32.802126,-117.24167,2020-02-03,"4676 Ingraham Street,San Diego,CA,92109",92109
521,37683386059703,Roosevelt International Middle,92103-5299,INTMIDJR,N,32.740202,-117.14746,2020-09-10,"3366 Park Boulevard,San Diego,CA,92103",92103
522,37683386059711,Taft Middle,92123-4015,INTMIDJR,N,32.802346,-117.13113,2020-08-13,"9191 Gramercy Drive,San Diego,CA,92123",92123
523,37683386061964,The O'Farrell Charter,92114-5620,ELEMHIGH,C,32.701375,-117.06485,2020-08-13,"6130 Skyline Drive,San Diego,CA,92114",92114
524,37683386061972,Pershing Middle,92119-2636,INTMIDJR,N,32.800979,-117.02039,2020-08-13,"8204 San Carlos Drive,San Diego,CA,92119",92119
525,37683386061980,Wilson Middle,92105-1038,INTMIDJR,N,32.753259,-117.11195,2019-02-13,"3838 Orange Avenue,San Diego,CA,92105",92105
526,37683386069116,Miramar Ranch Elementary,92131-1204,ELEM,N,32.910297,-117.09902,2020-08-13,"10770 Red Cedar Drive,San Diego,CA,92131",92131
527,37683386071914,Mason Elementary,92126-3235,ELEM,N,32.906112,-117.13948,2020-08-13,"10340 San Ramon Drive,San Diego,CA,92126",92126
528,37683386077317,Penn Elementary,92139-3843,ELEM,N,32.673067,-117.0471,2020-08-13,"2797 Utica Drive,San Diego,CA,92139",92139
529,37683386089015,Ericson Elementary,92126-1943,ELEM,N,32.927749,-117.13565,2020-08-13,"11174 Westonhill Drive,San Diego,CA,92126",92126
530,37683386089023,Hickman Elementary,92126-2629,ELEM,N,32.914994,-117.15224,2020-08-13,"10850 Montongo Street,San Diego,CA,92126",92126
531,37683386089049,Sandburg Elementary,92126-1235,ELEM,N,32.925833,-117.14979,2020-08-13,"11230 Avenida del Gato,San Diego,CA,92126",92126
532,37683386089056,Tierrasanta Elementary,92124-1417,ELEM,N,32.829402,-117.09678,2020-02-21,"5450 La Cuenta Drive,San Diego,CA,92124",92124
533,37683386089064,Walker Elementary,92126-2908,ELEM,N,32.912841,-117.12669,2020-08-13,"9225 Hillery Drive,San Diego,CA,92126",92126
534,37683386093256,Miller Elementary,92124-2933,ELEM,N,32.818568,-117.10756,2020-09-10,"4343 Shields Street,San Diego,CA,92124",92124
535,37683386096051,Hancock Elementary,92124-3501,ELEM,N,32.805301,-117.108,2020-08-13,"3303 Taussig Street,San Diego,CA,92124",92124
536,37683386096598,Standley Middle,92122-3330,INTMIDJR,N,32.852231,-117.20568,2020-08-13,"6298 Radcliffe Drive,San Diego,CA,92122",92122
537,37683386096879,Dailard Elementary,92120-2125,ELEM,N,32.804463,-117.0539,2020-08-13,"6425 Cibola Road,San Diego,CA,92120",92120
538,37683386097844,Wangenheim Middle,92126-3799,INTMIDJR,N,32.905408,-117.12646,2020-08-13,"9230 Gold Coast Drive,San Diego,CA,92126",92126
539,37683386099055,Doyle Elementary,92122-1601,ELEM,N,32.863694,-117.22184,2020-08-13,"3950 Berino Court,San Diego,CA,92122",92122
540,37683386099063,Farb Middle,92124-3015,INTMIDJR,N,32.819754,-117.09995,2020-08-13,"4880 La Cuenta Drive,San Diego,CA,92124",92124
541,37683386099071,Jerabek Elementary,92131-1426,ELEM,N,32.908201,-117.08352,2020-08-13,"10050 Avenida Magnifica,San Diego,CA,92131",92131
542,37683386099089,Vista Grande Elementary,92124-1306,ELEM,N,32.834267,-117.10709,2020-08-13,"5606 Antigua Boulevard,San Diego,CA,92124",92124
543,37683386106173,Bethune K-8,92114-7827,ELEM,N,32.689764,-117.05013,2020-08-13,"6835 Benjamin Holt Road,San Diego,CA,92114",92114
544,37683386106181,De Portola Middle,92124-1507,INTMIDJR,N,32.828049,-117.09202,2020-08-13,"11010 Clairemont Mesa Boulevard,San Diego,CA,92124",92124
545,37683386106199,Zamorano Elementary,92139-2989,ELEM,N,32.680338,-117.03864,2020-08-13,"2655 Casey Street,San Diego,CA,92139",92139
546,37683386107056,Challenger Middle,92126-2599,INTMIDJR,N,32.913729,-117.15613,2020-09-10,"10810 Parkdale Avenue,San Diego,CA,92126",92126
547,37683386109599,Hage Elementary,92126-4823,ELEM,N,32.920514,-117.12094,2020-08-13,"9750 Galvin Avenue,San Diego,CA,92126",92126
548,37683386112460,Kumeyaay Elementary,92124-4031,ELEM,N,32.836632,-117.09116,2020-08-13,"6475 Antigua Boulevard,San Diego,CA,92124",92124
549,37683386112478,Nye Elementary,92114-6574,ELEM,N,32.696055,-117.07013,2020-08-13,"981 Valencia Parkway,San Diego,CA,92114",92114
550,37683386112726,Dingeman Elementary,92131-3701,ELEM,N,32.933134,-117.0907,2020-08-13,"11840 Scripps Creek Drive,San Diego,CA,92131",92131
551,37683386113211,McGill School of Success,92102-1123,ELEM,N,32.725479,-117.1297,2020-01-27,"3025 Fir Street,San Diego,CA,92102",92102
552,37683386114060,Clark Middle,92105-4238,INTMIDJR,N,32.740317,-117.10004,2019-02-13,"4388 Thorn Street,San Diego,CA,92105",92105
553,37683386114292,Kimbrough Elementary,92102-3132,ELEM,N,32.708732,-117.13288,2020-07-02,"321 Hoitt Street,San Diego,CA,92102",92102
554,37683386114300,Chavez Elementary,92113-4037,ELEM,N,32.691605,-117.10807,2020-07-02,"1404 South 40th Street,San Diego,CA,92113",92113
555,37683386114375,Rosa Parks Elementary,92105-2822,ELEM,N,32.745833,-117.09748,2020-07-02,"4510 Landis Street,San Diego,CA,92105",92105
556,37683386115331,Marshall Middle,92131-2135,INTMIDJR,N,32.896523,-117.10011,2020-08-13,"9700 Avenue of Nations,San Diego,CA,92131",92131
557,37683386115570,Museum,92103-6527,ELEM,N,32.732423,-117.16514,2019-02-13,"211 Maple Street,San Diego,CA,92103",92103
558,37683386117279,Holly Drive Leadership Academy,92102-1354,ELEM,N,32.724151,-117.09257,2020-08-13,"4801 Elm Street,San Diego,CA,92102",92102
559,37683386117683,High Tech Elementary Explorer,92106-6128,ELEM,N,32.734604,-117.21975,2020-08-13,"2230 Truxtun Road 1st Floor,San Diego,CA,92106",92106
560,37683386119135,Scripps Elementary,92131-3743,ELEM,N,32.930673,-117.08174,2020-08-13,"11778 Cypress Canyon Road,San Diego,CA,92131",92131
561,37683386119168,San Diego Cooperative Charter,92111-6128,ELEM,N,32.791139,-117.16638,2020-08-13,"7260 Linda Vista Road,San Diego,CA,92111",92111
562,37683386119598,King-Chavez Academy of Excellence,92113-2412,ELEM,N,32.697962,-117.1358,2020-08-13,"2716 Marcy Avenue,San Diego,CA,92113",92113
563,37683386120935,Albert Einstein Academy Charter Elementary,92102-1718,ELEM,N,32.720187,-117.12946,2019-02-13,"3035 Ash Street,San Diego,CA,92102",92102
564,37683460106328,Canyon Crest Academy,92130-2499,HS,N,32.96024,-117.18835,2020-08-13,"5951 Village Center Loop Road,San Diego,CA,92130",92130
565,37683460131649,Pacific Trails Middle,92130-2499,INTMIDJR,N,32.958864,-117.18624,2020-08-13,"5975 Village Center Loop Road,San Diego,CA,92130",92130
566,37683463730033,Torrey Pines High,92130-1316,HS,N,32.956384,-117.22497,2020-08-13,"3710 Del Mar Heights Road,San Diego,CA,92130",92130
567,37683463731007,La Costa Canyon High,92009,HS,N,33.075076,-117.23236,2020-08-13,"1 Maverick Way,Encinitas,CA,92009",92009
568,37683463737384,Sunset High (Continuation),92024-3703,HS,N,33.043504,-117.27747,2019-02-13,"684 Requeza Street,Encinitas,CA,92024",92024
569,37683463737418,San Dieguito HS Academy,92024-3357,HS,N,33.036329,-117.27501,2019-02-13,"800 Santa Fe Drive,Encinitas,CA,92024",92024
570,37683466059737,Oak Crest Middle,92024-3996,INTMIDJR,N,33.042141,-117.26833,2020-08-13,"675 Balour Drive,Encinitas,CA,92024",92024
571,37683466061998,Earl Warren Middle,92075-2038,INTMIDJR,N,32.995158,-117.26242,2020-08-13,"155 Stevens Street,Solana Beach,CA,92075",92075
572,37683466104749,Diegueno Middle,92024-5400,INTMIDJR,N,33.056629,-117.24202,2019-02-13,"2150 Village Park Way,Encinitas,CA,92024",92024
573,37683466117352,Carmel Valley Middle,92130-3572,INTMIDJR,N,32.946669,-117.22895,2020-08-13,"3800 Mykonos Lane,San Diego,CA,92130",92130
574,37683536040331,San Pasqual Union Elementary,92027-6700,ELEM,N,33.111418,-117.01127,2020-08-13,"15305 Rockwood Road,Escondido,CA,92027",92027
575,37683616040349,Cajon Park Elementary,92071-1704,ELEM,N,32.865962,-116.97111,2020-08-13,"10300 Magnolia Avenue,Santee,CA,92071",92071
576,37683616040356,Carlton Hills Elementary,92071-2515,ELEM,N,32.848026,-116.99684,2020-08-13,"9353 Pike Road,Santee,CA,92071",92071
577,37683616040364,Chet F. Harritt Elementary,92071-3513,ELEM,N,32.831437,-117.01939,2020-08-13,"8120 Arlette Street,Santee,CA,92071",92071
578,37683616040372,Pepper Drive Elementary,92020-1155,ELEM,N,32.826876,-116.95401,2020-08-13,"1935 Marlinda Way,El Cajon,CA,92020",92020
579,37683616040380,PRIDE Academy at Prospect Avenue,92071-3798,ELEM,N,32.833793,-116.996,2020-08-13,"9303 Prospect Avenue,Santee,CA,92071",92071
580,37683616040406,Sycamore Canyon Elementary,92071-1099,ELEM,N,32.862781,-117.00388,2020-08-13,"10201 Settle Road,Santee,CA,92071",92071
581,37683616068159,Carlton Oaks Elementary,92071-2354,ELEM,N,32.844606,-117.01489,2020-08-13,"9353 Wethersfield Road,Santee,CA,92071",92071
582,37683616085153,Rio Seco Elementary,92071-2674,ELEM,N,32.851376,-116.98324,2020-08-13,"9545 Cuyamaca Street,Santee,CA,92071",92071
583,37683616085161,Hill Creek Elementary,92071-2836,ELEM,N,32.852951,-116.96326,2020-08-13,"9665 Jeremy Street,Santee,CA,92071",92071
584,37683616111041,Santee Alternative,92071,ELEM,N,32.862499,-116.97421,2019-02-13,"10250 El Nopal,Santee,CA,92071",92071
585,37683616120190,Santee Success Program,92071-1998,INTMIDJR,N,32.865952,-116.97111,2019-02-13,"10280 North Magnolia Avenue,Santee,CA,92071",92071
586,37683790123000,Willow Elementary,92173-3096,ELEM,N,32.547737,-117.04235,2019-02-13,"226 Willow Road,San Ysidro,CA,92173",92173
587,37683790137737,Vista Del Mar,92154-8401,INTMIDJR,N,32.570714,-117.02802,2020-08-13,"4885 Del Sol Boulevard,San Diego,CA,92154",92154
588,37683796085146,Smythe Elementary,92173-1599,ELEM,N,32.562092,-117.04941,2019-02-13,"1880 Smythe Avenue,San Ysidro,CA,92173",92173
589,37683796089007,La Mirada Elementary,92173-1508,ELEM,N,32.564207,-117.04606,2020-08-13,"222 Avenida de la Madrid,San Ysidro,CA,92173",92173
590,37683796093264,Sunset Elementary,92173-3334,ELEM,N,32.5582,-117.04998,2019-02-13,"3825 Sunset Lane,San Ysidro,CA,92173",92173
591,37683796098453,San Ysidro Middle,92173-1623,INTMIDJR,N,32.562958,-117.03832,2020-08-13,"4345 Otay Mesa Road,San Ysidro,CA,92173",92173
592,37683796119341,Ocean View Hills,92154-8488,ELEM,N,32.572128,-117.02577,2019-10-24,"4919 Del Sol Boulevard,San Diego,CA,92154",92154
593,37683870105825,Solana Pacific Elementary,92130-2584,ELEM,N,32.952072,-117.23132,2020-08-13,"3901 Townsgate Drive,San Diego,CA,92130",92130
594,37683870129049,Solana Ranch Elementary,92130-5791,ELEM,N,32.964436,-117.19227,2020-08-13,"13605 Pacific Highlands Ranch Parkway,San Diego,CA,92130",92130
595,37683876040455,Skyline Elementary,92075-1400,ELEM,N,32.996163,-117.26298,2020-08-13,"606 Lomas Santa Fe Drive,Solana Beach,CA,92075",92075
596,37683876070882,Solana Vista Elementary,92075-1535,ELEM,N,33.00415,-117.25085,2020-08-13,"780 Santa Victoria Avenue,Solana Beach,CA,92075",92075
597,37683876106140,Solana Highlands Elementary,92130-1808,ELEM,N,32.954318,-117.24018,2020-08-13,"3520 Long Run Drive,San Diego,CA,92130",92130
598,37683876111181,Solana Santa Fe Elementary,92067-8940,ELEM,N,32.997084,-117.19246,2020-08-13,"6570 El Apajo,Rancho Santa Fe,CA,92067",92067
599,37683876112353,Carmel Creek Elementary,92130-2480,ELEM,N,32.950872,-117.22565,2020-08-13,"4210 Carmel Center Road,San Diego,CA,92130",92130
600,37683950125872,VIP Village Preschool,91932-3353,PS,N,32.574671,-117.11211,2015-01-12,"1001 Fern Avenue,Imperial Beach,CA,91932",91932
601,37683950140327,SBUSD Virtual Academy,91932-1101,ELEM,V,32.586297,-117.12711,2020-08-26,"525 Third Street,Imperial Beach,CA,91932",91932
602,37683956040463,Bayside STEAM Academy,91932-1524,ELEM,N,32.587565,-117.11311,2020-08-13,"490 Emory Street,Imperial Beach,CA,91932",91932
603,37683956040471,Central Elementary,91932-2920,ELEM,N,32.577528,-117.10592,2020-08-13,"1290 Ebony Avenue,Imperial Beach,CA,91932",91932
604,37683956040489,Emory Elementary,92154-2021,ELEM,N,32.576466,-117.09159,2020-08-13,"1915 Coronado Avenue,San Diego,CA,92154",92154
605,37683956040505,Imperial Beach Charter,91932-2706,ELEM,N,32.576599,-117.11967,2020-08-13,"650 Imperial Beach Boulevard,Imperial Beach,CA,91932",91932
606,37683956040513,Nestor Language Academy Charter,92154-4063,ELEM,N,32.570376,-117.0841,2019-02-13,"1455 Hollister Street,San Diego,CA,92154",92154
607,37683956040521,Oneonta Elementary,91932-3403,ELEM,N,32.57272,-117.11215,2019-02-13,"1311 Tenth Street,Imperial Beach,CA,91932",91932
608,37683956040539,Sunnyslope Elementary,92154-1498,ELEM,N,32.58014,-117.07974,2019-07-15,"2500 Elm Avenue,San Diego,CA,92154",92154
609,37683956067029,Godfrey G. Berry Elementary,92154-3032,ELEM,N,32.568151,-117.08999,2020-08-13,"2001 Rimbey Street,San Diego,CA,92154",92154
610,37683956094973,Howard Pence Elementary,92154-2256,ELEM,N,32.579102,-117.06191,2019-07-15,"877 Via Tonga Court,San Diego,CA,92154",92154
611,37683956098487,George Nicoloff Elementary,92173-1235,ELEM,N,32.564248,-117.06662,2020-07-09,"1777 Howard Avenue,San Ysidro,CA,92173",92173
612,37683956116008,Teofilo Mendoza,92154-2034,ELEM,N,32.576464,-117.08954,2020-08-13,"2050 Coronado Avenue,San Diego,CA,92154",92154
613,37684030125401,Insight @ San Diego,93065-1800,HS,F,34.275868,-118.79798,2020-08-13,"50 Moreland Road,Simi Valley,CA,93065",93065
614,37684036040554,Spencer Valley Elementary,92070-0159,ELEM,N,33.09656,-116.64555,2019-02-13,"4414 Highway 78 and 79,Santa Ysabel,CA,92070",92070
615,37684036120893,California Virtual Academy @ San Diego,93065-1800,ELEMHIGH,V,34.275868,-118.79798,2020-08-13,"50 Moreland Road,Simi Valley,CA,93065",93065
616,37684110111831,Olympian High,91913-3973,HS,N,32.607105,-116.97209,2019-02-13,"1925 Magdalena Avenue,Chula Vista,CA,91913",91913
617,37684110115873,East Hills Academy,91913,HS,N,32.6101,-117.0768,2020-08-13,"1791 Rock Mountain Road,Chula Vista,CA,91913",91913
618,37684110126086,Hawking S.T.E.A.M. Charter,91910-2445,ELEM,N,32.643349,-117.08896,2020-05-04,"489 E Street,Chula Vista,CA,91910",91910
619,37684113730124,Southwest Senior High,92154-4548,HS,N,32.568057,-117.08409,2019-08-26,"1685 Hollister Street,San Diego,CA,92154",92154
620,37684113730132,Montgomery Adult,92154-1507,A,N,32.585313,-117.06205,2019-08-26,"3240 Palm Avenue,San Diego,CA,92154",92154
621,37684113730405,Bonita Vista Senior High,91913-2004,HS,N,32.64603,-117.00114,2019-02-13,"751 Otay Lakes Road,Chula Vista,CA,91913",91913
622,37684113730801,Castle Park Senior High,91911-4529,HS,N,32.606982,-117.05284,2019-02-13,"1395 Hilltop Drive,Chula Vista,CA,91911",91911
623,37684113730843,Eastlake High,91915-2102,HS,N,32.646442,-116.96522,2019-08-26,"1120 Eastlake Parkway,Chula Vista,CA,91915",91915
624,37684113731064,Chula Vista Senior High,91911-1102,HS,N,32.622027,-117.07697,2020-08-12,"820 Fourth Avenue,Chula Vista,CA,91911",91911
625,37684113731106,San Ysidro Adult Education Center,92173,A,N,32.558871,-117.04133,2019-08-26,"4220 Otay Mesa Road,San Ysidro,CA,92173",92173
626,37684113731155,Options Secondary,91911-1705,HS,N,32.61526,-117.07696,2020-08-13,"467 Moss Street,Chula Vista,CA,91911",91911
627,37684113731171,Chula Vista Adult,91911,A,N,32.614769,-117.075,2019-08-26,"1034 Fourth Avenue,Chula Vista,CA,91911",91911
628,37684113731304,MAAC Community Charter,91911-4302,HS,N,32.604299,-117.06543,2019-02-13,"1385 Third Avenue,Chula Vista,CA,91911",91911
629,37684113731460,Alta Vista Academy,91911-6618,HS,N,32.61872,-117.02445,2020-08-13,"730 Medical Center Court,Chula Vista,CA,91911",91911
630,37684113731502,San Ysidro High,92154-4806,HS,N,32.566438,-117.01748,2019-02-13,"5353 Airway Road,San Diego,CA,92154",92154
631,37684113731627,Otay Ranch Senior High,91913-1900,HS,N,32.619073,-116.99635,2019-02-13,"1250 Olympic Parkway,Chula Vista,CA,91913",91913
632,37684113732047,Palomar High,91911-3098,HS,N,32.604757,-117.07385,2019-08-27,"480 Palomar Street,Chula Vista,CA,91911",91911
633,37684113732849,Hilltop Senior High,91910-6105,HS,N,32.636851,-117.0599,2019-10-31,"555 Claire Avenue,Chula Vista,CA,91910",91910
634,37684113733953,Mar Vista Senior High,91932-2027,HS,N,32.580208,-117.12224,2019-08-26,"505 Elm Avenue,Imperial Beach,CA,91932",91932
635,37684113738184,National City Adult,91950,A,N,32.663588,-117.096,2019-08-26,"517 West 24th Street,National City,CA,91950",91950
636,37684113738226,Sweetwater High,91950-7415,HS,N,32.659933,-117.0917,2019-02-13,"2900 Highland Avenue,National City,CA,91950",91950
637,37684113738234,Montgomery Senior High,92154-1507,HS,N,32.583873,-117.06422,2019-08-26,"3250 Palm Avenue,San Diego,CA,92154",92154
638,37684116059745,Bonita Vista Middle,91910-6910,INTMIDJR,N,32.648596,-117.00527,2019-02-13,"650 Otay Lakes Road,Chula Vista,CA,91910",91910
639,37684116059752,Castle Park Middle,91911-4414,INTMIDJR,N,32.604981,-117.05939,2019-02-13,"160 Quintard Street,Chula Vista,CA,91911",91911
640,37684116059760,Chula Vista Middle,91910-4305,INTMIDJR,N,32.635067,-117.08645,2020-08-10,"415 Fifth Avenue,Chula Vista,CA,91910",91910
641,37684116059778,Granger Junior High,91950-6299,INTMIDJR,N,32.672621,-117.07383,2019-08-26,"2101 Granger Avenue,National City,CA,91950",91950
642,37684116059786,Mar Vista Academy,92154-2802,INTMIDJR,N,32.57488,-117.09709,2019-02-13,"1267 Thermal Avenue,San Diego,CA,92154",92154
643,37684116059794,National City Middle,91950-4535,INTMIDJR,N,32.669245,-117.09973,2019-08-26,"1701 D Avenue,National City,CA,91950",91950
644,37684116062004,Hilltop Middle,91910-6115,INTMIDJR,N,32.630395,-117.06408,2019-08-26,"44 East J Street,Chula Vista,CA,91910",91910
645,37684116062012,Southwest Middle,92154-3338,INTMIDJR,N,32.569138,-117.07381,2019-02-13,"2710 Iris Street,San Diego,CA,92154",92154
646,37684116070890,Montgomery Middle,92154-3548,INTMIDJR,N,32.576045,-117.05612,2019-02-13,"1051 Picador Boulevard,San Diego,CA,92154",92154
647,37684116114276,Rancho del Rey Middle,91910-7040,INTMIDJR,N,32.630868,-117.00764,2019-02-13,"1174 East J Street,Chula Vista,CA,91910",91910
648,37684116117154,Sweetwater Community Day,91911-4404,HS,N,32.605905,-117.06115,2020-08-13,"1355 Second Avenue,Chula Vista,CA,91911",91911
649,37684116120968,Eastlake Middle,91914-2626,INTMIDJR,N,32.655591,-116.94818,2019-08-26,"900 Duncan Ranch Road,Chula Vista,CA,91914",91914
650,37684376040562,Vallecitos Elementary,92028-9795,ELEM,N,33.413921,-117.14871,2020-08-13,"5211 Fifth Street,Rainbow,CA,92028",92028
651,37684520100925,T.H.E Leadership Academy,92056-3066,ELEM,N,33.218505,-117.27087,2020-08-13,"1550 Temple Heights Drive,Oceanside,CA,92056",92056
652,37684520100933,Hannalei Elementary,92083-7625,ELEM,N,33.178337,-117.21575,2020-08-13,"120 Hannalei Drive,Vista,CA,92083",92083
653,37684520105882,Foothill Oak Elementary,92084-4001,ELEM,N,33.218194,-117.22187,2020-08-13,"1370 Oak Drive,Vista,CA,92084",92084
654,37684520106120,SIATech,92056-3582,HS,C,33.216092,-117.26989,2020-08-31,"2611 Temple Heights Drive, Suite A,Oceanside,CA,92056",92056
655,37684520111237,Maryland Elementary,92084-2906,ELEM,N,33.215538,-117.25793,2020-08-13,"700 North Avenue,Vista,CA,92084",92084
656,37684520114264,North County Trade Tech High,92083-3467,HS,N,33.212842,-117.25511,2020-08-13,"1132 N Melrose Drive, Suite 501,Vista,CA,92083",92083
657,37684520114637,"Vista Magnet Middle School of Technology, Science, and Math",92084-6035,INTMIDJR,N,33.20314,-117.23667,2020-08-13,"151 Civic Center Drive,Vista,CA,92084",92084
658,37684520115451,Major General Raymond Murray High,92083-5720,HS,N,33.198351,-117.25582,2020-08-13,"215 North Melrose Drive,Vista,CA,92083",92083
659,37684520118430,Mission Vista High,92057-4649,HS,N,33.25599,-117.26381,2020-08-13,"1306 Melrose Drive,Oceanside,CA,92057",92057
660,37684520124917,Guajome Learning Center,92083-1534,ELEMHIGH,C,33.230575,-117.25014,2020-08-13,"2000 North Santa Fe Avenue,Vista,CA,92083",92083
661,37684520126300,Vista Visions Academy,92084-3572,ELEMHIGH,C,33.222677,-117.21924,2020-08-13,"1575 Bonair Drive,Vista,CA,92084",92084
662,37684520128223,Bella Mente Montessori Academy,92083-2112,ELEM,N,33.189574,-117.27872,2020-08-13,"1737 West Vista Way,Vista,CA,92083",92083
663,37684523730207,Vista Adult Transition Center,92084-3027,ELEMHIGH,N,33.221287,-117.24111,2020-08-13,"325 East Bobier Drive,Vista,CA,92084",92084
664,37684523730298,Vista Adult,92081,A,N,33.187198,-117.24038,2019-09-24,"510 Sunset Drive,Vista,CA,92081",92081
665,37684523730728,Rancho Buena Vista High,92081-5423,HS,N,33.164594,-117.24715,2020-08-13,"1601 Longhorn Drive,Vista,CA,92081",92081
666,37684523730942,Guajome Park Academy Charter,92083-1534,ELEMHIGH,C,33.23012,-117.24877,2019-02-13,"2000 North Santa Fe Avenue,Vista,CA,92083",92083
667,37684523732039,Alta Vista High (Continuation),92084-3572,HS,N,33.222471,-117.2196,2020-08-13,"1575 Bonair Drive,Vista,CA,92084",92084
668,37684523738705,Vista High,92084-3101,HS,N,33.223361,-117.2419,2020-08-13,"1 Panther Drive,Vista,CA,92084",92084
669,37684526040588,Beaumont Elementary,92084-6321,ELEM,N,33.198044,-117.22481,2020-08-13,"550 Beaumont Drive,Vista,CA,92084",92084
670,37684526040596,Bobier Elementary,92083-1903,ELEM,N,33.221088,-117.24761,2020-08-13,"220 West Bobier Drive,Vista,CA,92083",92083
671,37684526040604,California Avenue Elementary,92083-3622,ELEM,N,33.207511,-117.24664,2020-08-13,"215 West California Avenue,Vista,CA,92083",92083
672,37684526040620,Grapevine Elementary,92083-5599,ELEM,N,33.199834,-117.27374,2020-06-11,"630 Grapevine Road,Vista,CA,92083",92083
673,37684526040638,Monte Vista Elementary,92084-7122,ELEM,N,33.190319,-117.21212,2020-08-13,"1720 Monte Vista Road,Vista,CA,92084",92084
674,37684526040653,Vista Academy of Visual and Performing Arts,92083-3631,ELEM,N,33.207469,-117.24508,2020-08-13,"600 North Santa Fe Avenue,Vista,CA,92083",92083
675,37684526059802,Rancho Minerva Middle,92084-6035,INTMIDJR,N,33.204318,-117.20552,2020-08-13,"2245 Foothill Drive,Vista,CA,92084",92084
676,37684526059810,Vista Innovation and Design Academy,92083-3396,INTMIDJR,N,33.204628,-117.25714,2020-08-13,"740 Olive Avenue,Vista,CA,92083",92083
677,37684526069124,Casita Center for Science/Math/Technology,92083-5108,ELEM,N,33.191355,-117.28465,2020-08-13,"260 Cedar Drive,Vista,CA,92083",92083
678,37684526107031,Alamosa Park Elementary,92057-6301,ELEM,N,33.239596,-117.28112,2020-08-13,"5130 Alamosa Park Drive,Oceanside,CA,92057",92057
679,37684526107577,Roosevelt Middle,92057-6937,INTMIDJR,N,33.235127,-117.28067,2020-08-13,"850 Sagewood Drive,Oceanside,CA,92057",92057
680,37684526107585,Lake Elementary,92056-4749,ELEM,N,33.17323,-117.25791,2020-08-13,"4950 Lake Boulevard,Oceanside,CA,92056",92056
681,37684526108708,Empresa Elementary,92056-6541,ELEM,N,33.223041,-117.28771,2020-08-13,"4850 Avenida Empresa,Oceanside,CA,92056",92056
682,37684526110399,Breeze Hill Elementary,92083-6505,ELEM,N,33.18517,-117.25456,2020-08-13,"1111 Melrose Way,Vista,CA,92083",92083
683,37684526110407,Mission Meadows Elementary,92056-5714,ELEM,N,33.246059,-117.25806,2020-08-13,"5657 Spur Avenue,Oceanside,CA,92056",92056
684,37684526112221,Madison Middle,92056-4749,INTMIDJR,N,33.173316,-117.25871,2020-08-13,"4930 Lake Boulevard,Oceanside,CA,92056",92056
685,37735283736808,San Diego Continuing Education,92113-1915,A,,32.699457,-117.10188,2016-01-30,"4343 Ocean View Boulevard,San Diego,CA,92113",92113
686,37735510107557,Calavera Hills Middle,92008-7101,INTMIDJR,N,33.172385,-117.29083,2020-08-13,"4104 Tamarack Avenue,Carlsbad,CA,92008",92008
687,37735510113498,Poinsettia Elementary,92009-1733,ELEM,N,33.1186,-117.2562,2020-08-13,"2445 Mica Road,Carlsbad,CA,92009",92009
688,37735510127423,Sage Creek High,92010-5573,HS,N,33.142565,-117.24945,2020-08-13,"3900 Bobcat Boulevard,Carlsbad,CA,92010",92010
689,37735513730017,Carlsbad Village Academy,92008-2785,HS,N,33.162338,-117.32762,2020-08-13,"3557 Monroe Street,Carlsbad,CA,92008",92008
690,37735513730694,Carlsbad High,92008-2729,HS,N,33.162399,-117.32698,2020-08-13,"3557 Monroe Street,Carlsbad,CA,92008",92008
691,37735513730892,Carlsbad Adult Transition,92009,A,N,33.122871,-117.26761,2016-10-08,"6225 El Camino Real,Carlsbad,CA,92009",92009
692,37735513731163,Carlsbad Seaside Academy,92008-2785,HS,N,33.162338,-117.32762,2019-02-13,"3557 Monroe Street,Carlsbad,CA,92008",92008
693,37735516037774,Buena Vista Elementary,92008-1535,ELEM,N,33.168932,-117.34252,2020-08-13,"1330 Buena Vista Way,Carlsbad,CA,92008",92008
694,37735516037782,Jefferson Elementary,92008-3336,ELEM,N,33.153787,-117.33958,2020-08-13,"3743 Jefferson Street,Carlsbad,CA,92008",92008
695,37735516037790,Magnolia Elementary,92008-2632,ELEM,N,33.160076,-117.3267,2020-08-13,"1905 Magnolia Avenue,Carlsbad,CA,92008",92008
696,37735516037816,Valley Middle,92008-2626,INTMIDJR,N,33.158874,-117.32931,2020-08-13,"1645 Magnolia Avenue,Carlsbad,CA,92008",92008
697,37735516099352,Kelly Elementary,92008-3734,ELEM,N,33.14836,-117.31122,2020-08-13,"4885 Kelly Drive,Carlsbad,CA,92008",92008
698,37735516106512,Hope Elementary,92008-2430,ELEM,N,33.17052,-117.30462,2020-08-13,"3010 Tamarack Avenue,Carlsbad,CA,92008",92008
699,37735516109201,Aviara Oaks Elementary,92009-2430,ELEM,N,33.101346,-117.27667,2020-08-13,"6900 Ambrosia Lane,Carlsbad,CA,92009",92009
700,37735516116578,Pacific Rim Elementary,92009-3400,ELEM,N,33.110252,-117.30595,2020-08-13,"1100 Camino de las Ondas,Carlsbad,CA,92009",92009
701,37735516118137,Aviara Oaks Middle,92011-5057,INTMIDJR,N,33.103077,-117.27894,2020-08-13,"6880 Ambrosia Lane,Carlsbad,CA,92011",92011
702,37735516120711,Calavera Hills Elementary,92008-7101,ELEM,N,33.172385,-117.29083,2020-08-13,"4100 Tamarack Avenue,Carlsbad,CA,92008",92008
703,37735690113514,Louise Foussat Elementary,92058-0678,ELEM,N,33.237973,-117.32914,2020-08-13,"3800 Pala Road,Oceanside,CA,92058",92058
704,37735690113522,Cesar Chavez Middle,92057-6122,INTMIDJR,N,33.241726,-117.30066,2020-08-13,"202 Oleander Drive,Oceanside,CA,92057",92057
705,37735690136267,Coastal Academy Charter,92056-5805,ELEMHIGH,C,33.206522,-117.29292,2020-08-13,"4096 Calle Platino,Oceanside,CA,92056",92056
706,37735690140079,Surfside Academy,92054-5103,ELEMHIGH,V,33.18541,-117.36811,2020-08-19,"1125 South Ditmar Street,Oceanside,CA,92054",92054
707,37735690140343,Oceanside Unified School District Adult Transition Program,92058-2311,UG,N,33.208707,-117.36229,2020-09-09,"707 Carey Road,Oceanside,CA,92058",92058
708,37735693731221,Pacific View Charter,92056-2669,ELEMHIGH,N,33.210649,-117.31151,2019-02-13,"3670 Ocean Ranch Boulevard,Oceanside,CA,92056",92056
709,37735693735206,Oceanside High,92054-3066,HS,C,33.197067,-117.37414,2020-07-08,"1 Pirates Cove,Oceanside,CA,92054",92054
710,37735693739018,El Camino High,92057-8316,HS,C,33.219594,-117.31909,2019-03-25,"400 Rancho del Oro Drive,Oceanside,CA,92057",92057
711,37735693739026,Surfside High (Continuation),92054-5103,HS,C,33.18541,-117.36811,2020-08-20,"1125 South Ditmar Street,Oceanside,CA,92054",92054
712,37735696038830,Jefferson Middle,92058-2305,INTMIDJR,N,33.208382,-117.36389,2020-08-13,"823 Acacia Street,Oceanside,CA,92058",92058
713,37735696038848,Laurel Elementary,92058-2217,ELEM,N,33.207375,-117.37345,2020-08-13,"1410 Laurel Street,Oceanside,CA,92058",92058
714,37735696038855,Libby Elementary,92057-4316,ELEM,N,33.251715,-117.30467,2020-08-13,"423 West Redondo Drive,Oceanside,CA,92057",92057
715,37735696038863,Lincoln Middle,92054-5683,INTMIDJR,N,33.187731,-117.35255,2020-08-13,"2000 California Street,Oceanside,CA,92054",92054
716,37735696038871,Mission Elementary,92058-2327,ELEM,N,33.205741,-117.36293,2020-08-13,"2100 Mission Avenue,Oceanside,CA,92058",92058
717,37735696038889,North Terrace Elementary,92058-6880,ELEM,N,33.21915,-117.38004,2020-08-13,"141 Santa Rosa Drive,Oceanside,CA,92058",92058
718,37735696038897,Palmquist Elementary,92054-5685,ELEM,N,33.189628,-117.34938,2020-08-13,"1999 California Street,Oceanside,CA,92054",92054
719,37735696038905,San Luis Rey Elementary,92054-3854,ELEM,N,33.219659,-117.3362,2020-08-13,"3535 Hacienda Drive,Oceanside,CA,92054",92054
720,37735696038913,Santa Margarita Elementary,92058-6699,ELEM,N,33.230925,-117.37907,2020-08-13,"1 Carnes Road,Oceanside,CA,92058",92058
721,37735696038921,South Oceanside Elementary,92054-6017,ELEM,N,33.177487,-117.35807,2020-08-13,"1806 South Horne Street,Oceanside,CA,92054",92054
722,37735696088991,Del Rio Elementary,92057-3811,ELEM,N,33.255349,-117.29486,2020-08-13,"5200 North River Road,Oceanside,CA,92057",92057
723,37735696106546,Reynolds Elementary,92057-4228,ELEM,N,33.255862,-117.3144,2019-02-13,"4575 Douglas Drive,Oceanside,CA,92057",92057
724,37735696108211,Christa McAuliffe Elementary,92056-6311,ELEM,N,33.200502,-117.30626,2020-08-13,"3701 Kelton Drive,Oceanside,CA,92056",92056
725,37735696109995,Ivey Ranch Elementary,92057-8534,ELEM,N,33.219404,-117.30103,2020-08-13,"4275 Via Rancho Road,Oceanside,CA,92057",92057
726,37735696111777,Martin Luther King Jr. Middle,92057-8535,INTMIDJR,N,33.215828,-117.31067,2020-08-13,"1290 Ivey Ranch Road,Oceanside,CA,92057",92057
727,37735696115299,Stuart Mesa Elementary,92058-8016,ELEM,N,33.254199,-117.40995,2020-08-13,"100 Yamanaka Way,Oceanside,CA,92058",92058
728,37735696119713,Nichols Elementary,92057-6539,ELEM,N,33.23807,-117.31559,2020-08-13,"4250 Old Grove Road,Oceanside,CA,92057",92057
729,37737910105684,San Elijo Middle,92078-1079,INTMIDJR,N,33.09882,-117.19736,2020-08-13,"1600 Schoolhouse Way,San Marcos,CA,92078",92078
730,37737910105726,Mission Hills High,92069-1965,HS,N,33.147163,-117.14694,2020-08-13,"1 Mission Hills Court,San Marcos,CA,92069",92069
731,37737910111468,San Elijo Elementary,92078-1080,ELEM,N,33.1,-117.1953,2020-08-13,"1615 Schoolhouse Way,San Marcos,CA,92078",92078
732,37737910116467,Joli Ann Leichtag Elementary,92081-8113,ELEM,N,33.155513,-117.21079,2020-08-13,"653 Poinsettia Avenue,Vista,CA,92081",92081
733,37737910131433,Double Peak,92078-2051,ELEM,N,33.106382,-117.16582,2020-08-13,"111 San Elijo Road,San Marcos,CA,92078",92078
734,37737910138222,Pivot Charter School - San Diego II,92078-5291,ELEMHIGH,V,33.124043,-117.20913,2020-08-13,"1030 La Bonita Drive Suite 100,San Marcos,CA,92078",92078
735,37737913730215,Twin Oaks High,92069-9702,HS,N,33.179778,-117.1591,2020-08-13,"158 Cassou Road,San Marcos,CA,92069",92069
736,37737913730793,Foothills High,92069-9702,HS,N,33.180651,-117.15868,2020-08-13,"158 Cassou Road,San Marcos,CA,92069",92069
737,37737913730918,San Marcos Adult,92069-9702,HS,N,33.178187,-117.15659,2020-08-13,"158 Cassou Road,San Marcos,CA,92069",92069
738,37737913737632,San Marcos High,92078-4020,HS,N,33.131215,-117.20543,2020-08-13,"1615 San Marcos Boulevard,San Marcos,CA,92078",92078
739,37737916039069,La Mirada Academy,92078-2312,ELEM,N,33.143808,-117.20381,2019-02-13,"3697 La Mirada Drive,San Marcos,CA,92078",92078
740,37737916039077,Richland Elementary,92069-2199,ELEM,N,33.154751,-117.14016,2020-08-13,"910 Borden Road,San Marcos,CA,92069",92069
741,37737916039085,San Marcos Elementary,92069-2703,ELEM,N,33.14128,-117.16829,2020-08-13,"1 Tiger Way,San Marcos,CA,92069",92069
742,37737916039093,San Marcos Middle,92069-1555,INTMIDJR,N,33.145673,-117.1749,2020-08-13,"650 West Mission Road,San Marcos,CA,92069",92069
743,37737916095061,Woodland Park Middle,92069-3220,INTMIDJR,N,33.147436,-117.12958,2020-08-13,"1270 Rock Springs Road,San Marcos,CA,92069",92069
744,37737916105993,La Costa Meadows Elementary,92009-5923,ELEM,N,33.104542,-117.23995,2020-08-13,"6889 El Fuerte Street,Carlsbad,CA,92009",92009
745,37737916107148,Knob Hill Elementary,92069-3301,ELEM,N,33.139633,-117.11971,2020-08-13,"1825 Knob Hill Road,San Marcos,CA,92069",92069
746,37737916108872,Paloma Elementary,92069-7323,ELEM,N,33.159796,-117.18482,2020-08-13,"660 Camino Magnifico,San Marcos,CA,92069",92069
747,37737916114169,Discovery Elementary,92078-4969,ELEM,N,33.129296,-117.1905,2020-08-13,"730 Applewilde Drive,San Marcos,CA,92078",92078
748,37737916115349,Twin Oaks Elementary,92069-9831,ELEM,N,33.178528,-117.15544,2020-08-13,"1 Cassou Road,San Marcos,CA,92069",92069
749,37737916116206,Carrillo Elementary,92009-3041,ELEM,N,33.119466,-117.2419,2020-08-13,"2875 Poinsettia Lane,Carlsbad,CA,92009",92009
750,37745263790029,San Diego County ROP,92111-7319,UG,,32.771468,-117.1793,2015-03-24,"6401 Linda Vista Road, Room 408,San Diego,CA,92111",92111
751,37754160122796,All Tribes Elementary Charter,92082-6046,ELEM,N,33.277583,-116.95371,2019-02-13,"34320 Valley Center Road, Suite B,Valley Center,CA,92082",92082
752,37754160132472,California Pacific Charter - San Diego,92660-2221,ELEMHIGH,F,33.666,-117.86982,2020-05-15,"4101 Birch Street Suite 150,Newport Beach,CA,92660",92660
753,37754160138651,San Diego Mission Academy,92123-1305,ELEMHIGH,F,32.835904,-117.12397,2020-08-13,"9512 Chesapeake Drive Suite 402,San Diego,CA,92123",92123
754,37754160139378,Sage Oak Charter School - South,92373-3913,ELEMHIGH,V,34.038346,-117.15383,2020-08-13,"1473 Ford Street Suite #105,Redlands,CA,92373",92373
755,37754160139386,Excel Academy Charter,92618-2339,ELEMHIGH,V,33.647447,-117.73468,2020-05-21,"1 Technology Drive Building I, Suite 811,Irvine,CA,92618",92618
756,37754160139451,Pathways Academy Charter - Adult Education,92069-2986,HS,F,33.141522,-117.16245,2019-11-04,"100 East San Marcos Boulevard Suite 350,San Marcos,CA,92069",92069
757,37754163730975,Warner Junior/Senior High,92086,HS,N,33.292294,-116.68489,2020-08-13,"30951 Highway 79,Warner Springs,CA,92086",92086
758,37754163731015,San Jose Valley Continuation High,92086,HS,N,33.292294,-116.68489,2017-05-26,"30951 Highway 79,Warner Springs,CA,92086",92086
759,37754166040661,Warner Elementary,92086-0008,ELEM,N,33.346655,-116.73027,2020-08-13,"30951 Highway 79,Warner Springs,CA,92086",92086
760,37754166119275,All Tribes Charter,92082-6046,ELEMHIGH,N,33.277583,-116.95371,2019-02-13,"34320 Valley Center Road,Valley Center,CA,92082",92082
761,37756140100511,Lilac,92082-3318,ELEM,N,33.256624,-117.06917,2019-08-21,"30109 Lilac Road,Valley Center,CA,92082",92082
762,37756143731114,Valley Center High,92082-3867,HS,N,33.279829,-117.02379,2020-08-13,"31322 Cole Grade Road,Valley Center,CA,92082",92082
763,37756143731312,Oak Glen High,92082-4123,HS,N,33.282007,-117.02401,2020-08-13,"14172 West Oak Glen Road,Valley Center,CA,92082",92082
764,37756143731338,Valley Center-Pauma Adult,92082,HS,N,33.28002,-117.02398,2018-07-12,"31322 Cole Grade Road,Valley Center,CA,92082",92082
765,37756143731601,Valley Center Prep,92082,ELEMHIGH,N,33.236018,-117.02144,2020-08-13,"28751-U Cole Grade Road,Valley Center,CA,92082",92082
766,37756146038962,Pauma Elementary,92061-9578,ELEM,N,33.315897,-116.99873,2019-08-21,"33158 Cole Grade Road,Pauma Valley,CA,92061",92061
767,37756146093272,Valley Center Middle,92082-6740,INTMIDJR,N,33.224381,-116.97567,2019-08-21,"28102 North Lake Wohlford Road,Valley Center,CA,92082",92082
768,37756146106124,Valley Center Primary,92082-5907,ELEM,N,33.239526,-117.02157,2019-08-21,"14249 Fruitvale Road,Valley Center,CA,92082",92082
769,37756146112494,Valley Center Elementary,92082-6575,ELEM,N,33.234769,-117.02397,2019-08-21,"28751 Cole Grade Road,Valley Center,CA,92082",92082
770,37764710114678,High Tech High Chula Vista,91915-2037,HS,N,32.62223,-116.95962,2020-08-31,"1945 Discovery Falls Drive,Chula Vista,CA,91915",91915
771,37764710114694,High Tech High North County,92078-4017,HS,N,33.131486,-117.20153,2020-08-13,"1420 San Marcos Boulevard,San Marcos,CA,92078",92078
772,37764710119271,High Tech Middle North County,92078-4017,INTMIDJR,N,33.131433,-117.20232,2020-08-13,"1460 West San Marcos Boulevard,San Marcos,CA,92078",92078
773,37764710123042,High Tech Middle Chula Vista,91915-2037,INTMIDJR,N,32.619241,-116.95858,2020-08-13,"1949 Discovery Falls Drive,Chula Vista,CA,91915",91915
774,37764710123059,High Tech Elementary Chula Vista,91915-2037,ELEM,N,32.619241,-116.95858,2020-08-13,"1949 Discovery Falls Drive,Chula Vista,CA,91915",91915
775,37764710127605,High Tech Elementary North County,92078-4017,ELEM,N,33.131439,-117.20377,2020-08-13,"1480 West San Marcos Boulevard,San Marcos,CA,92078",92078
776,37764710137067,High Tech High Mesa,92111-2622,HS,N,32.815661,-117.18079,2020-08-13,"5331 Mount Alifan,San Diego,CA,92111",92111
777,37764710138768,High Tech Middle Mesa,92111-2622,INTMIDJR,N,32.815661,-117.18079,2020-08-13,"5331 Mount Alifan Drive Building 400,San Diego,CA,92111",92111
778,37764710138776,High Tech Elementary Mesa,92111-2622,ELEM,N,32.815661,-117.18079,2020-08-13,"5331 Mount Alifan Drive Building 200,San Diego,CA,92111",92111
779,37768510110122,Bonsall West Elementary,92057-2704,ELEM,N,33.263619,-117.29384,2020-08-13,"5050 El Mirlo Drive,Oceanside,CA,92057",92057
780,37768510129320,Bonsall High,92003-4316,HS,N,33.296238,-117.17648,2020-08-13,"7350 West Lilac Road,Bonsall,CA,92003",92003
781,37768516037543,Bonsall Elementary,92003-5112,ELEM,N,33.287143,-117.22078,2020-08-13,"31555 Old River Road,Bonsall,CA,92003",92003
782,37768516108567,Norman L. Sullivan Middle,92003-5112,INTMIDJR,N,33.296116,-117.17507,2020-08-13,"7350 West Lilac Road,Bonsall,CA,92003",92003
783,37768516113468,Vivian Banks Charter,92059,ELEM,N,33.365115,-117.07171,2020-08-13,"11800 Pala Mission Road,Pala,CA,92059",92059
784,37770320134577,Audeo Charter II,92056-4605,ELEMHIGH,N,33.180779,-117.29137,2020-08-13,"3821 Plaza Drive, Suite 402,Oceanside,CA,92056",92056
785,37770990136077,Grossmont Secondary,92020-2510,HS,N,32.806734,-116.96305,2020-08-13,"111 Fletcher Parkway,El Cajon,CA,92020",92020
786,37771070136473,Sweetwater Secondary,91910-3200,HS,N,32.648779,-117.05338,2020-08-13,"3252 Bonita Road,Chula Vista,CA,91910",91910
787,37771560137323,Vista Springs Charter,92084-3804,ELEMHIGH,N,33.220678,-117.23443,2019-03-27,"700 East Bobier Avenue,Vista,CA,92084",92084
788,37771640137356,College Preparatory Middle,91977-1928,INTMIDJR,N,32.745829,-116.9713,2020-08-13,"10269 Madrid Way,Spring Valley,CA,91977",91977
789,37771720138099,Baypoint Preparatory Academy - San Diego,92078-3811,ELEM,N,33.138648,-117.15028,2020-08-13,"520 E. Carmel Street,San Marcos,CA,92078",92078
