CDSCode,School,Street,StreetAbr,City,Zip,State,EILCode,Virtual,Latitude,Longitude,LastUpDate,AddrZip,SmallZip,Address
37103710108548,Iftin Charter,5465 El Cajon Boulevard,5465 El Cajon Blvd.,San Diego,92115-3620,CA,ELEM,N,32.757908,-117.07814,2020-08-13,92115,92115.0,"5465 El Cajon Boulevard, San Diego, CA, 92115"
37103710115998,San Pasqual Academy,17701 San Pasqual Valley Road,17701 San Pasqual Valley Rd.,Escondido,92025-5301,CA,HS,C,33.09058,-116.95009,2019-02-13,92025,92025.0,"17701 San Pasqual Valley Road, Escondido, CA, 92025"
37103710120485,Davila Day,540 G Street,540 G St.,Chula Vista,91910-3604,CA,ELEM,N,32.635041,-117.08832,2019-02-13,91910,91910.0,"540 G Street, Chula Vista, CA, 91910"
37103710120493,Monarch,1625 Newton Avenue,1625 Newton Ave.,San Diego,92113-1012,CA,ELEMHIGH,C,32.702375,-117.15045,2020-08-24,92113,92113.0,"1625 Newton Avenue, San Diego, CA, 92113"
37103710128520,San Diego County Community,"6401 Linda Vista Road, Room 216","6401 Linda Vista Rd., Rm. 216",San Diego,92111-7399,CA,ELEMHIGH,C,32.769578,-117.17984,2020-08-21,92111,92111.0,"6401 Linda Vista Road, Room 216, San Diego, CA, 92111"
37103710128538,San Diego County Court,2801 Meadow Lark Drive,2801 Meadow Lark Dr.,San Diego,92123,CA,HS,C,32.794147,-117.15396,2019-02-13,92123,92123.0,"2801 Meadow Lark Drive, San Diego, CA, 92123"
37103710135202,HOPE Infant-Toddler Special Education,6401 Linda Vista Road,6401 Linda Vista Rd.,San Diego,92111-7319,CA,PS,N,32.769578,-117.17984,2018-03-14,92111,92111.0,"6401 Linda Vista Road, San Diego, CA, 92111"
37103710136085,Scholarship Prep - Oceanside,4070 Mission Avenue,4070 Mission Ave.,Oceanside,92057-6402,CA,ELEM,N,33.232373,-117.317,2020-08-27,92057,92057.0,"4070 Mission Avenue, Oceanside, CA, 92057"
37103710137695,Community Montessori,"1441 Montiel Road, Suite 143","1441 Montiel Rd., Ste. 143",Escondido,92026-2242,CA,ELEM,N,33.129426,-117.11209,2020-08-13,92026,92026.0,"1441 Montiel Road, Suite 143, Escondido, CA, 92026"
37103710137752,Dimensions Collaborative,"1441 Montiel Road, Suite 143","1441 Montiel Rd., Ste. 143",Escondido,92026-2242,CA,ELEMHIGH,N,33.129426,-117.11209,2020-08-13,92026,92026.0,"1441 Montiel Road, Suite 143, Escondido, CA, 92026"
37103710138016,Pacific Springs Charter,1615 Mater Dei Drive,1615 Mater Dei Dr.,Chula Vista,91913-3953,CA,ELEM,N,32.620433,-116.97632,2020-08-13,91913,91913.0,"1615 Mater Dei Drive, Chula Vista, CA, 91913"
37103710138404,Classical Academy Vista,4010 Mystra Way,4010 Mystra Way,Oceanside,92056-5471,CA,ELEM,N,33.165025,-117.27027,2020-08-13,92056,92056.0,"4010 Mystra Way, Oceanside, CA, 92056"
37103710138594,National University Academy Dual Language Institute,2030 University Drive,2030 University Dr.,Vista,92803-7736,CA,ELEM,N,33.172999,-117.21997,2019-03-27,92803,92803.0,"2030 University Drive, Vista, CA, 92803"
37103710138792,JCS - Manzanita,5300 Jackson Drive,5300 Jackson Dr.,La Mesa,91942-6014,CA,ELEMHIGH,N,32.775721,-117.01398,2020-08-13,91942,91942.0,"5300 Jackson Drive, La Mesa, CA, 91942"
37103711996545,North Coastal Consortium Schools,"255 Pico Avenue, Room 220","255 Pico Ave., Rm. 220",San Marcos,92069-3709,CA,ELEMHIGH,N,33.142539,-117.16504,2019-02-13,92069,92069.0,"255 Pico Avenue, Room 220, San Marcos, CA, 92069"
37103716069355,San Diego County Special Education,"6401 Linda Vista Road, Room 409","6401 Linda Vista Rd., Rm. 409",San Diego,92111-7319,CA,ELEMHIGH,N,32.769409,-117.1796,2019-11-20,92111,92111.0,"6401 Linda Vista Road, Room 409, San Diego, CA, 92111"
37103716119119,Literacy First Charter,799 East Washington Avenue,799 East Washington Ave.,El Cajon,92020-5327,CA,ELEMHIGH,N,32.787667,-116.95201,2020-08-13,92020,92020.0,"799 East Washington Avenue, El Cajon, CA, 92020"
37679676037535,Joan MacQueen Middle,2001 Tavern Road,2001 Tavern Rd.,Alpine,91901-3129,CA,INTMIDJR,N,32.825432,-116.77538,2019-02-13,91901,91901.0,"2001 Tavern Road, Alpine, CA, 91901"
37679676106256,Shadow Hills Elementary,8770 Harbison Canyon Road,8770 Harbison Canyon Rd.,Alpine,91901-2615,CA,ELEM,N,32.8319,-116.81522,2019-02-26,91901,91901.0,"8770 Harbison Canyon Road, Alpine, CA, 91901"
37679676109086,Boulder Oaks Elementary,2320 Tavern Road,2320 Tavern Rd.,Alpine,91901-3134,CA,ELEM,N,32.819163,-116.77617,2020-08-13,91901,91901.0,"2320 Tavern Road, Alpine, CA, 91901"
37679676109953,Mountain View Learning Academy,8770 Harbison Canyon Road,8770 Harbison Canyon Rd.,Alpine,91901-2615,CA,ELEM,N,32.832208,-116.81507,2020-08-13,91901,91901.0,"8770 Harbison Canyon Road, Alpine, CA, 91901"
37679676118723,Creekside Early Learning Center,8818 Harbison Canyon Road,8818 Harbison Canyon Rd.,Alpine,91901-2616,CA,ELEM,N,32.832208,-116.81507,2019-02-13,91901,91901.0,"8818 Harbison Canyon Road, Alpine, CA, 91901"
37679830134890,San Diego Workforce Innovation High,2 Euclid Avenue Suite A,2 Euclid Ave. Ste. A,National City,91950-1967,CA,HS,N,32.689527,-117.0851,2020-08-13,91950,91950.0,"2 Euclid Avenue Suite A, National City, CA, 91950"
37679833730447,Borrego Springs High,2281 Diegueno Road,2281 Diegueno Rd.,Borrego Springs,92004-0235,CA,HS,N,33.265514,-116.38373,2019-11-06,92004,92004.0,"2281 Diegueno Road, Borrego Springs, CA, 92004"
37679836037550,Borrego Springs Elementary,1315 Palm Canyon Drive,1315 Palm Canyon Dr.,Borrego Springs,92004-0235,CA,ELEM,N,33.256865,-116.34685,2019-02-13,92004,92004.0,"1315 Palm Canyon Drive, Borrego Springs, CA, 92004"
37679836115315,Borrego Springs Middle,2255 Diegueno Road,2255 Diegueno Rd.,Borrego Springs,92004,CA,INTMIDJR,N,33.264682,-116.38367,2019-11-06,92004,92004.0,"2255 Diegueno Road, Borrego Springs, CA, 92004"
37679910108563,EJE Elementary Academy Charter,851 South Johnson Avenue,851 South Johnson Ave.,El Cajon,92020-5811,CA,ELEM,N,32.784935,-116.97083,2019-06-17,92020,92020.0,"851 South Johnson Avenue, El Cajon, CA, 92020"
37679910111005,Los Coches Creek Middle,9669 Dunbar Lane,9669 Dunbar Ln.,El Cajon,92021-2619,CA,INTMIDJR,N,32.858622,-116.81938,2020-08-13,92021,92021.0,"9669 Dunbar Lane, El Cajon, CA, 92021"
37679910119255,EJE Middle Academy,851 South Johnson Avenue,851 South Johnson Ave.,El Cajon,92020-5811,CA,INTMIDJR,N,32.784935,-116.97083,2019-02-13,92020,92020.0,"851 South Johnson Avenue, El Cajon, CA, 92020"
37679910136176,Empower,165 Roanoke Road,165 Roanoke Rd.,El Cajon,92020-4015,CA,INTMIDJR,N,32.795836,-116.95489,2020-08-13,92020,92020.0,"165 Roanoke Road, El Cajon, CA, 92020"
37679910139394,Kidinnu Academy,1025 North Second Street,1025 North Second St.,El Cajon,92021-5844,CA,ELEM,N,32.809266,-116.93478,2020-08-13,92021,92021.0,"1025 North Second Street, El Cajon, CA, 92021"
37679916037568,Anza Elementary,1005 South Anza Street,1005 South Anza St.,El Cajon,92020-8602,CA,ELEM,N,32.786,-116.9478,2020-08-13,92020,92020.0,"1005 South Anza Street, El Cajon, CA, 92020"
37679916037576,Bostonia Language Academy,1390 East Broadway,1390 East Broadway,El Cajon,92021-5812,CA,ELEM,N,32.807818,-116.93171,2019-08-22,92021,92021.0,"1390 East Broadway, El Cajon, CA, 92021"
37679916037584,Cajon Valley Middle,550 Park Avenue,550 Park Ave.,El Cajon,92020-3922,CA,INTMIDJR,N,32.798383,-116.95555,2020-08-13,92020,92020.0,"550 Park Avenue, El Cajon, CA, 92020"
37679916037592,Chase Avenue Elementary,195 East Chase Avenue,195 East Chase Ave.,El Cajon,92020-6201,CA,ELEM,N,32.780336,-116.96003,2020-08-13,92020,92020.0,"195 East Chase Avenue, El Cajon, CA, 92020"
37679916037600,Crest Elementary,2000 Suncrest Boulevard,2000 Suncrest Blvd.,El Cajon,92021-4249,CA,ELEM,N,32.805538,-116.86647,2020-08-14,92021,92021.0,"2000 Suncrest Boulevard, El Cajon, CA, 92021"
37679916037626,Emerald Middle,1221 South Emerald Avenue,1221 South Emerald Ave.,El Cajon,92020-7315,CA,INTMIDJR,N,32.778996,-116.96869,2020-08-14,92020,92020.0,"1221 South Emerald Avenue, El Cajon, CA, 92020"
37679916037634,Flying Hills School of Arts,1251 Finch Street,1251 Finch St.,El Cajon,92020-1433,CA,ELEM,N,32.811827,-116.9824,2020-08-13,92020,92020.0,"1251 Finch Street, El Cajon, CA, 92020"
37679916037642,Fuerte Elementary,11625 Fuerte Drive,11625 Fuerte Dr.,El Cajon,92020-8309,CA,ELEM,N,32.762217,-116.94678,2020-08-13,92020,92020.0,"11625 Fuerte Drive, El Cajon, CA, 92020"
37679916037659,Greenfield Middle,1495 Greenfield Drive,1495 Greenfield Dr.,El Cajon,92021-3414,CA,INTMIDJR,N,32.811048,-116.92834,2020-08-14,92021,92021.0,"1495 Greenfield Drive, El Cajon, CA, 92021"
37679916037675,Johnson Elementary,500 West Madison,500 West Madison,El Cajon,92020-3211,CA,ELEM,N,32.8008,-116.9562,2019-02-13,92020,92020.0,"500 West Madison, El Cajon, CA, 92020"
37679916037683,Lexington Elementary,1145 Redwood Avenue,1145 Redwood Ave.,El Cajon,92019-4739,CA,ELEM,N,32.791145,-116.94234,2020-08-14,92019,92019.0,"1145 Redwood Avenue, El Cajon, CA, 92019"
37679916037691,Madison Avenue Elementary,1615 East Madison Avenue,1615 East Madison Ave.,El Cajon,92019-1046,CA,ELEM,N,32.800143,-116.922,2020-08-13,92019,92019.0,"1615 East Madison Avenue, El Cajon, CA, 92019"
37679916037709,Magnolia Elementary,650 Greenfield Drive,650 Greenfield Dr.,El Cajon,92021-2957,CA,ELEM,N,32.813388,-116.95404,2020-08-13,92021,92021.0,"650 Greenfield Drive, El Cajon, CA, 92021"
37679916037717,Meridian Elementary,651 South Third Street,651 South Third St.,El Cajon,92019-2517,CA,ELEM,N,32.788386,-116.92685,2020-08-13,92019,92019.0,"651 South Third Street, El Cajon, CA, 92019"
37679916037725,Naranca Elementary,1030 Naranca Avenue,1030 Naranca Ave.,El Cajon,92021-5615,CA,ELEM,N,32.803995,-116.94638,2020-08-13,92021,92021.0,"1030 Naranca Avenue, El Cajon, CA, 92021"
37679916037733,Rios Elementary,14314 Rios Canyon Road,14314 Rios Canyon Rd.,El Cajon,92021-2725,CA,ELEM,N,32.840076,-116.87577,2020-08-13,92021,92021.0,"14314 Rios Canyon Road, El Cajon, CA, 92021"
37679916037741,W. D. Hall Elementary,1376 Pepper Drive,1376 Pepper Dr.,El Cajon,92021-1460,CA,ELEM,N,32.820878,-116.93116,2020-08-14,92021,92021.0,"1376 Pepper Drive, El Cajon, CA, 92021"
37679916069082,Avocado Elementary,3845 Avocado School Road,3845 Avocado School Rd.,La Mesa,91941-7319,CA,ELEM,N,32.750432,-116.96075,2020-08-13,91941,91941.0,"3845 Avocado School Road, La Mesa, CA, 91941"
37679916093199,Sevick Special Education,1609 East Madison Avenue,1609 East Madison Ave.,El Cajon,92019-1046,CA,ELEM,N,32.800143,-116.92221,2017-08-14,92019,92019.0,"1609 East Madison Avenue, El Cajon, CA, 92019"
37679916093207,Montgomery Middle,1570 Melody Lane,1570 Melody Ln.,El Cajon,92019-2015,CA,INTMIDJR,N,32.79653,-116.92542,2020-08-13,92019,92019.0,"1570 Melody Lane, El Cajon, CA, 92019"
37679916101794,Vista Grande Elementary,1908 Vista Grande Road,1908 Vista Grande Rd.,El Cajon,92019-3823,CA,ELEM,N,32.76508,-116.91501,2020-08-13,92019,92019.0,"1908 Vista Grande Road, El Cajon, CA, 92019"
37679916106025,Rancho San Diego Elementary,12151 Calle Albara,12151 Calle Albara,El Cajon,92019-4825,CA,ELEM,N,32.754628,-116.93287,2020-08-13,92019,92019.0,"12151 Calle Albara, El Cajon, CA, 92019"
37679916110787,Jamacha Elementary,2962 Jamul Drive,2962 Jamul Dr.,El Cajon,92019-4640,CA,ELEM,N,32.740143,-116.91223,2020-08-13,92019,92019.0,"2962 Jamul Drive, El Cajon, CA, 92019"
37679916112148,Blossom Valley Elementary,9863 Oakmont Terrace,9863 Oakmont Terr.,El Cajon,92021-2300,CA,ELEM,N,32.861732,-116.84665,2020-08-13,92021,92021.0,"9863 Oakmont Terrace, El Cajon, CA, 92021"
37679916112890,Hillsdale Middle,1301 Brabham Street,1301 Brabham St.,El Cajon,92019-4374,CA,INTMIDJR,N,32.74944,-116.9324,2020-08-14,92019,92019.0,"1301 Brabham Street, El Cajon, CA, 92019"
37679916118319,Cajon Valley Home,1384 Broadway,1384 Broadway,El Cajon,92021-5812,CA,ELEM,N,32.807708,-116.93212,2020-08-13,92021,92021.0,"1384 Broadway, El Cajon, CA, 92021"
37680076037758,Ada W. Harris Elementary,1508 Windsor Road,1508 Windsor Rd.,Cardiff-by-the-Sea,92007-1356,CA,ELEM,N,33.03128,-117.27349,2020-08-13,92007,92007.0,"1508 Windsor Road, Cardiff-by-the-Sea, CA, 92007"
37680076037766,Cardiff Elementary,1888 Montgomery Avenue,1888 Montgomery Ave.,Cardiff-by-the-Sea,92007-2313,CA,ELEM,N,33.025044,-117.2822,2020-08-13,92007,92007.0,"1888 Montgomery Avenue, Cardiff-by-the-Sea, CA, 92007"
37680230101592,Hedenkamp (Anne and William) Elementary,930 East Palomar,930 East Palomar,Chula Vista,91913-2895,CA,ELEM,N,32.61674,-117.015,2019-02-13,91913,91913.0,"930 East Palomar, Chula Vista, CA, 91913"
37680230105957,Liberty Elementary,2175 Proctor Valley Road,2175 Proctor Valley Rd.,Chula Vista,91914-4026,CA,ELEM,N,32.663976,-116.97761,2019-02-13,91914,91914.0,"2175 Proctor Valley Road, Chula Vista, CA, 91914"
37680230105965,Salt Creek Elementary,1055 Hunte Parkway,1055 Hunte Pkwy.,Chula Vista,91914-3622,CA,ELEM,N,32.649018,-116.94925,2019-02-13,91914,91914.0,"1055 Hunte Parkway, Chula Vista, CA, 91914"
37680230108662,Veterans Elementary,1550 Magdalena Avenue,1550 Magdalena Ave.,Chula Vista,91913-3948,CA,ELEM,N,32.623835,-116.97634,2019-02-13,91913,91913.0,"1550 Magdalena Avenue, Chula Vista, CA, 91913"
37680230114009,Wolf Canyon Elementary,1950 Wolf Canyon Loop,1950 Wolf Canyon Loop,Chula Vista,91913-3948,CA,ELEM,N,32.611931,-116.97324,2020-08-13,91913,91913.0,"1950 Wolf Canyon Loop, Chula Vista, CA, 91913"
37680230119594,Leonardo da Vinci Health Sciences Charter,229 East Naples,229 East Naples,Chula Vista,91911-2332,CA,ELEM,N,32.619689,-117.04798,2020-08-13,91911,91911.0,"229 East Naples, Chula Vista, CA, 91911"
37680230124321,Howard Gardner Community Charter,647 E Street,647 E St.,Chula Vista,91910-2119,CA,ELEM,N,32.641093,-117.09543,2019-02-13,91910,91910.0,"647 E Street, Chula Vista, CA, 91910"
37680230127431,Camarena (Enrique S.) Elementary,1650 Exploration Falls Drive,1650 Exploration Falls Dr.,Chula Vista,91915-1961,CA,ELEM,N,32.622811,-116.95651,2019-02-13,91915,91915.0,"1650 Exploration Falls Drive, Chula Vista, CA, 91915"
37680230131474,Special Education Preschool,"84 East J Street, Room 301","84 East J St., Rm. 301",Chula Vista,91910-6115,CA,PS,N,32.631632,-117.05816,2019-08-19,91910,91910.0,"84 East J Street, Room 301, Chula Vista, CA, 91910"
37680230135277,Muraoka (Saburo) Elementary,1644 Santa Alexia Avenue,1644 Santa Alexia Ave.,Chula Vista,91915,CA,ELEM,N,32.615167,-116.99163,2020-01-27,91915,91915.0,"1644 Santa Alexia Avenue, Chula Vista, CA, 91915"
37680230138073,Learning Choice Academy - Chula Vista,"881 Kuhn Drive Suite, 106","881 Kuhn Dr. Ste., 106",Chula Vista,91914-3563,CA,ELEMHIGH,C,32.652419,-116.96551,2020-08-13,91914,91914.0,"881 Kuhn Drive Suite, 106, Chula Vista, CA, 91914"
37680236037824,Castle Park Elementary,25 Emerson Street,25 Emerson St.,Chula Vista,91910-3309,CA,ELEM,N,32.615057,-117.05726,2020-08-12,91910,91910.0,"25 Emerson Street, Chula Vista, CA, 91910"
37680236037832,Allen (Ella B.) Elementary,4300 Allen School Road,4300 Allen School Rd.,Bonita,91902-2309,CA,ELEM,N,32.656765,-117.03358,2020-08-13,91902,91902.0,"4300 Allen School Road, Bonita, CA, 91902"
37680236037840,Rohr (Fred H.) Elementary,1540 Malta Avenue,1540 Malta Ave.,Chula Vista,91911-5999,CA,ELEM,N,32.602452,-117.04055,2020-08-13,91911,91911.0,"1540 Malta Avenue, Chula Vista, CA, 91911"
37680236037857,Rogers (Greg) Elementary,510 East Naples Street,510 East Naples St.,Chula Vista,91911-2519,CA,ELEM,N,32.611251,-117.07781,2020-08-13,91911,91911.0,"510 East Naples Street, Chula Vista, CA, 91911"
37680236037865,Halecrest Elementary,475 East J Street,475 East J St.,Chula Vista,91910-6499,CA,ELEM,N,32.634394,-117.04331,2020-08-13,91910,91910.0,"475 East J Street, Chula Vista, CA, 91910"
37680236037873,Harborside Elementary,681 Naples Street,681 Naples St.,Chula Vista,91911-1619,CA,ELEM,N,32.609058,-117.08551,2019-02-13,91911,91911.0,"681 Naples Street, Chula Vista, CA, 91911"
37680236037881,Cook (Hazel Goes) Elementary,875 Cuyamaca Avenue,875 Cuyamaca Ave.,Chula Vista,91911-1501,CA,ELEM,N,32.625934,-117.0562,2020-08-13,91911,91911.0,"875 Cuyamaca Avenue, Chula Vista, CA, 91911"
37680236037899,Hilltop Drive Elementary,30 Murray Street,30 Murray St.,Chula Vista,91910-6020,CA,ELEM,N,32.632209,-117.06414,2020-08-13,91910,91910.0,"30 Murray Street, Chula Vista, CA, 91910"
37680236037907,Lauderbach (J. Calvin) Elementary,390 Palomar Street,390 Palomar St.,Chula Vista,91911-3182,CA,ELEM,N,32.620279,-117.07566,2019-02-13,91911,91911.0,"390 Palomar Street, Chula Vista, CA, 91911"
37680236037915,Montgomery (John J.) Elementary,1601 Fourth Avenue,1601 Fourth Ave.,Chula Vista,91911-5799,CA,ELEM,N,32.597875,-117.069,2020-08-13,91911,91911.0,"1601 Fourth Avenue, Chula Vista, CA, 91911"
37680236037923,Kellogg (Karl H.) Elementary,229 East Naples Street,229 East Naples St.,Chula Vista,91911-2399,CA,ELEM,N,32.619721,-117.04805,2020-08-13,91911,91911.0,"229 East Naples Street, Chula Vista, CA, 91911"
37680236037931,Rice (Lilian J.) Elementary,915 Fourth Avenue,915 Fourth Ave.,Chula Vista,91911-2098,CA,ELEM,N,32.619137,-117.07569,2019-02-13,91911,91911.0,"915 Fourth Avenue, Chula Vista, CA, 91911"
37680236037949,Loma Verde Elementary,1450 Loma Lane,1450 Loma Ln.,Chula Vista,91911-5310,CA,ELEM,N,32.601123,-117.04889,2019-02-13,91911,91911.0,"1450 Loma Lane, Chula Vista, CA, 91911"
37680236037956,Feaster (Mae L.) Charter,670 Flower Street,670 Flower St.,Chula Vista,91910-1327,CA,ELEM,N,32.642227,-117.09686,2019-02-13,91910,91910.0,"670 Flower Street, Chula Vista, CA, 91910"
37680236037964,Finney (Myrtle S.) Elementary,3950 Byrd Street,3950 Byrd St.,San Diego,92154-1799,CA,ELEM,N,32.584496,-117.04839,2020-08-13,92154,92154.0,"3950 Byrd Street, San Diego, CA, 92154"
37680236037972,Palomar Elementary,300 East Palomar Street,300 East Palomar St.,Chula Vista,91911-3799,CA,ELEM,N,32.613776,-117.04282,2020-08-13,91911,91911.0,"300 East Palomar Street, Chula Vista, CA, 91911"
37680236037980,Mueller Charter (Robert L.),715 I Street,715 I St.,Chula Vista,91910-5112,CA,ELEMHIGH,N,32.626229,-117.09284,2020-08-21,91910,91910.0,"715 I Street, Chula Vista, CA, 91910"
37680236037998,Rosebank Elementary,80 Flower Street,80 Flower St.,Chula Vista,91911-1997,CA,ELEM,N,32.649741,-117.07336,2020-08-13,91911,91911.0,"80 Flower Street, Chula Vista, CA, 91911"
37680236038004,Silver Wing Elementary,3730 Arey Drive,3730 Arey Dr.,San Diego,92154-2422,CA,ELEM,N,32.578749,-117.05258,2019-12-05,92154,92154.0,"3730 Arey Drive, San Diego, CA, 92154"
37680236038012,Sunnyside Elementary,5430 San Miguel Road,5430 San Miguel Rd.,Bonita,91902-2209,CA,ELEM,N,32.674619,-117.01545,2020-08-13,91902,91902.0,"5430 San Miguel Road, Bonita, CA, 91902"
37680236038020,Valle Lindo Elementary,1515 Oleander Avenue,1515 Oleander Ave.,Chula Vista,91911-5699,CA,ELEM,N,32.604937,-117.03275,2020-08-12,91911,91911.0,"1515 Oleander Avenue, Chula Vista, CA, 91911"
37680236038038,Valley Vista Elementary,3724 Valley Vista Way,3724 Valley Vista Way,Bonita,91902-1139,CA,ELEM,N,32.659676,-117.04907,2019-02-13,91902,91902.0,"3724 Valley Vista Way, Bonita, CA, 91902"
37680236038046,Vista Square Elementary,540 G Street,540 G St.,Chula Vista,91910-3604,CA,ELEM,N,32.635041,-117.08832,2020-08-13,91910,91910.0,"540 G Street, Chula Vista, CA, 91910"
37680236066971,Parkview Elementary,575 Juniper Street,575 Juniper St.,Chula Vista,91911-3826,CA,ELEM,N,32.612989,-117.03115,2020-08-13,91911,91911.0,"575 Juniper Street, Chula Vista, CA, 91911"
37680236069090,Juarez-Lincoln Elementary,849 Twining Avenue,849 Twining Ave.,San Diego,92154-2599,CA,ELEM,N,32.58072,-117.04543,2020-08-13,92154,92154.0,"849 Twining Avenue, San Diego, CA, 92154"
37680236070825,Los Altos Elementary,1332 Kenalan Drive,1332 Kenalan Dr.,San Diego,92154-3731,CA,ELEM,N,32.572654,-117.04889,2019-02-13,92154,92154.0,"1332 Kenalan Drive, San Diego, CA, 92154"
37680236095020,Tiffany (Burton C.) Elementary,1691 Elmhurst Street,1691 Elmhurst St.,Chula Vista,91913-2612,CA,ELEM,N,32.64483,-116.99102,2020-08-13,91913,91913.0,"1691 Elmhurst Street, Chula Vista, CA, 91913"
37680236095038,Otay Elementary,1651 Albany Avenue,1651 Albany Ave.,Chula Vista,91911-5801,CA,ELEM,N,32.595806,-117.05804,2020-08-13,91911,91911.0,"1651 Albany Avenue, Chula Vista, CA, 91911"
37680236107775,Chula Vista Hills Elementary,980 Buena Vista Way,980 Buena Vista Way,Chula Vista,91910-7133,CA,ELEM,N,32.636251,-117.00246,2020-08-13,91910,91910.0,"980 Buena Vista Way, Chula Vista, CA, 91910"
37680236108492,EastLake Elementary,1955 Hillside Drive,1955 Hillside Dr.,Chula Vista,91913-1263,CA,ELEM,N,32.657494,-116.98515,2019-02-13,91913,91913.0,"1955 Hillside Drive, Chula Vista, CA, 91913"
37680236109771,Clear View,455 Windrose Way,455 Windrose Way,Chula Vista,91910-7400,CA,ELEM,N,32.644805,-117.04506,2019-06-25,91910,91910.0,"455 Windrose Way, Chula Vista, CA, 91910"
37680236111322,Discovery Charter,1100 Camino Biscay,1100 Camino Biscay,Chula Vista,91910-7737,CA,ELEM,N,32.641918,-117.01759,2020-05-28,91910,91910.0,"1100 Camino Biscay, Chula Vista, CA, 91910"
37680236113021,Olympic View Elementary,1220 South Greensview Drive,1220 South Greensview Dr.,Chula Vista,91915-2127,CA,ELEM,N,32.63572,-116.96342,2020-08-13,91915,91915.0,"1220 South Greensview Drive, Chula Vista, CA, 91915"
37680236115646,Casillas (Joseph) Elementary,1130 East J Street,1130 East J St.,Chula Vista,91910-7164,CA,ELEM,N,32.630446,-117.00915,2020-08-13,91910,91910.0,"1130 East J Street, Chula Vista, CA, 91910"
37680236115778,Chula Vista Learning Community Charter,590 K Street,590 K St.,Chula Vista,91911-1118,CA,ELEMHIGH,N,32.620687,-117.08495,2019-02-13,91911,91911.0,"590 K Street, Chula Vista, CA, 91911"
37680236116396,Marshall (Thurgood) Elementary,2295 MacKenzie Creek Road,2295 MacKenzie Creek Rd.,Chula Vista,91914-3537,CA,ELEM,N,32.659064,-116.9682,2020-08-13,91914,91914.0,"2295 MacKenzie Creek Road, Chula Vista, CA, 91914"
37680236116859,Arroyo Vista Charter,2491 School House Road,2491 School House Rd.,Chula Vista,91915-2534,CA,ELEM,N,32.638128,-116.95252,2019-02-13,91915,91915.0,"2491 School House Road, Chula Vista, CA, 91915"
37680236118970,Heritage Elementary,1450 Santa Lucia Road,1450 Santa Lucia Rd.,Chula Vista,91913-1480,CA,ELEM,N,32.626236,-116.9953,2019-02-13,91913,91913.0,"1450 Santa Lucia Road, Chula Vista, CA, 91913"
37680236118988,McMillin (Corky) Elementary,1201 Santa Cora Avenue,1201 Santa Cora Ave.,Chula Vista,91913-1799,CA,ELEM,N,32.631793,-116.98529,2020-08-13,91913,91913.0,"1201 Santa Cora Avenue, Chula Vista, CA, 91913"
37680310131375,Coronado Unified Special Education Pre-K,201 6th Street,201 6th St.,Coronado,92118-1638,CA,PS,N,32.696405,-117.18735,2018-03-14,92118,92118.0,"201 6th Street, Coronado, CA, 92118"
37680313731478,Coronado High,650 D Avenue,650 D Ave.,Coronado,92118-2113,CA,HS,C,32.691403,-117.17817,2020-08-13,92118,92118.0,"650 D Avenue, Coronado, CA, 92118"
37680316038053,Coronado Village Elementary,600 Sixth Street,600 Sixth St.,Coronado,92118-1600,CA,ELEM,N,32.693914,-117.18213,2020-08-13,92118,92118.0,"600 Sixth Street, Coronado, CA, 92118"
37680316038087,Silver Strand Elementary,1350 Leyte Road,1350 Leyte Rd.,Coronado,92118-3124,CA,ELEM,N,32.643984,-117.14542,2020-08-13,92118,92118.0,"1350 Leyte Road, Coronado, CA, 92118"
37680316059570,Coronado Middle,550 F Avenue,550 F Ave.,Coronado,92118-2110,CA,INTMIDJR,N,32.69378,-117.17956,2020-08-13,92118,92118.0,"550 F Avenue, Coronado, CA, 92118"
37680490127118,The Heights Charter,"2710 Alpine Boulevard, Suite E","2710 Alpine Blvd., Ste. E",Alpine,91901-2389,CA,ELEM,N,32.835104,-116.75529,2020-08-13,91901,91901.0,"2710 Alpine Boulevard, Suite E, Alpine, CA, 91901"
37680490129221,MethodSchools,4612 Dehesa Road,4612 Dehesa Rd.,El Cajon,92019-2922,CA,ELEMHIGH,V,32.781118,-116.84889,2020-03-02,92019,92019.0,"4612 Dehesa Road, El Cajon, CA, 92019"
37680490132506,Cabrillo Point Academy,4612 Dehesa Road,4612 Dehesa Rd.,El Cajon,92019-2922,CA,ELEMHIGH,V,32.781118,-116.84889,2020-08-13,92019,92019.0,"4612 Dehesa Road, El Cajon, CA, 92019"
37680490136416,Pacific Coast Academy,13915 Danielson Street #103,13915 Danielson St. #103,Poway,92064-8884,CA,ELEMHIGH,V,32.939893,-117.03003,2020-08-13,92064,92064.0,"13915 Danielson Street #103, Poway, CA, 92064"
37680490136614,Diego Hills Central Public Charter,4348 54th Street,4348 54th St.,San Diego,92115-5300,CA,ELEMHIGH,N,32.756779,-117.0803,2020-08-13,92115,92115.0,"4348 54th Street, San Diego, CA, 92115"
37680496038095,Dehesa Elementary,4612 Dehesa Road,4612 Dehesa Rd.,El Cajon,92019-2922,CA,ELEM,N,32.781239,-116.8512,2020-03-10,92019,92019.0,"4612 Dehesa Road, El Cajon, CA, 92019"
37680560110114,Sycamore Ridge,5333 Old Carmel Valley Road,5333 Old Carmel Valley Rd.,San Diego,92130-2650,CA,ELEM,N,32.954011,-117.19998,2020-08-13,92130,92130.0,"5333 Old Carmel Valley Road, San Diego, CA, 92130"
37680560114686,Ocean Air,11444 Canter Heights Drive,11444 Canter Heights Dr.,San Diego,92130-6974,CA,ELEM,N,32.9281,-117.2147,2020-08-13,92130,92130.0,"11444 Canter Heights Drive, San Diego, CA, 92130"
37680566038111,Del Mar Heights Elementary,13555 Boquita Drive,13555 Boquita Dr.,Del Mar,92014-3453,CA,ELEM,N,32.945637,-117.24973,2020-08-13,92014,92014.0,"13555 Boquita Drive, Del Mar, CA, 92014"
37680566088983,Del Mar Hills Elementary,14085 Mango Drive,14085 Mango Dr.,Del Mar,92014-0640,CA,ELEM,N,32.954058,-117.24724,2020-08-13,92014,92014.0,"14085 Mango Drive, Del Mar, CA, 92014"
37680566110696,Carmel Del Mar Elementary,12345 Carmel Park Drive,12345 Carmel Park Dr.,San Diego,92130-2222,CA,ELEM,N,32.94087,-117.22955,2020-08-13,92130,92130.0,"12345 Carmel Park Drive, San Diego, CA, 92130"
37680566115620,Ashley Falls Elementary,13030 Ashley Falls Drive,13030 Ashley Falls Dr.,San Diego,92130-3717,CA,ELEM,N,32.957549,-117.20781,2020-08-13,92130,92130.0,"13030 Ashley Falls Drive, San Diego, CA, 92130"
37680566117923,Sage Canyon,5290 Harvest Run Drive,5290 Harvest Run Dr.,San Diego,92130-4875,CA,ELEM,N,32.925277,-117.20411,2020-08-13,92130,92130.0,"5290 Harvest Run Drive, San Diego, CA, 92130"
37680566120596,Torrey Hills,10830 Calle Mar de Mariposa,10830 Calle Mar de Mariposa,San Diego,92130-8657,CA,ELEM,N,32.913451,-117.2232,2020-08-13,92130,92130.0,"10830 Calle Mar de Mariposa, San Diego, CA, 92130"
37680806038145,Paul Ecke-Central Elementary,185 Union Street,185 Union St.,Encinitas,92024-2119,CA,ELEM,N,33.058062,-117.29703,2019-07-12,92024,92024.0,"185 Union Street, Encinitas, CA, 92024"
37680806038152,Ocean Knoll Elementary,910 Melba Road,910 Melba Rd.,Encinitas,92024-3901,CA,ELEM,N,33.039889,-117.2725,2020-08-13,92024,92024.0,"910 Melba Road, Encinitas, CA, 92024"
37680806066989,Capri Elementary,941 Capri Road,941 Capri Rd.,Encinitas,92024-1214,CA,ELEM,N,33.076064,-117.28846,2019-02-13,92024,92024.0,"941 Capri Road, Encinitas, CA, 92024"
37680806095046,Park Dale Lane Elementary,2050 Park Dale Lane,2050 Park Dale Ln.,Encinitas,92024-4324,CA,ELEM,N,33.046392,-117.24311,2020-08-13,92024,92024.0,"2050 Park Dale Lane, Encinitas, CA, 92024"
37680806099402,Flora Vista Elementary,1690 Wandering Road,1690 Wandering Rd.,Encinitas,92024-2417,CA,ELEM,N,33.055334,-117.25288,2020-08-13,92024,92024.0,"1690 Wandering Road, Encinitas, CA, 92024"
37680806106132,La Costa Heights Elementary,3035 Levante Street,3035 Levante St.,Carlsbad,92009-8331,CA,ELEM,N,33.080785,-117.24484,2020-08-13,92009,92009.0,"3035 Levante Street, Carlsbad, CA, 92009"
37680806108534,Mission Estancia Elementary,3330 Calle Barcelona,3330 Calle Barcelona,Carlsbad,92009-9319,CA,ELEM,N,33.072276,-117.23533,2020-08-13,92009,92009.0,"3330 Calle Barcelona, Carlsbad, CA, 92009"
37680806112445,Olivenhain Pioneer Elementary,8000 Calle Acervo,8000 Calle Acervo,Carlsbad,92009-8900,CA,ELEM,N,33.064891,-117.23227,2020-08-13,92009,92009.0,"8000 Calle Acervo, Carlsbad, CA, 92009"
37680806117709,El Camino Creek Elementary,7885 Paseo Aliso,7885 Paseo Aliso,Carlsbad,92009-9028,CA,ELEM,N,33.077016,-117.25892,2020-08-13,92009,92009.0,"7885 Paseo Aliso, Carlsbad, CA, 92009"
37680980101535,Heritage K-8 Charter,1855 East Valley Parkway,1855 East Valley Pkwy.,Escondido,92027-2517,CA,ELEM,N,33.136223,-117.05448,2020-08-13,92027,92027.0,"1855 East Valley Parkway, Escondido, CA, 92027"
37680980102590,Bear Valley Middle,3003 Bear Valley Parkway,3003 Bear Valley Pkwy.,Escondido,92025-7618,CA,INTMIDJR,N,33.083711,-117.05634,2020-08-13,92025,92025.0,"3003 Bear Valley Parkway, Escondido, CA, 92025"
37680980102608,Farr Avenue Elementary,933 Farr Avenue,933 Farr Ave.,Escondido,92026-3121,CA,ELEM,N,33.138769,-117.0776,2019-02-13,92026,92026.0,"933 Farr Avenue, Escondido, CA, 92026"
37680980107862,Reidy Creek Elementary,2869 North Broadway,2869 North Broadway,Escondido,92026-8802,CA,ELEM,N,33.17259,-117.08928,2020-08-24,92026,92026.0,"2869 North Broadway, Escondido, CA, 92026"
37680980107870,Bernardo Elementary,1122 Mountain Heights Drive,1122 Mountain Heights Dr.,Escondido,92029-5634,CA,ELEM,N,33.084707,-117.09137,2020-08-13,92029,92029.0,"1122 Mountain Heights Drive, Escondido, CA, 92029"
37680980131813,Quantum Academy,420 North Falconer Road,420 North Falconer Rd.,Escondido,92027-5331,CA,INTMIDJR,N,33.143614,-117.03501,2020-08-13,92027,92027.0,"420 North Falconer Road, Escondido, CA, 92027"
37680980133991,Epiphany Prep Charter,725 North Escondido Boulevard,725 North Escondido Blvd.,Escondido,92025-1703,CA,ELEM,N,33.127935,-117.08955,2019-02-13,92025,92025.0,"725 North Escondido Boulevard, Escondido, CA, 92025"
37680986038178,Central Elementary,122 West Fourth Avenue,122 West Fourth Ave.,Escondido,92025-4134,CA,ELEM,N,33.118835,-117.07991,2020-08-24,92025,92025.0,"122 West Fourth Avenue, Escondido, CA, 92025"
37680986038186,Conway Elementary,1325 Conway Drive,1325 Conway Dr.,Escondido,92027-1629,CA,ELEM,N,33.146289,-117.07398,2020-08-13,92027,92027.0,"1325 Conway Drive, Escondido, CA, 92027"
37680986038194,Del Dios Academy of Arts and Sciences,1400 West Ninth Avenue,1400 West Ninth Ave.,Escondido,92025-2204,CA,INTMIDJR,N,33.11037,-117.10117,2020-08-13,92025,92025.0,"1400 West Ninth Avenue, Escondido, CA, 92025"
37680986038202,Felicita Elementary,737 West 13th Avenue,737 West 13th Ave.,Escondido,92025-5510,CA,ELEM,N,33.106493,-117.08245,2020-08-13,92025,92025.0,"737 West 13th Avenue, Escondido, CA, 92025"
37680986038210,Mission Middle,939 East Mission Avenue,939 East Mission Ave.,Escondido,92026-2216,CA,INTMIDJR,N,33.13394,-117.07324,2020-08-13,92026,92026.0,"939 East Mission Avenue, Escondido, CA, 92026"
37680986038228,Juniper Elementary,1809 South Juniper Street,1809 South Juniper St.,Escondido,92025-6240,CA,ELEM,N,33.105286,-117.06731,2020-08-13,92025,92025.0,"1809 South Juniper Street, Escondido, CA, 92025"
37680986038236,Lincoln Elementary,1029 North Broadway,1029 North Broadway,Escondido,92026-3043,CA,ELEM,N,33.134291,-117.08714,2020-08-24,92026,92026.0,"1029 North Broadway, Escondido, CA, 92026"
37680986038244,Oak Hill Elementary,1820 Oak Hill Drive,1820 Oak Hill Dr.,Escondido,92027-1629,CA,ELEM,N,33.12953,-117.05125,2020-08-13,92027,92027.0,"1820 Oak Hill Drive, Escondido, CA, 92027"
37680986038251,Rose Elementary,906 North Rose Avenue,906 North Rose Ave.,Escondido,92027-1629,CA,ELEM,N,33.143321,-117.0659,2020-08-13,92027,92027.0,"906 North Rose Avenue, Escondido, CA, 92027"
37680986038939,Glen View Elementary,2201 East Mission Avenue,2201 East Mission Ave.,Escondido,92027-1629,CA,ELEM,N,33.146627,-117.05374,2019-08-13,92027,92027.0,"2201 East Mission Avenue, Escondido, CA, 92027"
37680986038947,Orange Glen Elementary,2861 Valley Parkway,2861 Valley Pkwy.,Escondido,92027-2930,CA,ELEM,N,33.145429,-117.03605,2020-08-13,92027,92027.0,"2861 Valley Parkway, Escondido, CA, 92027"
37680986066997,Miller Elementary,1975 Miller Avenue,1975 Miller Ave.,Escondido,92025-5932,CA,ELEM,N,33.09646,-117.07896,2020-08-13,92025,92025.0,"1975 Miller Avenue, Escondido, CA, 92025"
37680986093215,Hidden Valley Middle,2700 Reed Road,2700 Reed Rd.,Escondido,92027-1629,CA,INTMIDJR,N,33.133732,-117.03329,2020-08-13,92027,92027.0,"2700 Reed Road, Escondido, CA, 92027"
37680986102750,North Broadway Elementary,2301 North Broadway,2301 North Broadway,Escondido,92026-1412,CA,ELEM,N,33.161048,-117.09293,2020-08-24,92026,92026.0,"2301 North Broadway, Escondido, CA, 92026"
37680986105944,Rincon Middle,925 Lehner Avenue,925 Lehner Ave.,Escondido,92026-1512,CA,INTMIDJR,N,33.157721,-117.08255,2020-08-24,92026,92026.0,"925 Lehner Avenue, Escondido, CA, 92026"
37680986107882,L. R. Green Elementary,3115 Las Palmas Avenue,3115 Las Palmas Ave.,Escondido,92025-7300,CA,ELEM,N,33.086003,-117.05973,2020-08-13,92025,92025.0,"3115 Las Palmas Avenue, Escondido, CA, 92025"
37680986110381,Pioneer Elementary,980 North Ash Street,980 North Ash St.,Escondido,92027-1629,CA,ELEM,N,33.138286,-117.07223,2019-02-13,92027,92027.0,"980 North Ash Street, Escondido, CA, 92027"
37680986111769,Rock Springs Elementary,1155 Deodar Road,1155 Deodar Rd.,Escondido,92026-2200,CA,ELEM,N,33.13701,-117.1059,2020-08-13,92026,92026.0,"1155 Deodar Road, Escondido, CA, 92026"
37680986116776,Classical Academy,2950 South Bear Valley Parkway,2950 South Bear Valley Pkwy.,Escondido,92025-7446,CA,ELEM,C,33.0844,-117.0555,2020-08-13,92025,92025.0,"2950 South Bear Valley Parkway, Escondido, CA, 92025"
37681060111195,Classical Academy High,207 East Pennsylvania Avenue,207 East Pennsylvania Ave.,Escondido,92025-2808,CA,HS,C,33.124186,-117.08057,2020-08-13,92025,92025.0,"207 East Pennsylvania Avenue, Escondido, CA, 92025"
37681060127241,Del Lago Academy - Campus of Applied Science,1740 Scenic Trail Way,1740 Scenic Trail Way,Escondido,92029-4211,CA,HS,C,33.096589,-117.10349,2019-02-13,92029,92029.0,"1740 Scenic Trail Way, Escondido, CA, 92029"
37681060137034,Audeo Charter School III,200 East Via Rancho Parkway,200 East Via Rancho Pkwy.,Escondido,92025-8006,CA,ELEMHIGH,N,33.070485,-117.06492,2020-08-13,92025,92025.0,"200 East Via Rancho Parkway, Escondido, CA, 92025"
37681063730025,Escondido Adult,220 West Crest,220 West Crest,Escondido,92025,CA,A,C,33.131196,-117.08846,2020-07-16,92025,92025.0,"220 West Crest, Escondido, CA, 92025"
37681063730058,San Pasqual High,3300 Bear Valley Parkway,3300 Bear Valley Pkwy.,Escondido,92025-7636,CA,HS,C,33.077688,-117.05724,2019-02-13,92025,92025.0,"3300 Bear Valley Parkway, Escondido, CA, 92025"
37681063731023,Escondido Charter High,1868 East Valley Parkway,1868 East Valley Pkwy.,Escondido,92027-2525,CA,HS,C,33.136449,-117.05426,2020-08-13,92027,92027.0,"1868 East Valley Parkway, Escondido, CA, 92027"
37681063732054,Valley High (Continuation),410 North Hidden Trails Road,410 North Hidden Trails Rd.,Escondido,92027-5333,CA,HS,C,33.142244,-117.02326,2019-07-12,92027,92027.0,"410 North Hidden Trails Road, Escondido, CA, 92027"
37681063732062,Escondido High,1535 North Broadway,1535 North Broadway,Escondido,92026-2015,CA,HS,C,33.144413,-117.09028,2019-02-13,92026,92026.0,"1535 North Broadway, Escondido, CA, 92026"
37681063735313,Orange Glen High,2200 Glen Ridge Road,2200 Glen Ridge Rd.,Escondido,92027-4115,CA,HS,C,33.129474,-117.038,2020-08-14,92027,92027.0,"2200 Glen Ridge Road, Escondido, CA, 92027"
37681140115519,Santa Margarita Academy,400 West Elder Street,400 West Elder St.,Fallbrook,92028-2108,CA,INTMIDJR,N,33.380281,-117.25397,2020-08-13,92028,92028.0,"400 West Elder Street, Fallbrook, CA, 92028"
37681140131920,Maie Ellis Elementary,400 West Elder Street,400 West Elder St.,Fallbrook,92028-2108,CA,ELEM,N,33.380281,-117.25397,2019-02-13,92028,92028.0,"400 West Elder Street, Fallbrook, CA, 92028"
37681140133967,Mike Choate Early Childhood Education Center,407 South Mission Road,407 South Mission Rd.,Fallbrook,92028-2898,CA,PS,N,33.377188,-117.25407,2018-08-13,92028,92028.0,"407 South Mission Road, Fallbrook, CA, 92028"
37681146038269,La Paloma Elementary,300 Heald Lane,300 Heald Ln.,Fallbrook,92028-2108,CA,ELEM,N,33.378156,-117.23539,2020-08-13,92028,92028.0,"300 Heald Lane, Fallbrook, CA, 92028"
37681146038277,James E. Potter Intermediate,1743 Reche Road,1743 Reche Rd.,Fallbrook,92028-2108,CA,INTMIDJR,N,33.369188,-117.22164,2020-08-13,92028,92028.0,"1743 Reche Road, Fallbrook, CA, 92028"
37681146038285,Fallbrook STEM Academy,405 West Fallbrook Street,405 West Fallbrook St.,Fallbrook,92028-2108,CA,ELEM,N,33.376687,-117.25531,2020-08-13,92028,92028.0,"405 West Fallbrook Street, Fallbrook, CA, 92028"
37681146038301,Mary Fay Pendleton Elementary,110 Marine Drive,110 Marine Dr.,Oceanside,92058-8234,CA,ELEM,N,33.323361,-117.31057,2020-08-13,92058,92058.0,"110 Marine Drive, Oceanside, CA, 92058"
37681146096515,San Onofre Elementary,200 Pate Road,200 Pate Rd.,San Clemente,92672-2517,CA,ELEM,N,33.390408,-117.57875,2020-08-13,92672,92672.0,"200 Pate Road, San Clemente, CA, 92672"
37681146096911,Fallbrook Homeschool Academy,300 Heald Lane,300 Heald Ln.,Fallbrook,92028-2108,CA,ELEM,N,33.378171,-117.23546,2020-08-13,92028,92028.0,"300 Heald Lane, Fallbrook, CA, 92028"
37681146109524,Live Oak Elementary,1978 Reche Road,1978 Reche Rd.,Fallbrook,92028-2108,CA,ELEM,N,33.369178,-117.2174,2020-08-13,92028,92028.0,"1978 Reche Road, Fallbrook, CA, 92028"
37681146116420,William H. Frazier Elementary,1835 Gum Tree Lane,1835 Gum Tree Ln.,Fallbrook,92028-2108,CA,ELEM,N,33.387442,-117.22413,2020-08-13,92028,92028.0,"1835 Gum Tree Lane, Fallbrook, CA, 92028"
37681223730967,Oasis High (Alternative),2208 South Stage Coach Lane,2208 South Stage Coach Ln.,Fallbrook,92028-4500,CA,HS,C,33.351956,-117.23611,2020-08-13,92028,92028.0,"2208 South Stage Coach Lane, Fallbrook, CA, 92028"
37681223732179,Fallbrook High,2400 South Stage Coach Lane,2400 South Stage Coach Ln.,Fallbrook,92028-4429,CA,HS,C,33.349505,-117.24137,2020-09-08,92028,92028.0,"2400 South Stage Coach Lane, Fallbrook, CA, 92028"
37681223732195,Ivy High (Continuation),1056 Winterhaven Road,1056 Winterhaven Rd.,Fallbrook,92028-4500,CA,HS,C,33.347369,-117.23808,2020-08-13,92028,92028.0,"1056 Winterhaven Road, Fallbrook, CA, 92028"
37681300128793,MERIT Academy,1600 North Cuyamaca Street,1600 North Cuyamaca St.,El Cajon,92020-1109,CA,HS,C,32.816861,-116.97965,2020-08-13,92020,92020.0,"1600 North Cuyamaca Street, El Cajon, CA, 92020"
37681300128819,REACH Academy,230 Jamacha Road,230 Jamacha Rd.,El Cajon,92019-2359,CA,HS,C,32.793343,-116.93536,2020-08-13,92019,92019.0,"230 Jamacha Road, El Cajon, CA, 92019"
37681300132548,IDEA Center,1600 North Cuyamaca Street,1600 North Cuyamaca St.,El Cajon,92020-1187,CA,HS,C,32.816861,-116.97965,2020-08-13,92020,92020.0,"1600 North Cuyamaca Street, El Cajon, CA, 92020"
37681300139063,The Learning Choice Academy - East County,4215 Spring Street Suite 104,4215 Spring St. Ste. 104,La Mesa,91941-7965,CA,ELEMHIGH,N,32.755668,-117.01354,2020-08-13,91941,91941.0,"4215 Spring Street Suite 104, La Mesa, CA, 91941"
37681303730066,Valhalla High,1725 Hillsdale Road,1725 Hillsdale Rd.,El Cajon,92019-3742,CA,HS,C,32.762192,-116.92037,2020-09-09,92019,92019.0,"1725 Hillsdale Road, El Cajon, CA, 92019"
37681303730199,Foothills Adult Education Center,1550 Melody Lane,1550 Melody Ln.,El Cajon,92019-2015,CA,A,C,32.79713,-116.92436,2018-08-17,92019,92019.0,"1550 Melody Lane, El Cajon, CA, 92019"
37681303730249,El Cajon Adult Center,1075 East Madison Avenue,1075 East Madison Ave.,El Cajon,92021-6226,CA,A,C,32.80016,-116.94594,2019-08-13,92021,92021.0,"1075 East Madison Avenue, El Cajon, CA, 92021"
37681303730256,Steele Canyon Adult Center,12440 Campo Road,12440 Campo Rd.,Spring Valley,91978-2331,CA,A,C,32.730297,-116.92517,2018-08-17,91978,91978.0,"12440 Campo Road, Spring Valley, CA, 91978"
37681303730702,West Hills High,8756 Mast Boulevard,8756 Mast Blvd.,Santee,92071-2046,CA,HS,C,32.849846,-117.01297,2020-08-13,92071,92071.0,"8756 Mast Boulevard, Santee, CA, 92071"
37681303731262,Steele Canyon High,12440 Campo Road,12440 Campo Rd.,Spring Valley,91978-2331,CA,HS,C,32.730297,-116.92517,2020-08-13,91978,91978.0,"12440 Campo Road, Spring Valley, CA, 91978"
37681303731486,Elite Academy,230 Jamacha Boulevard,230 Jamacha Blvd.,El Cajon,92019-2359,CA,HS,C,32.793615,-116.93495,2020-08-13,92019,92019.0,"230 Jamacha Boulevard, El Cajon, CA, 92019"
37681303731536,Grossmont Middle College High,8800 Grossmont College Drive,8800 Grossmont College Dr.,El Cajon,92020-1765,CA,HS,C,32.814927,-117.00889,2017-07-19,92020,92020.0,"8800 Grossmont College Drive, El Cajon, CA, 92020"
37681303731692,El Cajon Valley High,1035 East Madison Avenue,1035 East Madison Ave.,El Cajon,92021-6226,CA,HS,C,32.800133,-116.94728,2020-08-13,92021,92021.0,"1035 East Madison Avenue, El Cajon, CA, 92021"
37681303731809,El Capitan High,10410 Ashwood Street,10410 Ashwood St.,Lakeside,92040-2406,CA,HS,C,32.868106,-116.91489,2020-08-13,92040,92040.0,"10410 Ashwood Street, Lakeside, CA, 92040"
37681303732336,Granite Hills High,1719 East Madison Avenue,1719 East Madison Ave.,El Cajon,92019-1052,CA,HS,C,32.800159,-116.91681,2020-08-13,92019,92019.0,"1719 East Madison Avenue, El Cajon, CA, 92019"
37681303732419,Grossmont Adult,1550 Melody Lane,1550 Melody Ln.,El Cajon,92019,CA,A,C,32.79713,-116.92436,2020-08-25,92019,92019.0,"1550 Melody Lane, El Cajon, CA, 92019"
37681303732559,Chaparral High,1600 North Cuyamaca Street,1600 North Cuyamaca St.,El Cajon,92020-1187,CA,HS,C,32.816896,-116.9797,2020-08-13,92020,92020.0,"1600 North Cuyamaca Street, El Cajon, CA, 92020"
37681303732625,Grossmont High,1100 Murray Drive,1100 Murray Dr.,La Mesa,91944-1043,CA,HS,C,32.78067,-116.98498,2020-08-13,91944,91944.0,"1100 Murray Drive, La Mesa, CA, 91944"
37681303732732,Helix High,7323 University Avenue,7323 University Ave.,La Mesa,91941-6055,CA,HS,C,32.755905,-117.03981,2019-02-13,91941,91941.0,"7323 University Avenue, La Mesa, CA, 91941"
37681303734548,Monte Vista High,3230 Sweetwater Springs Boulevard,3230 Sweetwater Springs Blvd.,Spring Valley,91977-6934,CA,HS,C,32.738087,-116.97221,2020-08-13,91977,91977.0,"3230 Sweetwater Springs Boulevard, Spring Valley, CA, 91977"
37681303734761,Mount Miguel High,8585 Blossom Lane,8585 Blossom Ln.,Spring Valley,91977-3765,CA,HS,C,32.724917,-117.01689,2020-08-13,91977,91977.0,"8585 Blossom Lane, Spring Valley, CA, 91977"
37681303737905,Santana High,9915 North Magnolia Avenue,9915 North Magnolia Ave.,Santee,92071-1903,CA,HS,C,32.857284,-116.97097,2020-08-13,92071,92071.0,"9915 North Magnolia Avenue, Santee, CA, 92071"
37681556038319,Jamul Elementary,14567 Lyons Valley Road,14567 Lyons Valley Rd.,Jamul,91935-3324,CA,ELEM,N,32.730137,-116.85456,2020-08-13,91935,91935.0,"14567 Lyons Valley Road, Jamul, CA, 91935"
37681556097182,Oak Grove Middle,14344 Olive Vista Drive,14344 Olive Vista Dr.,Jamul,91935-3223,CA,INTMIDJR,N,32.722358,-116.86159,2020-08-13,91935,91935.0,"14344 Olive Vista Drive, Jamul, CA, 91935"
37681556117303,Greater San Diego Academy,14545 Lyons Valley Road,14545 Lyons Valley Rd.,Jamul,91935-3208,CA,ELEMHIGH,N,32.728998,-116.85615,2019-07-25,91935,91935.0,"14545 Lyons Valley Road, Jamul, CA, 91935"
37681630128421,Harbor Springs Charter,1704 Cape Horn,1704 Cape Horn,Julian,92036,CA,ELEMHIGH,N,33.078652,-116.59486,2020-08-13,92036,92036.0,"1704 Cape Horn, Julian, CA, 92036"
37681630137109,Diego Valley East Public Charter,511 North Second Street,511 North Second St.,El Cajon,92021-6449,CA,HS,N,32.800703,-116.93542,2020-08-13,92021,92021.0,"511 North Second Street, El Cajon, CA, 92021"
37681630138156,JCS - Mountain Oaks,539 Encinitas Boulevard,539 Encinitas Blvd.,Encinitas,92024-3748,CA,ELEM,N,33.045335,-117.27987,2020-08-13,92024,92024.0,"539 Encinitas Boulevard, Encinitas, CA, 92024"
37681630138628,JCS - Cedar Cove,777 Santa Fe,777 Santa Fe,Encinitas,92024-3840,CA,ELEMHIGH,N,33.035868,-117.27597,2020-08-13,92024,92024.0,"777 Santa Fe, Encinitas, CA, 92024"
37681630139402,Brookfield Engineering Science Technology Academy,1704 Cape Horn,1704 Cape Horn,Julian,92036,CA,ELEMHIGH,F,33.078652,-116.59486,2019-11-04,92036,92036.0,"1704 Cape Horn, Julian, CA, 92036"
37681633731239,Julian Charter,1704 Cape Horn,1704 Cape Horn,Julian,92036,CA,ELEMHIGH,N,33.07808,-116.59581,2020-08-13,92036,92036.0,"1704 Cape Horn, Julian, CA, 92036"
37681636038327,Julian Elementary,1704 Cape Horn,1704 Cape Horn,Julian,92036-0337,CA,ELEM,N,33.07808,-116.59581,2020-08-15,92036,92036.0,"1704 Cape Horn, Julian, CA, 92036"
37681636105845,Julian Junior High,1704 Cape Horn,1704 Cape Horn,Julian,92036-0337,CA,INTMIDJR,N,33.07808,-116.59581,2020-08-15,92036,92036.0,"1704 Cape Horn, Julian, CA, 92036"
37681713733219,Julian High,1656 Highway 78,1656 Highway 78,Julian,92036-0417,CA,HS,N,33.076465,-116.59451,2020-08-13,92036,92036.0,"1656 Highway 78, Julian, CA, 92036"
37681890129288,Eucalyptus Hills Elementary,11838 Valle Vista Road,11838 Valle Vista Rd.,Lakeside,92040-1046,CA,ELEM,N,32.892434,-116.94779,2019-08-23,92040,92040.0,"11838 Valle Vista Road, Lakeside, CA, 92040"
37681890130740,Lakeside Early Advantage Preschool,12824 Lakeshore Drive,12824 Lakeshore Dr.,Lakeside,92040-3206,CA,PS,N,32.859273,-116.91472,2018-03-14,92040,92040.0,"12824 Lakeshore Drive, Lakeside, CA, 92040"
37681893731072,River Valley Charter,9707 1/2 Marilla Drive,9707 1/2 Marilla Dr.,Lakeside,92040-2868,CA,HS,N,32.853156,-116.94065,2019-02-13,92040,92040.0,"9707 1/2 Marilla Drive, Lakeside, CA, 92040"
37681896038343,Lakeside Farms Elementary,11915 Lakeside Avenue,11915 Lakeside Ave.,Lakeside,92040-0578,CA,ELEM,N,32.867036,-116.93598,2020-08-13,92040,92040.0,"11915 Lakeside Avenue, Lakeside, CA, 92040"
37681896038350,Lakeside Middle,11833 Woodside Avenue,11833 Woodside Ave.,Lakeside,92040-0578,CA,INTMIDJR,N,32.85513,-116.93804,2019-02-13,92040,92040.0,"11833 Woodside Avenue, Lakeside, CA, 92040"
37681896038368,Lakeview Elementary,9205 Lakeview Road,9205 Lakeview Rd.,Lakeside,92040-0578,CA,ELEM,N,32.843603,-116.90428,2019-02-13,92040,92040.0,"9205 Lakeview Road, Lakeside, CA, 92040"
37681896038376,Lindo Park Elementary,12824 Lakeshore Drive,12824 Lakeshore Dr.,Lakeside,92040-0578,CA,ELEM,N,32.859031,-116.91443,2020-08-13,92040,92040.0,"12824 Lakeshore Drive, Lakeside, CA, 92040"
37681896038384,Riverview Elementary,9308 Winter Gardens Boulevard,9308 Winter Gardens Blvd.,Lakeside,92040-4539,CA,ELEM,N,32.846449,-116.93109,2019-08-22,92040,92040.0,"9308 Winter Gardens Boulevard, Lakeside, CA, 92040"
37681896038392,Winter Gardens Elementary,8501 Pueblo Road,8501 Pueblo Rd.,Lakeside,92040-5406,CA,ELEM,N,32.831458,-116.93122,2019-08-23,92040,92040.0,"8501 Pueblo Road, Lakeside, CA, 92040"
37681896085047,Tierra del Sol Middle,9611 Petite Lane,9611 Petite Ln.,Lakeside,92040-4317,CA,INTMIDJR,N,32.854481,-116.91164,2019-02-13,92040,92040.0,"9611 Petite Lane, Lakeside, CA, 92040"
37681896107742,Lakeside Union Alternative Education,9308 Winter Gardens Boulevard,9308 Winter Gardens Blvd.,Lakeside,92040-3015,CA,ELEM,N,32.847282,-116.9317,2020-08-13,92040,92040.0,"9308 Winter Gardens Boulevard, Lakeside, CA, 92040"
37681896110092,Lemon Crest Elementary,12463 Lemon Crest Drive,12463 Lemon Crest Dr.,Lakeside,92040-0578,CA,ELEM,N,32.85228,-116.92172,2019-02-13,92040,92040.0,"12463 Lemon Crest Drive, Lakeside, CA, 92040"
37681896120901,Barona Indian Charter,1095 Barona Road,1095 Barona Rd.,Lakeside,92040-1541,CA,ELEM,N,32.933084,-116.8772,2020-08-13,92040,92040.0,"1095 Barona Road, Lakeside, CA, 92040"
37681970115543,Quest Academy,8805 Tyler Street,8805 Tyler St.,Spring Valley,91977-3336,CA,INTMIDJR,N,32.730135,-117.00817,2019-02-13,91977,91977.0,"8805 Tyler Street, Spring Valley, CA, 91977"
37681970132290,La Mesa Arts Academy,4200 Parks Avenue,4200 Parks Ave.,La Mesa,91942-6212,CA,INTMIDJR,N,32.75519,-117.03025,2020-08-13,91942,91942.0,"4200 Parks Avenue, La Mesa, CA, 91942"
37681970132431,"Science, Technology, Engineering, Arts, and Math Academy at La Presa",1001 Leland Street,1001 Leland St.,Spring Valley,91977-4819,CA,INTMIDJR,N,32.712351,-117.00522,2020-08-13,91977,91977.0,"1001 Leland Street, Spring Valley, CA, 91977"
37681970132951,Trust Blended Learning,9009 Park Placeaza Drive,9009 Park Pl.aza Dr.,La Mesa,91942-3400,CA,ELEM,V,32.790456,-117.00419,2020-08-13,91942,91942.0,"9009 Park Placeaza Drive, La Mesa, CA, 91942"
37681970134155,Spring Valley Academy,3900 Conrad Drive,3900 Conrad Dr.,Spring Valley,91977-1437,CA,INTMIDJR,N,32.750413,-116.98775,2020-08-13,91977,91977.0,"3900 Conrad Drive, Spring Valley, CA, 91977"
37681970136408,Sparrow Academy,4207 Spring Gardens Road,4207 Spring Gardens Rd.,La Mesa,91941-2030,CA,ELEM,N,32.756024,-117.01271,2020-08-13,91941,91941.0,"4207 Spring Gardens Road, La Mesa, CA, 91941"
37681976038400,Avondale Elementary,8401 Stansbury Street,8401 Stansbury St.,Spring Valley,91977-3737,CA,ELEM,N,32.719139,-117.01727,2020-08-13,91977,91977.0,"8401 Stansbury Street, Spring Valley, CA, 91977"
37681976038418,Bancroft Elementary,8805 Tyler Street,8805 Tyler St.,Spring Valley,91977-3336,CA,ELEM,N,32.730135,-117.00817,2020-08-13,91977,91977.0,"8805 Tyler Street, Spring Valley, CA, 91977"
37681976038434,Casa de Oro Elementary,10227 Ramona Drive,10227 Ramona Dr.,Spring Valley,91977-1720,CA,ELEM,N,32.747767,-116.97276,2020-08-13,91977,91977.0,"10227 Ramona Drive, Spring Valley, CA, 91977"
37681976038442,Fletcher Hills Elementary,2330 Center Place,2330 Center Pl.,El Cajon,92020-2809,CA,ELEM,N,32.800478,-116.99618,2020-08-13,92020,92020.0,"2330 Center Place, El Cajon, CA, 92020"
37681976038459,Highlands Elementary,3131 South Barcelona Street,3131 South Barcelona St.,Spring Valley,91977-3003,CA,ELEM,N,32.737305,-116.98155,2020-08-13,91977,91977.0,"3131 South Barcelona Street, Spring Valley, CA, 91977"
37681976038467,Kempton Street Literacy Academy,740 Kempton Street,740 Kempton St.,Spring Valley,91977-5017,CA,ELEM,N,32.710497,-117.00175,2019-09-16,91977,91977.0,"740 Kempton Street, Spring Valley, CA, 91977"
37681976038475,La Mesa Dale Elementary,4370 Parks Avenue,4370 Parks Ave.,La Mesa,91941-5214,CA,ELEM,N,32.757662,-117.03215,2020-08-13,91941,91941.0,"4370 Parks Avenue, La Mesa, CA, 91941"
37681976038509,La Presa Elementary,519 La Presa Street,519 La Presa St.,Spring Valley,91977-6011,CA,ELEM,N,32.706482,-116.99327,2020-08-13,91977,91977.0,"519 La Presa Street, Spring Valley, CA, 91977"
37681976038517,Lemon Avenue Elementary,8787 Lemon Avenue,8787 Lemon Ave.,La Mesa,91941-5214,CA,ELEM,N,32.768184,-117.00837,2020-08-13,91941,91941.0,"8787 Lemon Avenue, La Mesa, CA, 91941"
37681976038525,Maryland Avenue Elementary,5400 Maryland Avenue,5400 Maryland Ave.,La Mesa,91941-5214,CA,ELEM,N,32.777787,-117.0382,2020-08-13,91941,91941.0,"5400 Maryland Avenue, La Mesa, CA, 91941"
37681976038533,Murray Manor Elementary,8305 El Paso Street,8305 El Paso St.,La Mesa,91942-2704,CA,ELEM,N,32.788351,-117.01987,2020-08-13,91942,91942.0,"8305 El Paso Street, La Mesa, CA, 91942"
37681976038541,Northmont Elementary,9405 Gregory Street,9405 Gregory St.,La Mesa,91942-3811,CA,ELEM,N,32.790877,-116.99398,2020-08-13,91942,91942.0,"9405 Gregory Street, La Mesa, CA, 91942"
37681976038558,Parkway Middle,9009 Park Plaza Drive,9009 Park Plaza Dr.,La Mesa,91942-3400,CA,INTMIDJR,N,32.791277,-117.00293,2020-08-13,91942,91942.0,"9009 Park Plaza Drive, La Mesa, CA, 91942"
37681976038566,Rancho Elementary,8845 Noeline Avenue,8845 Noeline Ave.,Spring Valley,91977-5716,CA,ELEM,N,32.70508,-117.01594,2020-08-13,91977,91977.0,"8845 Noeline Avenue, Spring Valley, CA, 91977"
37681976038574,Rolando Elementary,6925 Tower Street,6925 Tower St.,La Mesa,91941-5214,CA,ELEM,N,32.763199,-117.04876,2020-08-13,91941,91941.0,"6925 Tower Street, La Mesa, CA, 91941"
37681976070833,Murdock Elementary,4354 Conrad Drive,4354 Conrad Dr.,La Mesa,91941-5214,CA,ELEM,N,32.758828,-116.98474,2020-08-13,91941,91941.0,"4354 Conrad Drive, La Mesa, CA, 91941"
37681976098446,Loma Elementary,10355 Loma Lane,10355 Loma Ln.,Spring Valley,91978-1517,CA,ELEM,N,32.736664,-116.96884,2020-08-13,91978,91978.0,"10355 Loma Lane, Spring Valley, CA, 91978"
37681976111207,Sweetwater Springs Elementary,10129 Austin Drive,10129 Austin Dr.,Spring Valley,91977-6903,CA,ELEM,N,32.731776,-116.9766,2020-08-13,91977,91977.0,"10129 Austin Drive, Spring Valley, CA, 91977"
37682056038608,Lemon Grove Academy for the Sciences and Humanities,7866 Lincoln Street,7866 Lincoln St.,Lemon Grove,91945-2542,CA,ELEM,N,32.738507,-117.02886,2020-08-13,91945,91945.0,"7866 Lincoln Street, Lemon Grove, CA, 91945"
37682056038624,Monterey Heights Elementary,7550 Canton Drive,7550 Canton Dr.,Lemon Grove,91945-2515,CA,ELEM,N,32.722188,-117.03315,2020-08-13,91945,91945.0,"7550 Canton Drive, Lemon Grove, CA, 91945"
37682056038632,Mt. Vernon,8350 Mount Vernon Street,8350 Mount Vernon St.,Lemon Grove,91945-3336,CA,ELEM,N,32.732311,-117.02093,2020-07-22,91945,91945.0,"8350 Mount Vernon Street, Lemon Grove, CA, 91945"
37682056038657,San Altos Elementary,1750 Madera Street,1750 Madera St.,Lemon Grove,91945-2515,CA,ELEM,N,32.724107,-117.04534,2020-08-13,91945,91945.0,"1750 Madera Street, Lemon Grove, CA, 91945"
37682056038665,San Miguel Elementary,7059 San Miguel Avenue,7059 San Miguel Ave.,Lemon Grove,91945-2515,CA,ELEM,N,32.735134,-117.04597,2020-08-13,91945,91945.0,"7059 San Miguel Avenue, Lemon Grove, CA, 91945"
37682056038673,Vista La Mesa Academy,3900 Violet Street,3900 Violet St.,La Mesa,91941-7542,CA,ELEM,N,32.748456,-117.04497,2020-08-13,91941,91941.0,"3900 Violet Street, La Mesa, CA, 91941"
37682130118711,Mountain Empire Special Education Preschool,3291 Buckman Springs Road,3291 Buckman Springs Rd.,Pine Valley,91962-4003,CA,ELEM,N,32.75726,-116.49271,2015-09-28,91962,91962.0,"3291 Buckman Springs Road, Pine Valley, CA, 91962"
37682130123224,San Diego Virtual,2878 Camino Del Rio South Suite 410,2878 Camino Del Rio South Ste. 410,San Diego,92108-3848,CA,ELEMHIGH,V,32.771347,-117.13032,2019-02-13,92108,92108.0,"2878 Camino Del Rio South Suite 410, San Diego, CA, 92108"
37682130126995,Camp Lockett Middle,31360 Highway 94,31360 Highway 94,Campo,91906-3154,CA,INTMIDJR,N,32.616483,-116.47593,2020-08-13,91906,91906.0,"31360 Highway 94, Campo, CA, 91906"
37682130127001,Pine Valley Middle,7454 Pine Boulevard,7454 Pine Blvd.,Pine Valley,91962,CA,INTMIDJR,N,32.819591,-116.52548,2020-08-13,91962,91962.0,"7454 Pine Boulevard, Pine Valley, CA, 91962"
37682130127084,Compass Charter Schools of San Diego,"850 Hampshire Road, Suite P","850 Hampshire Rd., Ste. P",Thousand Oaks,91361-2851,CA,ELEMHIGH,F,34.155677,-118.83082,2020-08-13,91361,91361.0,"850 Hampshire Road, Suite P, Thousand Oaks, CA, 91361"
37682130129668,Motivated Youth Academy,100 E San Marcos Boulevard Ste 350,100 E San Marcos Blvd. Ste 350,San Marcos,92069-2989,CA,ELEMHIGH,V,33.141522,-117.16245,2020-08-27,92069,92069.0,"100 E San Marcos Boulevard Ste 350, San Marcos, CA, 92069"
37682130136978,Elite Academic Academy - Mountain Empire,43414 Business Park Drive,43414 Business Park Dr.,Temecula,92590-5526,CA,ELEMHIGH,V,33.50021,-117.1611,2020-08-26,92590,92590.0,"43414 Business Park Drive, Temecula, CA, 92590"
37682130138636,JCS - Pine Valley,28876 Old Highway 80,28876 Old Highway 80,Pine Valley,91962,CA,ELEMHIGH,N,32.821998,-116.52871,2020-08-27,91962,91962.0,"28876 Old Highway 80, Pine Valley, CA, 91962"
37682133730934,Campo High (Continuation),3305 Buckman Springs Road,3305 Buckman Springs Rd.,Pine Valley,91962-4005,CA,HS,N,32.734352,-116.49294,2020-08-13,91962,91962.0,"3305 Buckman Springs Road, Pine Valley, CA, 91962"
37682133730991,Hillside Junior/Senior High,3305 Buckman Springs Road,3305 Buckman Springs Rd.,Pine Valley,91962-4005,CA,HS,N,32.734352,-116.49294,2020-08-13,91962,91962.0,"3305 Buckman Springs Road, Pine Valley, CA, 91962"
37682133731080,Cottonwood Community Day,3291 Buckman Springs Road,3291 Buckman Springs Rd.,Pine Valley,91962-4003,CA,HS,N,32.732694,-116.49425,2019-02-13,91962,91962.0,"3291 Buckman Springs Road, Pine Valley, CA, 91962"
37682133734878,Mountain Empire High,3305 Buckman Springs Road,3305 Buckman Springs Rd.,Pine Valley,91962-4005,CA,HS,N,32.734424,-116.4937,2020-08-13,91962,91962.0,"3305 Buckman Springs Road, Pine Valley, CA, 91962"
37682136038681,Campo Elementary,1654 Buckman Springs Road,1654 Buckman Springs Rd.,Campo,91906-2004,CA,ELEM,N,32.643626,-116.48561,2020-08-13,91906,91906.0,"1654 Buckman Springs Road, Campo, CA, 91906"
37682136038699,Descanso Elementary,24842 Viejas Boulevard,24842 Viejas Blvd.,Descanso,91916-9757,CA,ELEM,N,32.858654,-116.61341,2020-08-13,91916,91916.0,"24842 Viejas Boulevard, Descanso, CA, 91916"
37682136085054,Clover Flat Elementary,39639 Old Highway 80,39639 Old Highway 80,Boulevard,91905-9733,CA,ELEM,N,32.668361,-116.29589,2020-08-13,91905,91905.0,"39639 Old Highway 80, Boulevard, CA, 91905"
37682136097190,Potrero Elementary,24875 Potrero Valley Road,24875 Potrero Valley Rd.,Potrero,91963-4110,CA,ELEM,N,32.610058,-116.6133,2019-08-23,91963,91963.0,"24875 Potrero Valley Road, Potrero, CA, 91963"
37682210101360,Integrity Charter,701 National City Boulevard,701 National City Blvd.,National City,91950-1123,CA,ELEM,N,32.676262,-117.10704,2020-08-13,91950,91950.0,"701 National City Boulevard, National City, CA, 91950"
37682210129734,National School District Preschool,2401 East 24th Street,2401 East 24th St.,National City,91950-6162,CA,PS,N,32.670265,-117.07596,2018-10-29,91950,91950.0,"2401 East 24th Street, National City, CA, 91950"
37682216038731,Central Elementary,933 E Avenue,933 E Ave.,National City,91950-3416,CA,ELEM,N,32.676133,-117.1013,2019-02-13,91950,91950.0,"933 E Avenue, National City, CA, 91950"
37682216038749,El Toyon Elementary,2000 East Division Street,2000 East Division St.,National City,91950-1823,CA,ELEM,N,32.688436,-117.08889,2019-02-13,91950,91950.0,"2000 East Division Street, National City, CA, 91950"
37682216038756,John A. Otis Elementary,621 East 18th Street,621 East 18th St.,National City,91950-4630,CA,ELEM,N,32.669036,-117.0972,2019-02-13,91950,91950.0,"621 East 18th Street, National City, CA, 91950"
37682216038764,Ira Harbison,3235 EastEighth Street,3235 EastEighth St.,National City,91950-3116,CA,ELEM,N,32.685779,-117.07317,2020-08-13,91950,91950.0,"3235 EastEighth Street, National City, CA, 91950"
37682216038772,Kimball,302 West 18th Street,302 West 18th St.,National City,91950-5526,CA,ELEM,N,32.666367,-117.10637,2019-02-13,91950,91950.0,"302 West 18th Street, National City, CA, 91950"
37682216038780,Las Palmas,1900 East 18th Street,1900 East 18th St.,National City,91950-5013,CA,ELEM,N,32.672498,-117.08437,2019-02-13,91950,91950.0,"1900 East 18th Street, National City, CA, 91950"
37682216038798,Lincoln Acres,2200 Lanoitan Avenue,2200 Lanoitan Ave.,National City,91950-6298,CA,ELEM,N,32.671255,-117.07569,2020-08-11,91950,91950.0,"2200 Lanoitan Avenue, National City, CA, 91950"
37682216038806,Olivewood,2505 F Avenue,2505 F Ave.,National City,91950-7017,CA,ELEM,N,32.662903,-117.09498,2019-02-13,91950,91950.0,"2505 F Avenue, National City, CA, 91950"
37682216038814,Palmer Way,2900 Palmer Street,2900 Palmer St.,National City,91950-5251,CA,ELEM,N,32.679585,-117.07477,2019-02-13,91950,91950.0,"2900 Palmer Street, National City, CA, 91950"
37682216108559,Rancho de la Nacion,1830 East Division Street,1830 East Division St.,National City,91950-1850,CA,ELEM,N,32.687964,-117.09059,2020-08-11,91950,91950.0,"1830 East Division Street, National City, CA, 91950"
37682960102822,Stone Ranch Elementary,16150 4S Ranch Parkway,16150 4S Ranch Pkwy.,San Diego,92127-4431,CA,ELEM,N,33.005421,-117.11572,2020-08-13,92127,92127.0,"16150 4S Ranch Parkway, San Diego, CA, 92127"
37682960108332,Oak Valley Middle,16055 Winecreek Road,16055 Winecreek Rd.,San Diego,92127-3719,CA,INTMIDJR,C,32.999254,-117.1098,2020-08-13,92127,92127.0,"16055 Winecreek Road, San Diego, CA, 92127"
37682960111187,Monterey Ridge Elementary,17117 4S Ranch Parkway,17117 4S Ranch Pkwy.,San Diego,92127-8853,CA,ELEM,N,33.0264,-117.1094,2020-08-13,92127,92127.0,"17117 4S Ranch Parkway, San Diego, CA, 92127"
37682960116475,Del Sur Elementary,15665 Paseo Del Sur,15665 Paseo Del Sur,San Diego,92127-6144,CA,ELEM,N,33.0185,-117.14056,2020-08-13,92127,92127.0,"15665 Paseo Del Sur, San Diego, CA, 92127"
37682960116764,Willow Grove Elementary,14727 Via Azul,14727 Via Azul,San Diego,92127-4813,CA,ELEM,N,32.993542,-117.16104,2020-08-13,92127,92127.0,"14727 Via Azul, San Diego, CA, 92127"
37682960118935,Del Norte High,16601 Nighthawk Lane,16601 Nighthawk Ln.,San Diego,92127-4457,CA,HS,C,33.015119,-117.12162,2020-08-15,92127,92127.0,"16601 Nighthawk Lane, San Diego, CA, 92127"
37682960129056,Design 39 Campus,17050 Del Sur Ridge Road,17050 Del Sur Ridge Rd.,San Diego,92127-4463,CA,ELEM,N,33.018484,-117.12715,2020-08-13,92127,92127.0,"17050 Del Sur Ridge Road, San Diego, CA, 92127"
37682963730074,Mt. Carmel High,9550 Carmel Mountain Road,9550 Carmel Mountain Rd.,San Diego,92129-2799,CA,HS,C,32.965926,-117.12091,2020-08-13,92129,92129.0,"9550 Carmel Mountain Road, San Diego, CA, 92129"
37682963730819,Rancho Bernardo High,13010 Paseo Lucido,13010 Paseo Lucido,San Diego,92128-4499,CA,HS,C,32.994329,-117.06805,2020-08-13,92128,92128.0,"13010 Paseo Lucido, San Diego, CA, 92128"
37682963731528,Westview High,13500 Camino Del Sur,13500 Camino Del Sur,San Diego,92129-4465,CA,HS,C,32.965082,-117.14808,2020-08-13,92129,92129.0,"13500 Camino Del Sur, San Diego, CA, 92129"
37682963735834,Poway Adult,13626 Twin Peaks Road,13626 Twin Peaks Rd.,Poway,92064-3034,CA,A,C,32.978786,-117.03586,2016-12-08,92064,92064.0,"13626 Twin Peaks Road, Poway, CA, 92064"
37682963735842,Abraxas Continuation High,12450 Glenoak Road,12450 Glenoak Rd.,Poway,92064-3299,CA,HS,C,32.973675,-117.06088,2020-08-13,92064,92064.0,"12450 Glenoak Road, Poway, CA, 92064"
37682963735867,Poway High,15500 Espola Road,15500 Espola Rd.,Poway,92064-2299,CA,HS,C,32.996858,-117.02366,2020-08-13,92064,92064.0,"15500 Espola Road, Poway, CA, 92064"
37682966038970,Garden Road Elementary,14614 Garden Road,14614 Garden Rd.,Poway,92064-5299,CA,ELEM,N,32.956246,-117.01434,2020-08-13,92064,92064.0,"14614 Garden Road, Poway, CA, 92064"
37682966038988,Meadowbrook Middle,12320 Meadowbrook Lane,12320 Meadowbrook Ln.,Poway,92064-3599,CA,INTMIDJR,C,32.963401,-117.06405,2019-02-13,92064,92064.0,"12320 Meadowbrook Lane, Poway, CA, 92064"
37682966038996,Midland Elementary,13910 Midland Road,13910 Midland Rd.,Poway,92064-4024,CA,ELEM,N,32.966051,-117.03619,2020-08-13,92064,92064.0,"13910 Midland Road, Poway, CA, 92064"
37682966039002,Pomerado Elementary,12321 Ninth Street,12321 Ninth St.,Poway,92064-3597,CA,ELEM,N,32.958705,-117.06457,2020-08-13,92064,92064.0,"12321 Ninth Street, Poway, CA, 92064"
37682966039010,Valley Elementary,13000 Bowron Road,13000 Bowron Rd.,Poway,92064-5799,CA,ELEM,N,32.953597,-117.04526,2019-02-13,92064,92064.0,"13000 Bowron Road, Poway, CA, 92064"
37682966070841,Los Penasquitos Elementary,14125 Cuca Street,14125 Cuca St.,San Diego,92129-1852,CA,ELEM,N,32.970519,-117.09622,2020-08-13,92129,92129.0,"14125 Cuca Street, San Diego, CA, 92129"
37682966070858,Westwood Elementary,17449 Matinal Road,17449 Matinal Rd.,San Diego,92127-1299,CA,ELEM,N,33.03119,-117.08695,2020-08-13,92127,92127.0,"17449 Matinal Road, San Diego, CA, 92127"
37682966070866,Twin Peaks Middle,14640 Tierra Bonita Road,14640 Tierra Bonita Rd.,Poway,92064-3091,CA,INTMIDJR,C,32.980105,-117.02769,2020-08-13,92064,92064.0,"14640 Tierra Bonita Road, Poway, CA, 92064"
37682966085088,Painted Rock Elementary,16711 Martincoit Road,16711 Martincoit Rd.,Poway,92064-1628,CA,ELEM,N,33.017454,-117.03971,2020-08-13,92064,92064.0,"16711 Martincoit Road, Poway, CA, 92064"
37682966093223,Black Mountain Middle,9353 Oviedo Street,9353 Oviedo St.,San Diego,92129-2198,CA,INTMIDJR,N,32.96914,-117.12709,2020-08-13,92129,92129.0,"9353 Oviedo Street, San Diego, CA, 92129"
37682966093231,Sunset Hills Elementary,9291 Oviedo Street,9291 Oviedo St.,San Diego,92129-2199,CA,ELEM,N,32.96914,-117.12709,2020-08-13,92129,92129.0,"9291 Oviedo Street, San Diego, CA, 92129"
37682966095053,Tierra Bonita Elementary,14678 Tierra Bonita Road,14678 Tierra Bonita Rd.,Poway,92064-3090,CA,ELEM,N,32.98141,-117.02771,2020-08-13,92064,92064.0,"14678 Tierra Bonita Road, Poway, CA, 92064"
37682966097208,Rolling Hills Elementary,15255 Penasquitos Drive,15255 Penasquitos Dr.,San Diego,92129-1016,CA,ELEM,N,32.989542,-117.09273,2020-08-13,92129,92129.0,"15255 Penasquitos Drive, San Diego, CA, 92129"
37682966097216,Chaparral Elementary,17250 Tannin Drive,17250 Tannin Dr.,Poway,92064-1123,CA,ELEM,N,33.023731,-117.04995,2020-08-13,92064,92064.0,"17250 Tannin Drive, Poway, CA, 92064"
37682966099444,Sundance Elementary,8944 Twin Trails Drive,8944 Twin Trails Dr.,San Diego,92129-2334,CA,ELEM,N,32.960094,-117.13331,2020-08-13,92129,92129.0,"8944 Twin Trails Drive, San Diego, CA, 92129"
37682966106520,Canyon View Elementary,9225 Adolphia Street,9225 Adolphia St.,San Diego,92129-3525,CA,ELEM,N,32.947126,-117.12807,2020-08-13,92129,92129.0,"9225 Adolphia Street, San Diego, CA, 92129"
37682966107460,Bernardo Heights Middle,12990 Paseo Lucido,12990 Paseo Lucido,San Diego,92128-4479,CA,INTMIDJR,N,32.995489,-117.06788,2020-08-13,92128,92128.0,"12990 Paseo Lucido, San Diego, CA, 92128"
37682966109300,Deer Canyon Elementary,13455 Russet Leaf Lane,13455 Russet Leaf Ln.,San Diego,92129-4411,CA,ELEM,N,32.964038,-117.14377,2020-08-13,92129,92129.0,"13455 Russet Leaf Lane, San Diego, CA, 92129"
37682966109318,Morning Creek Elementary,"10925 Morning Creek Drive, South","10925 Morning Creek Dr., South",San Diego,92128-4047,CA,ELEM,N,32.953272,-117.09554,2020-08-13,92128,92128.0,"10925 Morning Creek Drive, South, San Diego, CA, 92128"
37682966109326,Turtleback Elementary,15855 Turtleback Road,15855 Turtleback Rd.,San Diego,92127-2044,CA,ELEM,N,33.004949,-117.08814,2020-08-13,92127,92127.0,"15855 Turtleback Road, San Diego, CA, 92127"
37682966110878,Adobe Bluffs Elementary,8707 Adobe Bluffs Drive,8707 Adobe Bluffs Dr.,San Diego,92129-4448,CA,ELEM,N,32.974268,-117.14039,2019-02-13,92129,92129.0,"8707 Adobe Bluffs Drive, San Diego, CA, 92129"
37682966110886,Highland Ranch Elementary,14840 Waverley Downs Way,14840 Waverley Downs Way,San Diego,92128-3702,CA,ELEM,N,32.984064,-117.07108,2020-08-13,92128,92128.0,"14840 Waverley Downs Way, San Diego, CA, 92128"
37682966111306,Mesa Verde Middle,8375 Entreken Way,8375 Entreken Way,San Diego,92129-4405,CA,INTMIDJR,C,32.962739,-117.14671,2020-08-13,92129,92129.0,"8375 Entreken Way, San Diego, CA, 92129"
37682966111314,Park Village Elementary,7930 Park Village Road,7930 Park Village Rd.,San Diego,92129-3781,CA,ELEM,N,32.940459,-117.15069,2020-08-13,92129,92129.0,"7930 Park Village Road, San Diego, CA, 92129"
37682966114854,Shoal Creek Elementary,11775 Shoal Creek Drive,11775 Shoal Creek Dr.,San Diego,92128-4573,CA,ELEM,N,32.967503,-117.08054,2020-08-13,92128,92128.0,"11775 Shoal Creek Drive, San Diego, CA, 92128"
37682966117469,Creekside Elementary,12362 Springhurst Drive,12362 Springhurst Dr.,San Diego,92128-6366,CA,ELEM,N,32.943627,-117.07551,2020-08-13,92128,92128.0,"12362 Springhurst Drive, San Diego, CA, 92128"
37683040102178,Future Bound Independent Study Secondary,720 Ninth Street,720 Ninth St.,Ramona,92065-2348,CA,HS,N,33.039022,-116.86397,2020-06-26,92065,92065.0,"720 Ninth Street, Ramona, CA, 92065"
37683040131250,Mountain Valley Academy,1010 Ramona Street,1010 Ramona St.,Ramona,92065-3222,CA,ELEMHIGH,N,33.026764,-116.87845,2020-08-13,92065,92065.0,"1010 Ramona Street, Ramona, CA, 92065"
37683040131268,Ramona Community Montessori,1010 Ramona Street,1010 Ramona St.,Ramona,92065-3222,CA,ELEM,N,33.026764,-116.87845,2020-08-13,92065,92065.0,"1010 Ramona Street, Ramona, CA, 92065"
37683043730900,Ramona Adult,720 Ninth Street,720 Ninth St.,Ramona,92065-2348,CA,A,N,33.039329,-116.86387,2020-06-26,92065,92065.0,"720 Ninth Street, Ramona, CA, 92065"
37683043735958,Montecito High (Continuation),720 Ninth Street,720 Ninth St.,Ramona,92065-2348,CA,HS,N,33.039022,-116.86397,2020-08-13,92065,92065.0,"720 Ninth Street, Ramona, CA, 92065"
37683043735974,Ramona High,1401 Hanson Lane,1401 Hanson Ln.,Ramona,92065-3304,CA,HS,N,33.025724,-116.86867,2020-08-13,92065,92065.0,"1401 Hanson Lane, Ramona, CA, 92065"
37683046039028,Hanson Elementary,2520 Boundary Avenue,2520 Boundary Ave.,Ramona,92065-3106,CA,ELEM,N,33.018565,-116.89073,2020-08-13,92065,92065.0,"2520 Boundary Avenue, Ramona, CA, 92065"
37683046039036,Ramona Elementary,415 Eighth Street,415 Eighth St.,Ramona,92065-2346,CA,ELEM,N,33.04261,-116.86452,2020-08-13,92065,92065.0,"415 Eighth Street, Ramona, CA, 92065"
37683046105555,James Dukes Elementary,24908 Abalar Way,24908 Abalar Way,Ramona,92065-4649,CA,ELEM,N,33.007843,-116.79124,2020-08-13,92065,92065.0,"24908 Abalar Way, Ramona, CA, 92065"
37683046105563,Olive Peirce Middle,1521 Hanson Lane,1521 Hanson Ln.,Ramona,92065-3306,CA,ELEMHIGH,N,33.025724,-116.87161,2020-08-13,92065,92065.0,"1521 Hanson Lane, Ramona, CA, 92065"
37683046107999,Mt. Woodson Elementary,17427 Archie Moore Road,17427 Archie Moore Rd.,Ramona,92065-6907,CA,ELEM,N,33.031043,-116.95661,2020-08-13,92065,92065.0,"17427 Archie Moore Road, Ramona, CA, 92065"
37683046110720,Barnett Elementary,23925 Couna Way,23925 Couna Way,Ramona,92065-4120,CA,ELEM,N,33.01808,-116.8121,2020-08-13,92065,92065.0,"23925 Couna Way, Ramona, CA, 92065"
37683126039051,R. Roger Rowe Elementary,5927 La Granada,5927 La Granada,Rancho Santa Fe,92067-0809,CA,ELEM,N,33.021758,-117.20694,2020-08-13,92067,92067.0,"5927 La Granada, Rancho Santa Fe, CA, 92067"
37683126070908,R. Roger Rowe Middle,5927 La Granada,5927 La Granada,Rancho Santa Fe,92067-0809,CA,INTMIDJR,N,33.021758,-117.20694,2020-08-13,92067,92067.0,"5927 La Granada, Rancho Santa Fe, CA, 92067"
37683380101204,High Tech Middle,2359 Truxtun Road,2359 Truxtun Rd.,San Diego,92106-6049,CA,INTMIDJR,N,32.73524,-117.21805,2020-08-17,92106,92106.0,"2359 Truxtun Road, San Diego, CA, 92106"
37683380101345,KIPP Adelante Preparatory Academy,426 Euclid Avenue,426 Euclid Ave.,San Diego,92114-2203,CA,INTMIDJR,N,32.709238,-117.0851,2020-06-23,92114,92114.0,"426 Euclid Avenue, San Diego, CA, 92114"
37683380106732,High Tech High International,2855 Farragut Road,2855 Farragut Rd.,San Diego,92106-6029,CA,HS,N,32.732613,-117.21739,2020-08-13,92106,92106.0,"2855 Farragut Road, San Diego, CA, 92106"
37683380106799,Learning Choice Academy,9950 Scripps Lake Drive Suite #105,9950 Scripps Lake Dr. Ste. #105,San Diego,92131-1082,CA,ELEMHIGH,C,32.91181,-117.1113,2020-08-13,92131,92131.0,"9950 Scripps Lake Drive Suite #105, San Diego, CA, 92131"
37683380107029,San Diego International Studies,1405 Park Boulevard,1405 Park Blvd.,San Diego,92101-4722,CA,HS,C,32.719461,-117.15366,2020-08-13,92101,92101.0,"1405 Park Boulevard, San Diego, CA, 92101"
37683380107052,San Diego Business/Leadership,1405 Park Boulevard,1405 Park Blvd.,San Diego,92101-4722,CA,HS,C,32.719461,-117.15366,2020-08-13,92101,92101.0,"1405 Park Boulevard, San Diego, CA, 92101"
37683380107078,Kearny Digital Media & Design,1954 Komet Way,1954 Komet Way,San Diego,92111-5731,CA,HS,C,32.798708,-117.16044,2020-08-13,92111,92111.0,"1954 Komet Way, San Diego, CA, 92111"
37683380107086,Kearny School of Biomedical Science and Technology,1954 Komet Way,1954 Komet Way,San Diego,92111-5731,CA,HS,C,32.798708,-117.16044,2020-08-13,92111,92111.0,"1954 Komet Way, San Diego, CA, 92111"
37683380107094,Kearny College Connections,1954 Komet Way,1954 Komet Way,San Diego,92111-5731,CA,HS,C,32.798708,-117.16044,2020-08-13,92111,92111.0,"1954 Komet Way, San Diego, CA, 92111"
37683380107102,Kearny Eng Innov & Design,1954 Komet Way,1954 Komet Way,San Diego,92111-5731,CA,HS,C,32.798708,-117.16044,2020-08-13,92111,92111.0,"1954 Komet Way, San Diego, CA, 92111"
37683380107177,Crawford High,4191 Colts Way,4191 Colts Way,San Diego,92115-6023,CA,HS,C,32.752163,-117.07694,2020-08-13,92115,92115.0,"4191 Colts Way, San Diego, CA, 92115"
37683380107219,San Diego Science and Technology,1405 Park Boulevard,1405 Park Blvd.,San Diego,92101-4722,CA,HS,C,32.719461,-117.15366,2020-08-13,92101,92101.0,"1405 Park Boulevard, San Diego, CA, 92101"
37683380107482,San Diego Metro Career and Tech,"7250 Mesa College Drive, Room L-502","7250 Mesa College Dr., Rm. L-502",San Diego,92111-4902,CA,HS,C,32.803695,-117.16498,2020-08-13,92111,92111.0,"7250 Mesa College Drive, Room L-502, San Diego, CA, 92111"
37683380107573,High Tech Middle Media Arts,"2230 Truxtun Road, 2nd Floor","2230 Truxtun Rd., 2nd Fl.",San Diego,92106-6125,CA,INTMIDJR,N,32.734604,-117.21975,2020-08-13,92106,92106.0,"2230 Truxtun Road, 2nd Floor, San Diego, CA, 92106"
37683380108266,Golden Hill K-8,1240 33rd Street,1240 33rd St.,San Diego,92102-2409,CA,ELEM,N,32.71876,-117.12318,2020-07-02,92102,92102.0,"1240 33rd Street, San Diego, CA, 92102"
37683380108274,Porter Elementary,4800 T Street,4800 T St.,San Diego,92113-5006,CA,ELEM,N,32.69871,-117.09106,2020-08-13,92113,92113.0,"4800 T Street, San Diego, CA, 92113"
37683380108282,Cherokee Point Elementary,3735 38th Street,3735 38th St.,San Diego,92105-2414,CA,ELEM,N,32.747185,-117.11183,2020-07-02,92105,92105.0,"3735 38th Street, San Diego, CA, 92105"
37683380108290,Ibarra Elementary,4877 Orange Avenue,4877 Orange Ave.,San Diego,92115-4947,CA,ELEM,N,32.753027,-117.08953,2020-08-13,92115,92115.0,"4877 Orange Avenue, San Diego, CA, 92115"
37683380108787,High Tech High Media Arts,2230 Truxtun Road Third Floor,2230 Truxtun Rd. Third Fl.,San Diego,92106-6039,CA,HS,N,32.734734,-117.2197,2020-08-13,92106,92106.0,"2230 Truxtun Road Third Floor, San Diego, CA, 92106"
37683380109033,King-Chavez Arts and Athletics Academy,415 31st Street,415 31st St.,San Diego,92102-4236,CA,ELEM,N,32.709848,-117.12742,2020-08-13,92102,92102.0,"415 31st Street, San Diego, CA, 92102"
37683380109157,Magnolia Science Academy San Diego,6525 Estrella Avenue,6525 Estrella Ave.,San Diego,92120-2707,CA,INTMIDJR,N,32.791691,-117.08783,2020-08-13,92120,92120.0,"6525 Estrella Avenue, San Diego, CA, 92120"
37683380111864,Normal Heights Elementary,3750 Ward Road,3750 Ward Rd.,San Diego,92116-3737,CA,ELEM,N,32.761139,-117.11376,2020-08-13,92116,92116.0,"3750 Ward Road, San Diego, CA, 92116"
37683380111898,Albert Einstein Academy Charter Middle,458 26th Street,458 26th St.,San Diego,92102-1718,CA,INTMIDJR,N,32.709719,-117.13816,2020-08-13,92102,92102.0,"458 26th Street, San Diego, CA, 92102"
37683380111906,King-Chavez Preparatory Academy,500 30th Street,500 30th St.,San Diego,92102-3090,CA,INTMIDJR,N,32.710591,-117.1303,2020-08-13,92102,92102.0,"500 30th Street, San Diego, CA, 92102"
37683380114025,Lincoln High,4777 Imperial Avenue,4777 Imperial Ave.,San Diego,92113-2071,CA,HS,C,32.704034,-117.09196,2020-08-13,92113,92113.0,"4777 Imperial Avenue, San Diego, CA, 92113"
37683380114033,Rodriguez Elementary,825 South 31st Street,825 South 31st St.,San Diego,92113-2525,CA,ELEM,N,32.697615,-117.12725,2020-08-13,92113,92113.0,"825 South 31st Street, San Diego, CA, 92113"
37683380114041,Joyner Elementary,4271 Myrtle Avenue,4271 Myrtle Ave.,San Diego,92105-3426,CA,ELEM,N,32.742094,-117.1027,2020-09-10,92105,92105.0,"4271 Myrtle Avenue, San Diego, CA, 92105"
37683380114462,Health Sciences High and Middle College,"3910 University Avenue, Suite 100","3910 University Ave., Ste. 100",San Diego,92105-7302,CA,HS,C,32.749745,-117.11047,2020-08-13,92105,92105.0,"3910 University Avenue, Suite 100, San Diego, CA, 92105"
37683380116939,Innovation Middle,5095 Arvinels Avenue,5095 Arvinels Ave.,San Diego,92117-2303,CA,INTMIDJR,N,32.838063,-117.17514,2020-08-13,92117,92117.0,"5095 Arvinels Avenue, San Diego, CA, 92117"
37683380117325,Millennial Tech Middle,1110 Carolina Lane,1110 Carolina Ln.,San Diego,92102-3713,CA,INTMIDJR,N,32.716935,-117.08861,2020-02-13,92102,92102.0,"1110 Carolina Lane, San Diego, CA, 92102"
37683380118083,Innovations Academy,5454 Ruffin Road,5454 Ruffin Rd.,San Diego,92123-1313,CA,ELEM,N,32.834194,-117.1273,2020-08-13,92123,92123.0,"5454 Ruffin Road, San Diego, CA, 92123"
37683380118315,East Village Middle College High,1405 Park Boulevard,1405 Park Blvd.,San Diego,92101-4717,CA,HS,C,32.720003,-117.15317,2020-08-13,92101,92101.0,"1405 Park Boulevard, San Diego, CA, 92101"
37683380118851,King-Chavez Community High,201 A Street,201 A St.,San Diego,92101-4003,CA,HS,C,32.718821,-117.16264,2020-08-13,92101,92101.0,"201 A Street, San Diego, CA, 92101"
37683380119610,Gompers Preparatory Academy,1005 47th Street,1005 47th St.,San Diego,92102-3626,CA,ELEMHIGH,C,32.716111,-117.09357,2020-08-13,92102,92102.0,"1005 47th Street, San Diego, CA, 92102"
37683380120410,iHigh Virtual Academy,3939 Conde Street,3939 Conde St.,San Diego,92110-3012,CA,HS,V,32.751221,-117.19481,2020-08-13,92110,92110.0,"3939 Conde Street, San Diego, CA, 92110"
37683380121681,San Diego Global Vision Academy,3430 School Street,3430 School St.,San Diego,92116-3423,CA,ELEM,N,32.762372,-117.1191,2020-08-13,92116,92116.0,"3430 School Street, San Diego, CA, 92116"
37683380122788,School for Entrepreneurship and Technology,3540 Aero Court,3540 Aero Ct.,San Diego,92123-1711,CA,HS,C,32.807105,-117.1485,2020-08-13,92123,92123.0,"3540 Aero Court, San Diego, CA, 92123"
37683380123778,Old Town Academy K-8 Charter,2120 San Diego Avenue,2120 San Diego Ave.,San Diego,92110-2901,CA,ELEM,N,32.746573,-117.18925,2020-08-13,92110,92110.0,"2120 San Diego Avenue, San Diego, CA, 92110"
37683380124115,Knox Middle,1098 South 49th Street,1098 South 49th St.,San Diego,92113-3599,CA,INTMIDJR,N,32.695466,-117.08946,2020-08-13,92113,92113.0,"1098 South 49th Street, San Diego, CA, 92113"
37683380124347,City Heights Preparatory Charter,4260 54th Street,4260 54th St.,San Diego,92115-6009,CA,ELEMHIGH,N,32.753973,-117.07982,2020-08-13,92115,92115.0,"4260 54th Street, San Diego, CA, 92115"
37683380126730,Kavod Charter,6991 Balboa Avenue,6991 Balboa Ave.,San Diego,92111-3447,CA,ELEM,N,32.819772,-117.16794,2020-06-09,92111,92111.0,"6991 Balboa Avenue, San Diego, CA, 92111"
37683380126938,Home & Hosp/Transition Support,"4100 Normal Street, Annex 14","4100 Normal St., Annex 14",San Diego,92103,CA,ELEMHIGH,N,32.715329,-117.15725,2020-08-13,92103,92103.0,"4100 Normal Street, Annex 14, San Diego, CA, 92103"
37683380127647,e3 Civic High,"395 11th Avenue, 6th Floor","395 11th Ave., 6th Fl.",San Diego,92101,CA,HS,C,32.709215,-117.15465,2020-08-13,92101,92101.0,"395 11th Avenue, 6th Floor, San Diego, CA, 92101"
37683380129387,Empower Language Academy,6402 Linda Vista Road,6402 Linda Vista Rd.,San Diego,92111-6013,CA,ELEM,N,32.772382,-117.17922,2020-09-10,92111,92111.0,"6402 Linda Vista Road, San Diego, CA, 92111"
37683380129395,Elevate Charter,2285 Murray Ridge Road,2285 Murray Ridge Rd.,San Diego,92123-3934,CA,ELEM,N,32.786288,-117.14434,2020-08-13,92123,92123.0,"2285 Murray Ridge Road, San Diego, CA, 92123"
37683380131565,High Tech Elementary,2150 Cushing Road,2150 Cushing Rd.,San Diego,92106-6189,CA,ELEM,N,32.731713,-117.21737,2020-08-24,92106,92106.0,"2150 Cushing Road, San Diego, CA, 92106"
37683380131979,Ingenuity Charter,6130 Skyline Drive,6130 Skyline Dr.,San Diego,92114-5620,CA,ELEMHIGH,V,32.70204,-117.06464,2020-08-11,92114,92114.0,"6130 Skyline Drive, San Diego, CA, 92114"
37683380132316,Jonas Salk Elementary,7825 Flanders Drive,7825 Flanders Dr.,San Diego,92126-3449,CA,ELEM,N,32.906344,-117.15512,2020-08-13,92126,92126.0,"7825 Flanders Drive, San Diego, CA, 92126"
37683380135913,Urban Discovery Academy Charter,840 14th Street,840 14th St.,San Diego,92101-6608,CA,ELEMHIGH,N,32.714193,-117.15224,2020-07-14,92101,92101.0,"840 14th Street, San Diego, CA, 92101"
37683380136663,America's Finest Charter,730 45th Street,730 45th St.,San Diego,92102-3619,CA,ELEMHIGH,N,32.712836,-117.09808,2020-08-13,92102,92102.0,"730 45th Street, San Diego, CA, 92102"
37683380137802,National University Academy 1001 STEAM,3678 Aero Court,3678 Aero Ct.,San Diego,92123-1788,CA,ELEMHIGH,V,32.808972,-117.14885,2019-03-27,92123,92123.0,"3678 Aero Court, San Diego, CA, 92123"
37683380140319,Logan Memorial Educational Campus,2875 Ocean View Blvd,2875 Ocean View Blvd,San Diego,92113-1334,CA,UG,N,32.700754,-117.13259,2020-08-25,92113,92113.0,"2875 Ocean View Blvd, San Diego, CA, 92113"
37683380140384,Mountain View,3550 Logan Avenue,3550 Logan Ave.,San Diego,92113-2712,CA,ELEM,N,32.69745,-117.11746,2020-09-10,92113,92113.0,"3550 Logan Avenue, San Diego, CA, 92113"
37683383730116,John Muir Language Academy,4431 Mount Herbert Avenue,4431 Mt. Herbert Ave.,San Diego,92117-4728,CA,ELEM,C,32.823298,-117.19419,2019-10-03,92117,92117.0,"4431 Mount Herbert Avenue, San Diego, CA, 92117"
37683383730173,Serra High,5156 Santo Road,5156 Santo Rd.,San Diego,92124-2037,CA,HS,C,32.825282,-117.10407,2020-08-13,92124,92124.0,"5156 Santo Road, San Diego, CA, 92124"
37683383730181,Mira Mesa High,10510 Marauder Way,10510 Marauder Way,San Diego,92126-3275,CA,HS,N,32.910904,-117.14037,2020-08-13,92126,92126.0,"10510 Marauder Way, San Diego, CA, 92126"
37683383730231,Twain High,6402 Linda Vista Road,6402 Linda Vista Rd.,San Diego,92111-7320,CA,HS,C,32.771471,-117.17933,2020-08-13,92111,92111.0,"6402 Linda Vista Road, San Diego, CA, 92111"
37683383730280,San Diego Adult,4777 Imperial Avenue Room 407,4777 Imperial Ave. Rm. 407,San Diego,92113,CA,A,F,32.703991,-117.09202,2020-05-15,92113,92113.0,"4777 Imperial Avenue Room 407, San Diego, CA, 92113"
37683383730314,University City High,6949 Genesee Avenue,6949 Genesee Ave.,San Diego,92122-2455,CA,HS,C,32.861197,-117.20954,2020-08-13,92122,92122.0,"6949 Genesee Avenue, San Diego, CA, 92122"
37683383730363,Whittier K-12,3401 Clairemont Drive,3401 Clairemont Dr.,San Diego,92117-5938,CA,ELEMHIGH,C,32.803799,-117.19929,2020-09-10,92117,92117.0,"3401 Clairemont Drive, San Diego, CA, 92117"
37683383730371,San Diego SCPA,2425 Dusk Drive,2425 Dusk Dr.,San Diego,92139-2412,CA,ELEMHIGH,C,32.679265,-117.04953,2020-08-13,92139,92139.0,"2425 Dusk Drive, San Diego, CA, 92139"
37683383730751,Mt. Everest Academy,4350 Mount Everest Boulevard,4350 Mt. Everest Blvd.,San Diego,92117-4847,CA,ELEMHIGH,V,32.820017,-117.1861,2020-08-13,92117,92117.0,"4350 Mount Everest Boulevard, San Diego, CA, 92117"
37683383730884,Scripps Ranch High,10410 Falcon Way,10410 Falcon Way,San Diego,92131-1126,CA,HS,C,32.908719,-117.11199,2020-09-10,92131,92131.0,"10410 Falcon Way, San Diego, CA, 92131"
37683383730959,Charter School of San Diego,10170 Huennekens Street,10170 Huennekens St.,San Diego,92121-2964,CA,ELEMHIGH,N,32.902951,-117.18379,2020-08-24,92121,92121.0,"10170 Huennekens Street, San Diego, CA, 92121"
37683383731056,TRACE,2375 Congress Street Suite 4,2375 Congress St. Ste. 4,San Diego,92110-2818,CA,HS,N,32.750337,-117.19342,2020-08-13,92110,92110.0,"2375 Congress Street Suite 4, San Diego, CA, 92110"
37683383731130,ALBA,4041 Oregon Street,4041 Oregon St.,San Diego,92104-1706,CA,HS,C,32.751186,-117.13509,2020-08-13,92104,92104.0,"4041 Oregon Street, San Diego, CA, 92104"
37683383731189,Preuss School UCSD,9500 Gilman Drive,9500 Gilman Dr.,La Jolla,92093-0536,CA,ELEMHIGH,N,32.875469,-117.23912,2020-09-02,92093,92093.0,"9500 Gilman Drive, La Jolla, CA, 92093"
37683383731213,Clairemont High,4150 Ute Drive,4150 Ute Dr.,San Diego,92117-5853,CA,HS,C,32.807111,-117.20332,2020-08-13,92117,92117.0,"4150 Ute Drive, San Diego, CA, 92117"
37683383731247,High Tech High,2861 Womble Road,2861 Womble Rd.,San Diego,92106-6025,CA,HS,N,32.73404,-117.21514,2020-08-13,92106,92106.0,"2861 Womble Road, San Diego, CA, 92106"
37683383731395,Audeo Charter,10170 Huennekens Street,10170 Huennekens St.,San Diego,92121-2964,CA,ELEMHIGH,N,32.902951,-117.18379,2020-08-13,92121,92121.0,"10170 Huennekens Street, San Diego, CA, 92121"
37683383731551,Creative Performing and Media Arts,5050 Conrad Avenue,5050 Conrad Ave.,San Diego,92117-1401,CA,INTMIDJR,N,32.835962,-117.182,2020-08-13,92117,92117.0,"5050 Conrad Avenue, San Diego, CA, 92117"
37683383732781,Henry High,6702 Wandermere Drive,6702 Wandermere Dr.,San Diego,92120-3250,CA,HS,C,32.796333,-117.05148,2020-09-10,92120,92120.0,"6702 Wandermere Drive, San Diego, CA, 92120"
37683383732997,Hoover High,4474 El Cajon Boulevard,4474 El Cajon Blvd.,San Diego,92115-4312,CA,HS,C,32.755352,-117.09761,2020-08-13,92115,92115.0,"4474 El Cajon Boulevard, San Diego, CA, 92115"
37683383733508,La Jolla High,750 Nautilus Street,750 Nautilus St.,La Jolla,92037-6103,CA,HS,C,32.832726,-117.27269,2020-08-13,92037,92037.0,"750 Nautilus Street, La Jolla, CA, 92037"
37683383733698,Madison High,4833 Doliva Drive,4833 Doliva Dr.,San Diego,92117-3211,CA,HS,C,32.831046,-117.17568,2020-08-13,92117,92117.0,"4833 Doliva Drive, San Diego, CA, 92117"
37683383734431,Mission Bay High,2475 Grand Avenue,2475 Grand Ave.,San Diego,92109-4825,CA,HS,C,32.801298,-117.22441,2020-08-13,92109,92109.0,"2475 Grand Avenue, San Diego, CA, 92109"
37683383734654,Morse High,6905 Skyline Drive,6905 Skyline Dr.,San Diego,92114-5928,CA,HS,C,32.702602,-117.04876,2020-08-13,92114,92114.0,"6905 Skyline Drive, San Diego, CA, 92114"
37683383735750,Point Loma High,2335 Chatsworth Boulevard,2335 Chatsworth Blvd.,San Diego,92106-1646,CA,HS,C,32.740362,-117.22662,2020-09-10,92106,92106.0,"2335 Chatsworth Boulevard, San Diego, CA, 92106"
37683383737962,Garfield High,1255 16th Street,1255 16th St.,San Diego,92101-4759,CA,HS,C,32.718735,-117.14953,2020-08-13,92101,92101.0,"1255 16th Street, San Diego, CA, 92101"
37683386039101,Adams Elementary,4672 35th Street,4672 35th St.,San Diego,92116-3536,CA,ELEM,N,32.76156,-117.11786,2020-09-10,92116,92116.0,"4672 35th Street, San Diego, CA, 92116"
37683386039119,Alcott Elementary,4680 Hidalgo Avenue,4680 Hidalgo Ave.,San Diego,92117-2503,CA,ELEM,N,32.832311,-117.22046,2020-08-13,92117,92117.0,"4680 Hidalgo Avenue, San Diego, CA, 92117"
37683386039135,Angier Elementary,8450 Hurlbut Street,8450 Hurlbut St.,San Diego,92123-2013,CA,ELEM,N,32.804911,-117.14534,2020-08-13,92123,92123.0,"8450 Hurlbut Street, San Diego, CA, 92123"
37683386039143,Audubon K-8,8111 San Vicente,8111 San Vicente,San Diego,92114-4836,CA,ELEM,N,32.71121,-117.03008,2020-07-02,92114,92114.0,"8111 San Vicente, San Diego, CA, 92114"
37683386039150,Baker Elementary,4041 T Street,4041 T St.,San Diego,92113-1808,CA,ELEM,N,32.698826,-117.10711,2020-08-13,92113,92113.0,"4041 T Street, San Diego, CA, 92113"
37683386039168,Balboa Elementary,1844 South 40th Street,1844 South 40th St.,San Diego,92113-4017,CA,ELEM,N,32.687014,-117.108,2020-07-02,92113,92113.0,"1844 South 40th Street, San Diego, CA, 92113"
37683386039184,Barnard Elementary,2445 Fogg Street,2445 Fogg St.,San Diego,92109-4855,CA,ELEM,N,32.802554,-117.2251,2020-09-10,92109,92109.0,"2445 Fogg Street, San Diego, CA, 92109"
37683386039200,Bay Park Elementary,2433 Denver Street,2433 Denver St.,San Diego,92110-3338,CA,ELEM,N,32.786443,-117.20399,2020-08-13,92110,92110.0,"2433 Denver Street, San Diego, CA, 92110"
37683386039242,Bird Rock Elementary,5371 La Jolla Hermosa Avenue,5371 La Jolla Hermosa Ave.,La Jolla,92037-8016,CA,ELEM,N,32.811037,-117.26501,2020-08-13,92037,92037.0,"5371 La Jolla Hermosa Avenue, La Jolla, CA, 92037"
37683386039259,Birney Elementary,4345 Campus Avenue,4345 Campus Ave.,San Diego,92103-2406,CA,ELEM,N,32.755275,-117.14875,2020-08-13,92103,92103.0,"4345 Campus Avenue, San Diego, CA, 92103"
37683386039267,Boone Elementary,7330 Brookhaven Road,7330 Brookhaven Rd.,San Diego,92114-7115,CA,ELEM,N,32.694651,-117.0364,2019-11-14,92114,92114.0,"7330 Brookhaven Road, San Diego, CA, 92114"
37683386039283,Burbank Elementary,2146 Julian Avenue,2146 Julian Ave.,San Diego,92113-1237,CA,ELEM,N,32.70044,-117.13891,2020-07-02,92113,92113.0,"2146 Julian Avenue, San Diego, CA, 92113"
37683386039291,Cabrillo Elementary,3120 Talbot Street,3120 Talbot St.,San Diego,92106-2447,CA,ELEM,N,32.720377,-117.23364,2020-09-10,92106,92106.0,"3120 Talbot Street, San Diego, CA, 92106"
37683386039309,Cadman Elementary,4370 Kamloop Avenue,4370 Kamloop Ave.,San Diego,92117-4543,CA,ELEM,N,32.822127,-117.21453,2020-08-13,92117,92117.0,"4370 Kamloop Avenue, San Diego, CA, 92117"
37683386039341,Carson Elementary,6905 Kramer Street,6905 Kramer St.,San Diego,92111-7021,CA,ELEM,N,32.776942,-117.17104,2020-07-02,92111,92111.0,"6905 Kramer Street, San Diego, CA, 92111"
37683386039358,Carver Elementary,3251 Juanita Street,3251 Juanita St.,San Diego,92105-3807,CA,ELEM,N,32.739196,-117.07105,2020-08-13,92105,92105.0,"3251 Juanita Street, San Diego, CA, 92105"
37683386039366,Central Elementary,4063 Polk Avenue,4063 Polk Ave.,San Diego,92105-1436,CA,ELEM,N,32.751484,-117.10716,2019-02-13,92105,92105.0,"4063 Polk Avenue, San Diego, CA, 92105"
37683386039374,Chesterton Elementary,7335 Wheatley Street,7335 Wheatley St.,San Diego,92111-5824,CA,ELEM,N,32.794045,-117.16209,2020-08-13,92111,92111.0,"7335 Wheatley Street, San Diego, CA, 92111"
37683386039382,Chollas/Mead Elementary,401 North 45th Street,401 North 45th St.,San Diego,92102-4732,CA,ELEM,N,32.710528,-117.09784,2020-08-13,92102,92102.0,"401 North 45th Street, San Diego, CA, 92102"
37683386039390,Clay Elementary,6506 Solita Avenue,6506 Solita Ave.,San Diego,92115-4244,CA,ELEM,N,32.763509,-117.05796,2020-08-13,92115,92115.0,"6506 Solita Avenue, San Diego, CA, 92115"
37683386039424,Crown Point Elementary,4033 Ingraham Street,4033 Ingraham St.,San Diego,92109-5946,CA,ELEM,N,32.793243,-117.23889,2020-08-13,92109,92109.0,"4033 Ingraham Street, San Diego, CA, 92109"
37683386039432,Cubberley Elementary,3201 Marathon Drive,3201 Marathon Dr.,San Diego,92123-2638,CA,ELEM,N,32.801667,-117.12714,2020-08-13,92123,92123.0,"3201 Marathon Drive, San Diego, CA, 92123"
37683386039440,Curie Elementary,4080 Governor Drive,4080 Governor Dr.,San Diego,92122-2523,CA,ELEM,N,32.854678,-117.20303,2020-08-13,92122,92122.0,"4080 Governor Drive, San Diego, CA, 92122"
37683386039457,Darnall Charter,6020 Hughes Street,6020 Hughes St.,San Diego,92115-6520,CA,ELEM,N,32.746606,-117.06676,2019-02-13,92115,92115.0,"6020 Hughes Street, San Diego, CA, 92115"
37683386039481,Dewey Elementary,3251 Rosecrans Street,3251 Rosecrans St.,San Diego,92110-4835,CA,ELEM,N,32.74754,-117.20804,2020-08-13,92110,92110.0,"3251 Rosecrans Street, San Diego, CA, 92110"
37683386039499,Edison Elementary,4077 35th Street,4077 35th St.,San Diego,92104-2291,CA,ELEM,N,32.751057,-117.11804,2020-09-10,92104,92104.0,"4077 35th Street, San Diego, CA, 92104"
37683386039507,Ralph Waldo Emerson Elementary,3510 Newton Avenue,3510 Newton Ave.,San Diego,92113-3118,CA,ELEM,N,32.695014,-117.11874,2020-08-20,92113,92113.0,"3510 Newton Avenue, San Diego, CA, 92113"
37683386039515,Encanto Elementary,822 65th Street,822 65th St.,San Diego,92114-2818,CA,ELEM,N,32.714909,-117.05804,2020-07-02,92114,92114.0,"822 65th Street, San Diego, CA, 92114"
37683386039523,Euclid Elementary,4166 Euclid Avenue,4166 Euclid Ave.,San Diego,92105-1910,CA,ELEM,N,32.752319,-117.09226,2020-08-13,92105,92105.0,"4166 Euclid Avenue, San Diego, CA, 92105"
37683386039556,Field Elementary,4375 Bannock Avenue,4375 Bannock Ave.,San Diego,92117-2810,CA,ELEM,N,32.832971,-117.19927,2020-07-02,92117,92117.0,"4375 Bannock Avenue, San Diego, CA, 92117"
37683386039564,Fletcher Elementary,7666 Bobolink Way,7666 Bobolink Way,San Diego,92123-3701,CA,ELEM,N,32.785778,-117.1585,2020-08-13,92123,92123.0,"7666 Bobolink Way, San Diego, CA, 92123"
37683386039572,Florence Elementary,3914 First Avenue,3914 First Ave.,San Diego,92103-3089,CA,ELEM,N,32.748814,-117.16391,2020-08-13,92103,92103.0,"3914 First Avenue, San Diego, CA, 92103"
37683386039598,Foster Elementary,6550 51st Street,6550 51st St.,San Diego,92120-2794,CA,ELEM,N,32.791734,-117.0841,2020-08-13,92120,92120.0,"6550 51st Street, San Diego, CA, 92120"
37683386039606,Franklin Elementary,4481 Copeland Avenue,4481 Copeland Ave.,San Diego,92116-4802,CA,ELEM,N,32.75806,-117.104,2020-08-13,92116,92116.0,"4481 Copeland Avenue, San Diego, CA, 92116"
37683386039614,Freese Elementary,8140 Greenlawn Drive,8140 Greenlawn Dr.,San Diego,92114-7309,CA,ELEM,N,32.703611,-117.02741,2020-08-13,92114,92114.0,"8140 Greenlawn Drive, San Diego, CA, 92114"
37683386039630,Fulton K-8,7055 Skyline Drive,7055 Skyline Dr.,San Diego,92114-5930,CA,ELEM,N,32.702667,-117.04741,2020-08-13,92114,92114.0,"7055 Skyline Drive, San Diego, CA, 92114"
37683386039648,Gage Elementary,6811 Bisby Lake Avenue,6811 Bisby Lake Ave.,San Diego,92119-1918,CA,ELEM,N,32.806947,-117.01474,2020-02-04,92119,92119.0,"6811 Bisby Lake Avenue, San Diego, CA, 92119"
37683386039655,Garfield Elementary,4487 Oregon Street,4487 Oregon St.,San Diego,92116-3018,CA,ELEM,N,32.7583,-117.13512,2020-08-13,92116,92116.0,"4487 Oregon Street, San Diego, CA, 92116"
37683386039671,Grant K-8,1425 Washington Place,1425 Washington Pl.,San Diego,92103-1792,CA,ELEM,N,32.749893,-117.17562,2020-09-10,92103,92103.0,"1425 Washington Place, San Diego, CA, 92103"
37683386039697,Green Elementary,7030 Wandermere Place,7030 Wandermere Pl.,San Diego,92119-2969,CA,ELEM,N,32.796445,-117.04495,2020-08-13,92119,92119.0,"7030 Wandermere Place, San Diego, CA, 92119"
37683386039705,Hamilton Elementary,2807 Fairmount Avenue,2807 Fairmount Ave.,San Diego,92105-4635,CA,ELEM,N,32.736135,-117.10096,2020-07-02,92105,92105.0,"2807 Fairmount Avenue, San Diego, CA, 92105"
37683386039713,Hardy Elementary,5420 Montezuma Road,5420 Montezuma Rd.,San Diego,92115-1329,CA,ELEM,N,32.771216,-117.07974,2020-08-13,92115,92115.0,"5420 Montezuma Road, San Diego, CA, 92115"
37683386039721,Hawthorne Elementary,4750 Lehrer Drive,4750 Lehrer Dr.,San Diego,92117-1358,CA,ELEM,N,32.838493,-117.18864,2020-08-13,92117,92117.0,"4750 Lehrer Drive, San Diego, CA, 92117"
37683386039739,Hearst Elementary,6230 Del Cerro Boulevard,6230 Del Cerro Blvd.,San Diego,92120-4604,CA,ELEM,N,32.782889,-117.06432,2020-08-13,92120,92120.0,"6230 Del Cerro Boulevard, San Diego, CA, 92120"
37683386039747,Holmes Elementary,4902 Mount Ararat Drive,4902 Mt. Ararat Dr.,San Diego,92111-3808,CA,ELEM,N,32.810047,-117.18916,2020-08-13,92111,92111.0,"4902 Mount Ararat Drive, San Diego, CA, 92111"
37683386039754,Horton Elementary,5050 Guymon Street,5050 Guymon St.,San Diego,92102-3734,CA,ELEM,N,32.712278,-117.08621,2020-09-10,92102,92102.0,"5050 Guymon Street, San Diego, CA, 92102"
37683386039762,Fay Elementary,4080 52nd Street,4080 52nd St.,San Diego,92105-2209,CA,ELEM,N,32.750942,-117.08361,2020-07-02,92105,92105.0,"4080 52nd Street, San Diego, CA, 92105"
37683386039770,Jefferson Elementary,3770 Utah Street,3770 Utah St.,San Diego,92104-3532,CA,ELEM,N,32.74722,-117.13284,2020-08-13,92104,92104.0,"3770 Utah Street, San Diego, CA, 92104"
37683386039788,Johnson Elementary,1355 Kelton Road,1355 Kelton Rd.,San Diego,92114-1229,CA,ELEM,N,32.719126,-117.07514,2020-08-13,92114,92114.0,"1355 Kelton Road, San Diego, CA, 92114"
37683386039796,Jones Elementary,2751 Greyling Drive,2751 Greyling Dr.,San Diego,92123-2836,CA,ELEM,N,32.796255,-117.14242,2020-08-13,92123,92123.0,"2751 Greyling Drive, San Diego, CA, 92123"
37683386039804,Juarez Elementary,2633 Melbourne Drive,2633 Melbourne Dr.,San Diego,92123-3535,CA,ELEM,N,32.792242,-117.12589,2020-02-03,92123,92123.0,"2633 Melbourne Drive, San Diego, CA, 92123"
37683386039812,Keiller Leadership Academy,7270 Lisbon Street,7270 Lisbon St.,San Diego,92114-3007,CA,ELEM,N,32.712076,-117.04241,2020-08-13,92114,92114.0,"7270 Lisbon Street, San Diego, CA, 92114"
37683386039846,La Jolla Elementary,1111 Marine Street,1111 Marine St.,La Jolla,92037-5131,CA,ELEM,N,32.839513,-117.27086,2020-08-13,92037,92037.0,"1111 Marine Street, La Jolla, CA, 92037"
37683386039853,Lafayette Elementary,6125 Printwood Way,6125 Printwood Way,San Diego,92117-3346,CA,ELEM,N,32.827552,-117.16914,2020-08-13,92117,92117.0,"6125 Printwood Way, San Diego, CA, 92117"
37683386039861,Pacific View Leadership Elementary,6196 Childs Avenue,6196 Childs Ave.,San Diego,92139-3612,CA,ELEM,N,32.670197,-117.0571,2020-08-13,92139,92139.0,"6196 Childs Avenue, San Diego, CA, 92139"
37683386039879,Linda Vista Elementary,2772 Ulric Street,2772 Ulric St.,San Diego,92111-5530,CA,ELEM,N,32.793449,-117.17314,2020-07-02,92111,92111.0,"2772 Ulric Street, San Diego, CA, 92111"
37683386039887,Lindbergh/Schweitzer Elementary,4133 Mount Albertine Avenue,4133 Mt. Albertine Ave.,San Diego,92111-3128,CA,ELEM,N,32.819448,-117.17152,2020-08-13,92111,92111.0,"4133 Mount Albertine Avenue, San Diego, CA, 92111"
37683386039903,Loma Portal Elementary,3341 Browning Street,3341 Browning St.,San Diego,92106-1599,CA,ELEM,N,32.740347,-117.2211,2020-08-13,92106,92106.0,"3341 Browning Street, San Diego, CA, 92106"
37683386039911,Longfellow K-8,5055 July Street,5055 July St.,San Diego,92110-1114,CA,ELEM,N,32.783766,-117.18851,2020-09-10,92110,92110.0,"5055 July Street, San Diego, CA, 92110"
37683386039929,Perkins K-8,1770 Main Street,1770 Main St.,San Diego,92113-2104,CA,ELEM,N,32.700764,-117.14913,2020-08-13,92113,92113.0,"1770 Main Street, San Diego, CA, 92113"
37683386039952,Marshall Elementary,3550 Altadena Avenue,3550 Altadena Ave.,San Diego,92105-3698,CA,ELEM,N,32.742345,-117.08638,2020-09-10,92105,92105.0,"3550 Altadena Avenue, San Diego, CA, 92105"
37683386039960,Marvin Elementary,5720 Brunswick Avenue,5720 Brunswick Ave.,San Diego,92120-1905,CA,ELEM,N,32.796157,-117.06913,2020-08-13,92120,92120.0,"5720 Brunswick Avenue, San Diego, CA, 92120"
37683386039978,McKinley Elementary,3045 Felton Street,3045 Felton St.,San Diego,92104-5218,CA,ELEM,N,32.736627,-117.12208,2020-08-13,92104,92104.0,"3045 Felton Street, San Diego, CA, 92104"
37683386040000,Language Academy,4961 64th Street,4961 64th St.,San Diego,92115-2602,CA,ELEM,N,32.768355,-117.06227,2020-02-03,92115,92115.0,"4961 64th Street, San Diego, CA, 92115"
37683386040018,Harriet Tubman Village Charter,6880 Mohawk Street,6880 Mohawk St.,San Diego,92115-1728,CA,ELEM,N,32.769775,-117.04975,2019-02-13,92115,92115.0,"6880 Mohawk Street, San Diego, CA, 92115"
37683386040026,Oak Park Elementary,2606 54th Street,2606 54th St.,San Diego,92105-4999,CA,ELEM,N,32.732601,-117.0797,2020-08-13,92105,92105.0,"2606 54th Street, San Diego, CA, 92105"
37683386040034,Ocean Beach Elementary,4741 Santa Monica Avenue,4741 Santa Monica Ave.,San Diego,92107-2297,CA,ELEM,N,32.745144,-117.24615,2020-08-13,92107,92107.0,"4741 Santa Monica Avenue, San Diego, CA, 92107"
37683386040042,Pacific Beach Elementary,1234 Tourmaline Street,1234 Tourmaline St.,San Diego,92109-1856,CA,ELEM,N,32.808661,-117.25041,2020-08-13,92109,92109.0,"1234 Tourmaline Street, San Diego, CA, 92109"
37683386040059,Paradise Hills Elementary,5816 Alleghany Street,5816 Alleghany St.,San Diego,92139-1799,CA,ELEM,N,32.679597,-117.06622,2020-08-13,92139,92139.0,"5816 Alleghany Street, San Diego, CA, 92139"
37683386040067,Perry Elementary,6290 Oriskany Road,6290 Oriskany Rd.,San Diego,92139-1142,CA,ELEM,N,32.684978,-117.05864,2020-08-13,92139,92139.0,"6290 Oriskany Road, San Diego, CA, 92139"
37683386040083,Riley/New Dawn,5650 Mount Ackerly Drive,5650 Mt. Ackerly Dr.,San Diego,92111-4016,CA,ELEMHIGH,N,32.809086,-117.17936,2020-08-13,92111,92111.0,"5650 Mount Ackerly Drive, San Diego, CA, 92111"
37683386040091,Rolando Park Elementary,6620 Marlowe Drive,6620 Marlowe Dr.,San Diego,92115-6740,CA,ELEM,N,32.747808,-117.05444,2020-08-13,92115,92115.0,"6620 Marlowe Drive, San Diego, CA, 92115"
37683386040109,Ross Elementary,7470 Bagdad Street,7470 Bagdad St.,San Diego,92111-4317,CA,ELEM,N,32.811323,-117.16124,2020-08-13,92111,92111.0,"7470 Bagdad Street, San Diego, CA, 92111"
37683386040117,Rowan Elementary,1755 Rowan Street,1755 Rowan St.,San Diego,92105-5631,CA,ELEM,N,32.723626,-117.11303,2020-09-10,92105,92105.0,"1755 Rowan Street, San Diego, CA, 92105"
37683386040133,Sequoia Elementary,4690 Limerick Avenue,4690 Limerick Ave.,San Diego,92117-3220,CA,ELEM,N,32.828397,-117.17864,2020-08-13,92117,92117.0,"4690 Limerick Avenue, San Diego, CA, 92117"
37683386040141,Sessions Elementary,2150 Beryl Street,2150 Beryl St.,San Diego,92109-3617,CA,ELEM,N,32.8087,-117.23201,2020-09-10,92109,92109.0,"2150 Beryl Street, San Diego, CA, 92109"
37683386040158,Sherman Elementary,301 22nd Street,301 22nd St.,San Diego,92102-2918,CA,ELEM,N,32.708405,-117.1439,2020-07-02,92102,92102.0,"301 22nd Street, San Diego, CA, 92102"
37683386040166,Silver Gate Elementary,1499 Venice Street,1499 Venice St.,San Diego,92107-3699,CA,ELEM,N,32.733235,-117.24415,2020-08-13,92107,92107.0,"1499 Venice Street, San Diego, CA, 92107"
37683386040174,Spreckels Elementary,6033 Stadium Street,6033 Stadium St.,San Diego,92122-3399,CA,ELEM,N,32.849998,-117.21334,2020-08-13,92122,92122.0,"6033 Stadium Street, San Diego, CA, 92122"
37683386040190,King-Chavez Primary Academy,415 31st Street,415 31st St.,San Diego,92102-4236,CA,ELEM,N,32.709848,-117.12742,2020-08-13,92102,92102.0,"415 31st Street, San Diego, CA, 92102"
37683386040208,Sunset View Elementary,4365 Hill Street,4365 Hill St.,San Diego,92107-4199,CA,ELEM,N,32.724692,-117.25049,2020-09-10,92107,92107.0,"4365 Hill Street, San Diego, CA, 92107"
37683386040224,Toler Elementary,3350 Baker Street,3350 Baker St.,San Diego,92117-6017,CA,ELEM,N,32.80064,-117.20929,2020-08-13,92117,92117.0,"3350 Baker Street, San Diego, CA, 92117"
37683386040232,Torrey Pines Elementary,8350 Cliffridge Avenue,8350 Cliffridge Ave.,La Jolla,92037-2106,CA,ELEM,N,32.858621,-117.24378,2020-08-13,92037,92037.0,"8350 Cliffridge Avenue, La Jolla, CA, 92037"
37683386040257,Valencia Park Elementary,5880 Skyline Drive,5880 Skyline Dr.,San Diego,92114-5599,CA,ELEM,N,32.701466,-117.07178,2020-08-13,92114,92114.0,"5880 Skyline Drive, San Diego, CA, 92114"
37683386040265,Washington Elementary,1789 State Street,1789 State St.,San Diego,92101-2598,CA,ELEM,N,32.724215,-117.1667,2020-08-13,92101,92101.0,"1789 State Street, San Diego, CA, 92101"
37683386040273,Webster Elementary,4801 Elm Street,4801 Elm St.,San Diego,92102-1354,CA,ELEM,N,32.724157,-117.09239,2020-08-13,92102,92102.0,"4801 Elm Street, San Diego, CA, 92102"
37683386040281,Wegeforth Elementary,3443 Ediwhar Avenue,3443 Ediwhar Ave.,San Diego,92123-2207,CA,ELEM,N,32.805607,-117.1365,2020-08-13,92123,92123.0,"3443 Ediwhar Avenue, San Diego, CA, 92123"
37683386040299,Benchley/Weinberger Elementary,6269 Twin Lake Drive,6269 Twin Lake Dr.,San Diego,92119-3051,CA,ELEM,N,32.794462,-117.03254,2020-08-13,92119,92119.0,"6269 Twin Lake Drive, San Diego, CA, 92119"
37683386040307,Whitman Elementary,4050 Appleton Street,4050 Appleton St.,San Diego,92117-1101,CA,ELEM,N,32.836074,-117.20321,2020-08-13,92117,92117.0,"4050 Appleton Street, San Diego, CA, 92117"
37683386059588,Bell Middle,620 Briarwood Road,620 Briarwood Rd.,San Diego,92139-1399,CA,INTMIDJR,N,32.688916,-117.03736,2019-02-13,92139,92139.0,"620 Briarwood Road, San Diego, CA, 92139"
37683386059596,Correia Middle,4302 Valeta Street,4302 Valeta St.,San Diego,92107-1510,CA,INTMIDJR,N,32.748723,-117.23133,2020-08-13,92107,92107.0,"4302 Valeta Street, San Diego, CA, 92107"
37683386059604,Dana,1775 Chatsworth Boulevard,1775 Chatsworth Blvd.,San Diego,92106-3709,CA,ELEM,N,32.73311,-117.23346,2020-08-13,92106,92106.0,"1775 Chatsworth Boulevard, San Diego, CA, 92106"
37683386059638,Lewis Middle,5170 Greenbrier Avenue,5170 Greenbrier Ave.,San Diego,92120-1220,CA,INTMIDJR,N,32.795877,-117.07977,2020-08-13,92120,92120.0,"5170 Greenbrier Avenue, San Diego, CA, 92120"
37683386059646,Mann Middle,4345 54th Street,4345 54th St.,San Diego,92115-5336,CA,INTMIDJR,N,32.75662,-117.0793,2020-08-13,92115,92115.0,"4345 54th Street, San Diego, CA, 92115"
37683386059653,Marston Middle,3799 Clairemont Drive,3799 Clairemont Dr.,San Diego,92117-5915,CA,INTMIDJR,N,32.808054,-117.20111,2020-08-13,92117,92117.0,"3799 Clairemont Drive, San Diego, CA, 92117"
37683386059679,Montgomery Middle,2470 Ulric Street,2470 Ulric St.,San Diego,92111-6099,CA,INTMIDJR,N,32.788093,-117.17162,2020-09-10,92111,92111.0,"2470 Ulric Street, San Diego, CA, 92111"
37683386059687,Muirlands Middle,1056 Nautilus Street,1056 Nautilus St.,La Jolla,92037-6299,CA,INTMIDJR,N,32.83213,-117.2697,2020-09-10,92037,92037.0,"1056 Nautilus Street, La Jolla, CA, 92037"
37683386059695,Pacific Beach Middle,4676 Ingraham Street,4676 Ingraham St.,San Diego,92109-3192,CA,INTMIDJR,N,32.802126,-117.24167,2020-02-03,92109,92109.0,"4676 Ingraham Street, San Diego, CA, 92109"
37683386059703,Roosevelt International Middle,3366 Park Boulevard,3366 Park Blvd.,San Diego,92103-5299,CA,INTMIDJR,N,32.740202,-117.14746,2020-09-10,92103,92103.0,"3366 Park Boulevard, San Diego, CA, 92103"
37683386059711,Taft Middle,9191 Gramercy Drive,9191 Gramercy Dr.,San Diego,92123-4015,CA,INTMIDJR,N,32.802346,-117.13113,2020-08-13,92123,92123.0,"9191 Gramercy Drive, San Diego, CA, 92123"
37683386061964,The O'Farrell Charter,6130 Skyline Drive,6130 Skyline Dr.,San Diego,92114-5620,CA,ELEMHIGH,C,32.701375,-117.06485,2020-08-13,92114,92114.0,"6130 Skyline Drive, San Diego, CA, 92114"
37683386061972,Pershing Middle,8204 San Carlos Drive,8204 San Carlos Dr.,San Diego,92119-2636,CA,INTMIDJR,N,32.800979,-117.02039,2020-08-13,92119,92119.0,"8204 San Carlos Drive, San Diego, CA, 92119"
37683386061980,Wilson Middle,3838 Orange Avenue,3838 Orange Ave.,San Diego,92105-1038,CA,INTMIDJR,N,32.753259,-117.11195,2019-02-13,92105,92105.0,"3838 Orange Avenue, San Diego, CA, 92105"
37683386069116,Miramar Ranch Elementary,10770 Red Cedar Drive,10770 Red Cedar Dr.,San Diego,92131-1204,CA,ELEM,N,32.910297,-117.09902,2020-08-13,92131,92131.0,"10770 Red Cedar Drive, San Diego, CA, 92131"
37683386071914,Mason Elementary,10340 San Ramon Drive,10340 San Ramon Dr.,San Diego,92126-3235,CA,ELEM,N,32.906112,-117.13948,2020-08-13,92126,92126.0,"10340 San Ramon Drive, San Diego, CA, 92126"
37683386077317,Penn Elementary,2797 Utica Drive,2797 Utica Dr.,San Diego,92139-3843,CA,ELEM,N,32.673067,-117.0471,2020-08-13,92139,92139.0,"2797 Utica Drive, San Diego, CA, 92139"
37683386089015,Ericson Elementary,11174 Westonhill Drive,11174 Westonhill Dr.,San Diego,92126-1943,CA,ELEM,N,32.927749,-117.13565,2020-08-13,92126,92126.0,"11174 Westonhill Drive, San Diego, CA, 92126"
37683386089023,Hickman Elementary,10850 Montongo Street,10850 Montongo St.,San Diego,92126-2629,CA,ELEM,N,32.914994,-117.15224,2020-08-13,92126,92126.0,"10850 Montongo Street, San Diego, CA, 92126"
37683386089049,Sandburg Elementary,11230 Avenida del Gato,11230 Avenida del Gato,San Diego,92126-1235,CA,ELEM,N,32.925833,-117.14979,2020-08-13,92126,92126.0,"11230 Avenida del Gato, San Diego, CA, 92126"
37683386089056,Tierrasanta Elementary,5450 La Cuenta Drive,5450 La Cuenta Dr.,San Diego,92124-1417,CA,ELEM,N,32.829402,-117.09678,2020-02-21,92124,92124.0,"5450 La Cuenta Drive, San Diego, CA, 92124"
37683386089064,Walker Elementary,9225 Hillery Drive,9225 Hillery Dr.,San Diego,92126-2908,CA,ELEM,N,32.912841,-117.12669,2020-08-13,92126,92126.0,"9225 Hillery Drive, San Diego, CA, 92126"
37683386093256,Miller Elementary,4343 Shields Street,4343 Shields St.,San Diego,92124-2933,CA,ELEM,N,32.818568,-117.10756,2020-09-10,92124,92124.0,"4343 Shields Street, San Diego, CA, 92124"
37683386096051,Hancock Elementary,3303 Taussig Street,3303 Taussig St.,San Diego,92124-3501,CA,ELEM,N,32.805301,-117.108,2020-08-13,92124,92124.0,"3303 Taussig Street, San Diego, CA, 92124"
37683386096598,Standley Middle,6298 Radcliffe Drive,6298 Radcliffe Dr.,San Diego,92122-3330,CA,INTMIDJR,N,32.852231,-117.20568,2020-08-13,92122,92122.0,"6298 Radcliffe Drive, San Diego, CA, 92122"
37683386096879,Dailard Elementary,6425 Cibola Road,6425 Cibola Rd.,San Diego,92120-2125,CA,ELEM,N,32.804463,-117.0539,2020-08-13,92120,92120.0,"6425 Cibola Road, San Diego, CA, 92120"
37683386097844,Wangenheim Middle,9230 Gold Coast Drive,9230 Gold Coast Dr.,San Diego,92126-3799,CA,INTMIDJR,N,32.905408,-117.12646,2020-08-13,92126,92126.0,"9230 Gold Coast Drive, San Diego, CA, 92126"
37683386099055,Doyle Elementary,3950 Berino Court,3950 Berino Ct.,San Diego,92122-1601,CA,ELEM,N,32.863694,-117.22184,2020-08-13,92122,92122.0,"3950 Berino Court, San Diego, CA, 92122"
37683386099063,Farb Middle,4880 La Cuenta Drive,4880 La Cuenta Dr.,San Diego,92124-3015,CA,INTMIDJR,N,32.819754,-117.09995,2020-08-13,92124,92124.0,"4880 La Cuenta Drive, San Diego, CA, 92124"
37683386099071,Jerabek Elementary,10050 Avenida Magnifica,10050 Avenida Magnifica,San Diego,92131-1426,CA,ELEM,N,32.908201,-117.08352,2020-08-13,92131,92131.0,"10050 Avenida Magnifica, San Diego, CA, 92131"
37683386099089,Vista Grande Elementary,5606 Antigua Boulevard,5606 Antigua Blvd.,San Diego,92124-1306,CA,ELEM,N,32.834267,-117.10709,2020-08-13,92124,92124.0,"5606 Antigua Boulevard, San Diego, CA, 92124"
37683386106173,Bethune K-8,6835 Benjamin Holt Road,6835 Benjamin Holt Rd.,San Diego,92114-7827,CA,ELEM,N,32.689764,-117.05013,2020-08-13,92114,92114.0,"6835 Benjamin Holt Road, San Diego, CA, 92114"
37683386106181,De Portola Middle,11010 Clairemont Mesa Boulevard,11010 Clairemont Mesa Blvd.,San Diego,92124-1507,CA,INTMIDJR,N,32.828049,-117.09202,2020-08-13,92124,92124.0,"11010 Clairemont Mesa Boulevard, San Diego, CA, 92124"
37683386106199,Zamorano Elementary,2655 Casey Street,2655 Casey St.,San Diego,92139-2989,CA,ELEM,N,32.680338,-117.03864,2020-08-13,92139,92139.0,"2655 Casey Street, San Diego, CA, 92139"
37683386107056,Challenger Middle,10810 Parkdale Avenue,10810 Parkdale Ave.,San Diego,92126-2599,CA,INTMIDJR,N,32.913729,-117.15613,2020-09-10,92126,92126.0,"10810 Parkdale Avenue, San Diego, CA, 92126"
37683386109599,Hage Elementary,9750 Galvin Avenue,9750 Galvin Ave.,San Diego,92126-4823,CA,ELEM,N,32.920514,-117.12094,2020-08-13,92126,92126.0,"9750 Galvin Avenue, San Diego, CA, 92126"
37683386112460,Kumeyaay Elementary,6475 Antigua Boulevard,6475 Antigua Blvd.,San Diego,92124-4031,CA,ELEM,N,32.836632,-117.09116,2020-08-13,92124,92124.0,"6475 Antigua Boulevard, San Diego, CA, 92124"
37683386112478,Nye Elementary,981 Valencia Parkway,981 Valencia Pkwy.,San Diego,92114-6574,CA,ELEM,N,32.696055,-117.07013,2020-08-13,92114,92114.0,"981 Valencia Parkway, San Diego, CA, 92114"
37683386112726,Dingeman Elementary,11840 Scripps Creek Drive,11840 Scripps Creek Dr.,San Diego,92131-3701,CA,ELEM,N,32.933134,-117.0907,2020-08-13,92131,92131.0,"11840 Scripps Creek Drive, San Diego, CA, 92131"
37683386113211,McGill School of Success,3025 Fir Street,3025 Fir St.,San Diego,92102-1123,CA,ELEM,N,32.725479,-117.1297,2020-01-27,92102,92102.0,"3025 Fir Street, San Diego, CA, 92102"
37683386114060,Clark Middle,4388 Thorn Street,4388 Thorn St.,San Diego,92105-4238,CA,INTMIDJR,N,32.740317,-117.10004,2019-02-13,92105,92105.0,"4388 Thorn Street, San Diego, CA, 92105"
37683386114292,Kimbrough Elementary,321 Hoitt Street,321 Hoitt St.,San Diego,92102-3132,CA,ELEM,N,32.708732,-117.13288,2020-07-02,92102,92102.0,"321 Hoitt Street, San Diego, CA, 92102"
37683386114300,Chavez Elementary,1404 South 40th Street,1404 South 40th St.,San Diego,92113-4037,CA,ELEM,N,32.691605,-117.10807,2020-07-02,92113,92113.0,"1404 South 40th Street, San Diego, CA, 92113"
37683386114375,Rosa Parks Elementary,4510 Landis Street,4510 Landis St.,San Diego,92105-2822,CA,ELEM,N,32.745833,-117.09748,2020-07-02,92105,92105.0,"4510 Landis Street, San Diego, CA, 92105"
37683386115331,Marshall Middle,9700 Avenue of Nations,9700 Avenue of Nations,San Diego,92131-2135,CA,INTMIDJR,N,32.896523,-117.10011,2020-08-13,92131,92131.0,"9700 Avenue of Nations, San Diego, CA, 92131"
37683386115570,Museum,211 Maple Street,211 Maple St.,San Diego,92103-6527,CA,ELEM,N,32.732423,-117.16514,2019-02-13,92103,92103.0,"211 Maple Street, San Diego, CA, 92103"
37683386117279,Holly Drive Leadership Academy,4801 Elm Street,4801 Elm St.,San Diego,92102-1354,CA,ELEM,N,32.724151,-117.09257,2020-08-13,92102,92102.0,"4801 Elm Street, San Diego, CA, 92102"
37683386117683,High Tech Elementary Explorer,2230 Truxtun Road 1st Floor,2230 Truxtun Rd. 1st Fl.,San Diego,92106-6128,CA,ELEM,N,32.734604,-117.21975,2020-08-13,92106,92106.0,"2230 Truxtun Road 1st Floor, San Diego, CA, 92106"
37683386119135,Scripps Elementary,11778 Cypress Canyon Road,11778 Cypress Canyon Rd.,San Diego,92131-3743,CA,ELEM,N,32.930673,-117.08174,2020-08-13,92131,92131.0,"11778 Cypress Canyon Road, San Diego, CA, 92131"
37683386119168,San Diego Cooperative Charter,7260 Linda Vista Road,7260 Linda Vista Rd.,San Diego,92111-6128,CA,ELEM,N,32.791139,-117.16638,2020-08-13,92111,92111.0,"7260 Linda Vista Road, San Diego, CA, 92111"
37683386119598,King-Chavez Academy of Excellence,2716 Marcy Avenue,2716 Marcy Ave.,San Diego,92113-2412,CA,ELEM,N,32.697962,-117.1358,2020-08-13,92113,92113.0,"2716 Marcy Avenue, San Diego, CA, 92113"
37683386120935,Albert Einstein Academy Charter Elementary,3035 Ash Street,3035 Ash St.,San Diego,92102-1718,CA,ELEM,N,32.720187,-117.12946,2019-02-13,92102,92102.0,"3035 Ash Street, San Diego, CA, 92102"
37683460106328,Canyon Crest Academy,5951 Village Center Loop Road,5951 Village Center Loop Rd.,San Diego,92130-2499,CA,HS,N,32.96024,-117.18835,2020-08-13,92130,92130.0,"5951 Village Center Loop Road, San Diego, CA, 92130"
37683460131649,Pacific Trails Middle,5975 Village Center Loop Road,5975 Village Center Loop Rd.,San Diego,92130-2499,CA,INTMIDJR,N,32.958864,-117.18624,2020-08-13,92130,92130.0,"5975 Village Center Loop Road, San Diego, CA, 92130"
37683463730033,Torrey Pines High,3710 Del Mar Heights Road,3710 Del Mar Heights Rd.,San Diego,92130-1316,CA,HS,N,32.956384,-117.22497,2020-08-13,92130,92130.0,"3710 Del Mar Heights Road, San Diego, CA, 92130"
37683463731007,La Costa Canyon High,1 Maverick Way,1 Maverick Way,Encinitas,92009,CA,HS,N,33.075076,-117.23236,2020-08-13,92009,92009.0,"1 Maverick Way, Encinitas, CA, 92009"
37683463737384,Sunset High (Continuation),684 Requeza Street,684 Requeza St.,Encinitas,92024-3703,CA,HS,N,33.043504,-117.27747,2019-02-13,92024,92024.0,"684 Requeza Street, Encinitas, CA, 92024"
37683463737418,San Dieguito HS Academy,800 Santa Fe Drive,800 Santa Fe Dr.,Encinitas,92024-3357,CA,HS,N,33.036329,-117.27501,2019-02-13,92024,92024.0,"800 Santa Fe Drive, Encinitas, CA, 92024"
37683466059737,Oak Crest Middle,675 Balour Drive,675 Balour Dr.,Encinitas,92024-3996,CA,INTMIDJR,N,33.042141,-117.26833,2020-08-13,92024,92024.0,"675 Balour Drive, Encinitas, CA, 92024"
37683466061998,Earl Warren Middle,155 Stevens Street,155 Stevens St.,Solana Beach,92075-2038,CA,INTMIDJR,N,32.995158,-117.26242,2020-08-13,92075,92075.0,"155 Stevens Street, Solana Beach, CA, 92075"
37683466104749,Diegueno Middle,2150 Village Park Way,2150 Village Park Way,Encinitas,92024-5400,CA,INTMIDJR,N,33.056629,-117.24202,2019-02-13,92024,92024.0,"2150 Village Park Way, Encinitas, CA, 92024"
37683466117352,Carmel Valley Middle,3800 Mykonos Lane,3800 Mykonos Ln.,San Diego,92130-3572,CA,INTMIDJR,N,32.946669,-117.22895,2020-08-13,92130,92130.0,"3800 Mykonos Lane, San Diego, CA, 92130"
37683536040331,San Pasqual Union Elementary,15305 Rockwood Road,15305 Rockwood Rd.,Escondido,92027-6700,CA,ELEM,N,33.111418,-117.01127,2020-08-13,92027,92027.0,"15305 Rockwood Road, Escondido, CA, 92027"
37683616040349,Cajon Park Elementary,10300 Magnolia Avenue,10300 Magnolia Ave.,Santee,92071-1704,CA,ELEM,N,32.865962,-116.97111,2020-08-13,92071,92071.0,"10300 Magnolia Avenue, Santee, CA, 92071"
37683616040356,Carlton Hills Elementary,9353 Pike Road,9353 Pike Rd.,Santee,92071-2515,CA,ELEM,N,32.848026,-116.99684,2020-08-13,92071,92071.0,"9353 Pike Road, Santee, CA, 92071"
37683616040364,Chet F. Harritt Elementary,8120 Arlette Street,8120 Arlette St.,Santee,92071-3513,CA,ELEM,N,32.831437,-117.01939,2020-08-13,92071,92071.0,"8120 Arlette Street, Santee, CA, 92071"
37683616040372,Pepper Drive Elementary,1935 Marlinda Way,1935 Marlinda Way,El Cajon,92020-1155,CA,ELEM,N,32.826876,-116.95401,2020-08-13,92020,92020.0,"1935 Marlinda Way, El Cajon, CA, 92020"
37683616040380,PRIDE Academy at Prospect Avenue,9303 Prospect Avenue,9303 Prospect Ave.,Santee,92071-3798,CA,ELEM,N,32.833793,-116.996,2020-08-13,92071,92071.0,"9303 Prospect Avenue, Santee, CA, 92071"
37683616040406,Sycamore Canyon Elementary,10201 Settle Road,10201 Settle Rd.,Santee,92071-1099,CA,ELEM,N,32.862781,-117.00388,2020-08-13,92071,92071.0,"10201 Settle Road, Santee, CA, 92071"
37683616068159,Carlton Oaks Elementary,9353 Wethersfield Road,9353 Wethersfield Rd.,Santee,92071-2354,CA,ELEM,N,32.844606,-117.01489,2020-08-13,92071,92071.0,"9353 Wethersfield Road, Santee, CA, 92071"
37683616085153,Rio Seco Elementary,9545 Cuyamaca Street,9545 Cuyamaca St.,Santee,92071-2674,CA,ELEM,N,32.851376,-116.98324,2020-08-13,92071,92071.0,"9545 Cuyamaca Street, Santee, CA, 92071"
37683616085161,Hill Creek Elementary,9665 Jeremy Street,9665 Jeremy St.,Santee,92071-2836,CA,ELEM,N,32.852951,-116.96326,2020-08-13,92071,92071.0,"9665 Jeremy Street, Santee, CA, 92071"
37683616111041,Santee Alternative,10250 El Nopal,10250 El Nopal,Santee,92071,CA,ELEM,N,32.862499,-116.97421,2019-02-13,92071,92071.0,"10250 El Nopal, Santee, CA, 92071"
37683616120190,Santee Success Program,10280 North Magnolia Avenue,10280 North Magnolia Ave.,Santee,92071-1998,CA,INTMIDJR,N,32.865952,-116.97111,2019-02-13,92071,92071.0,"10280 North Magnolia Avenue, Santee, CA, 92071"
37683790123000,Willow Elementary,226 Willow Road,226 Willow Rd.,San Ysidro,92173-3096,CA,ELEM,N,32.547737,-117.04235,2019-02-13,92173,92173.0,"226 Willow Road, San Ysidro, CA, 92173"
37683790137737,Vista Del Mar,4885 Del Sol Boulevard,4885 Del Sol Blvd.,San Diego,92154-8401,CA,INTMIDJR,N,32.570714,-117.02802,2020-08-13,92154,92154.0,"4885 Del Sol Boulevard, San Diego, CA, 92154"
37683796085146,Smythe Elementary,1880 Smythe Avenue,1880 Smythe Ave.,San Ysidro,92173-1599,CA,ELEM,N,32.562092,-117.04941,2019-02-13,92173,92173.0,"1880 Smythe Avenue, San Ysidro, CA, 92173"
37683796089007,La Mirada Elementary,222 Avenida de la Madrid,222 Avenida de la Madrid,San Ysidro,92173-1508,CA,ELEM,N,32.564207,-117.04606,2020-08-13,92173,92173.0,"222 Avenida de la Madrid, San Ysidro, CA, 92173"
37683796093264,Sunset Elementary,3825 Sunset Lane,3825 Sunset Ln.,San Ysidro,92173-3334,CA,ELEM,N,32.5582,-117.04998,2019-02-13,92173,92173.0,"3825 Sunset Lane, San Ysidro, CA, 92173"
37683796098453,San Ysidro Middle,4345 Otay Mesa Road,4345 Otay Mesa Rd.,San Ysidro,92173-1623,CA,INTMIDJR,N,32.562958,-117.03832,2020-08-13,92173,92173.0,"4345 Otay Mesa Road, San Ysidro, CA, 92173"
37683796119341,Ocean View Hills,4919 Del Sol Boulevard,4919 Del Sol Blvd.,San Diego,92154-8488,CA,ELEM,N,32.572128,-117.02577,2019-10-24,92154,92154.0,"4919 Del Sol Boulevard, San Diego, CA, 92154"
37683870105825,Solana Pacific Elementary,3901 Townsgate Drive,3901 Townsgate Dr.,San Diego,92130-2584,CA,ELEM,N,32.952072,-117.23132,2020-08-13,92130,92130.0,"3901 Townsgate Drive, San Diego, CA, 92130"
37683870129049,Solana Ranch Elementary,13605 Pacific Highlands Ranch Parkway,13605 Pacific Highlands Ranch Pkwy.,San Diego,92130-5791,CA,ELEM,N,32.964436,-117.19227,2020-08-13,92130,92130.0,"13605 Pacific Highlands Ranch Parkway, San Diego, CA, 92130"
37683876040455,Skyline Elementary,606 Lomas Santa Fe Drive,606 Lomas Santa Fe Dr.,Solana Beach,92075-1400,CA,ELEM,N,32.996163,-117.26298,2020-08-13,92075,92075.0,"606 Lomas Santa Fe Drive, Solana Beach, CA, 92075"
37683876070882,Solana Vista Elementary,780 Santa Victoria Avenue,780 Santa Victoria Ave.,Solana Beach,92075-1535,CA,ELEM,N,33.00415,-117.25085,2020-08-13,92075,92075.0,"780 Santa Victoria Avenue, Solana Beach, CA, 92075"
37683876106140,Solana Highlands Elementary,3520 Long Run Drive,3520 Long Run Dr.,San Diego,92130-1808,CA,ELEM,N,32.954318,-117.24018,2020-08-13,92130,92130.0,"3520 Long Run Drive, San Diego, CA, 92130"
37683876111181,Solana Santa Fe Elementary,6570 El Apajo,6570 El Apajo,Rancho Santa Fe,92067-8940,CA,ELEM,N,32.997084,-117.19246,2020-08-13,92067,92067.0,"6570 El Apajo, Rancho Santa Fe, CA, 92067"
37683876112353,Carmel Creek Elementary,4210 Carmel Center Road,4210 Carmel Center Rd.,San Diego,92130-2480,CA,ELEM,N,32.950872,-117.22565,2020-08-13,92130,92130.0,"4210 Carmel Center Road, San Diego, CA, 92130"
37683950125872,VIP Village Preschool,1001 Fern Avenue,1001 Fern Ave.,Imperial Beach,91932-3353,CA,PS,N,32.574671,-117.11211,2015-01-12,91932,91932.0,"1001 Fern Avenue, Imperial Beach, CA, 91932"
37683950140327,SBUSD Virtual Academy,525 Third Street,525 Third St.,Imperial Beach,91932-1101,CA,ELEM,V,32.586297,-117.12711,2020-08-26,91932,91932.0,"525 Third Street, Imperial Beach, CA, 91932"
37683956040463,Bayside STEAM Academy,490 Emory Street,490 Emory St.,Imperial Beach,91932-1524,CA,ELEM,N,32.587565,-117.11311,2020-08-13,91932,91932.0,"490 Emory Street, Imperial Beach, CA, 91932"
37683956040471,Central Elementary,1290 Ebony Avenue,1290 Ebony Ave.,Imperial Beach,91932-2920,CA,ELEM,N,32.577528,-117.10592,2020-08-13,91932,91932.0,"1290 Ebony Avenue, Imperial Beach, CA, 91932"
37683956040489,Emory Elementary,1915 Coronado Avenue,1915 Coronado Ave.,San Diego,92154-2021,CA,ELEM,N,32.576466,-117.09159,2020-08-13,92154,92154.0,"1915 Coronado Avenue, San Diego, CA, 92154"
37683956040505,Imperial Beach Charter,650 Imperial Beach Boulevard,650 Imperial Beach Blvd.,Imperial Beach,91932-2706,CA,ELEM,N,32.576599,-117.11967,2020-08-13,91932,91932.0,"650 Imperial Beach Boulevard, Imperial Beach, CA, 91932"
37683956040513,Nestor Language Academy Charter,1455 Hollister Street,1455 Hollister St.,San Diego,92154-4063,CA,ELEM,N,32.570376,-117.0841,2019-02-13,92154,92154.0,"1455 Hollister Street, San Diego, CA, 92154"
37683956040521,Oneonta Elementary,1311 Tenth Street,1311 Tenth St.,Imperial Beach,91932-3403,CA,ELEM,N,32.57272,-117.11215,2019-02-13,91932,91932.0,"1311 Tenth Street, Imperial Beach, CA, 91932"
37683956040539,Sunnyslope Elementary,2500 Elm Avenue,2500 Elm Ave.,San Diego,92154-1498,CA,ELEM,N,32.58014,-117.07974,2019-07-15,92154,92154.0,"2500 Elm Avenue, San Diego, CA, 92154"
37683956067029,Godfrey G. Berry Elementary,2001 Rimbey Street,2001 Rimbey St.,San Diego,92154-3032,CA,ELEM,N,32.568151,-117.08999,2020-08-13,92154,92154.0,"2001 Rimbey Street, San Diego, CA, 92154"
37683956094973,Howard Pence Elementary,877 Via Tonga Court,877 Via Tonga Ct.,San Diego,92154-2256,CA,ELEM,N,32.579102,-117.06191,2019-07-15,92154,92154.0,"877 Via Tonga Court, San Diego, CA, 92154"
37683956098487,George Nicoloff Elementary,1777 Howard Avenue,1777 Howard Ave.,San Ysidro,92173-1235,CA,ELEM,N,32.564248,-117.06662,2020-07-09,92173,92173.0,"1777 Howard Avenue, San Ysidro, CA, 92173"
37683956116008,Teofilo Mendoza,2050 Coronado Avenue,2050 Coronado Ave.,San Diego,92154-2034,CA,ELEM,N,32.576464,-117.08954,2020-08-13,92154,92154.0,"2050 Coronado Avenue, San Diego, CA, 92154"
37684030125401,Insight @ San Diego,50 Moreland Road,50 Moreland Rd.,Simi Valley,93065-1800,CA,HS,F,34.275868,-118.79798,2020-08-13,93065,93065.0,"50 Moreland Road, Simi Valley, CA, 93065"
37684036040554,Spencer Valley Elementary,4414 Highway 78 and 79,4414 Highway 78 and 79,Santa Ysabel,92070-0159,CA,ELEM,N,33.09656,-116.64555,2019-02-13,92070,92070.0,"4414 Highway 78 and 79, Santa Ysabel, CA, 92070"
37684036120893,California Virtual Academy @ San Diego,50 Moreland Road,50 Moreland Rd.,Simi Valley,93065-1800,CA,ELEMHIGH,V,34.275868,-118.79798,2020-08-13,93065,93065.0,"50 Moreland Road, Simi Valley, CA, 93065"
37684110111831,Olympian High,1925 Magdalena Avenue,1925 Magdalena Ave.,Chula Vista,91913-3973,CA,HS,N,32.607105,-116.97209,2019-02-13,91913,91913.0,"1925 Magdalena Avenue, Chula Vista, CA, 91913"
37684110115873,East Hills Academy,1791 Rock Mountain Road,1791 Rock Mountain Rd.,Chula Vista,91913,CA,HS,N,32.6101,-117.0768,2020-08-13,91913,91913.0,"1791 Rock Mountain Road, Chula Vista, CA, 91913"
37684110126086,Hawking S.T.E.A.M. Charter,489 E Street,489 E St.,Chula Vista,91910-2445,CA,ELEM,N,32.643349,-117.08896,2020-05-04,91910,91910.0,"489 E Street, Chula Vista, CA, 91910"
37684113730124,Southwest Senior High,1685 Hollister Street,1685 Hollister St.,San Diego,92154-4548,CA,HS,N,32.568057,-117.08409,2019-08-26,92154,92154.0,"1685 Hollister Street, San Diego, CA, 92154"
37684113730132,Montgomery Adult,3240 Palm Avenue,3240 Palm Ave.,San Diego,92154-1507,CA,A,N,32.585313,-117.06205,2019-08-26,92154,92154.0,"3240 Palm Avenue, San Diego, CA, 92154"
37684113730405,Bonita Vista Senior High,751 Otay Lakes Road,751 Otay Lakes Rd.,Chula Vista,91913-2004,CA,HS,N,32.64603,-117.00114,2019-02-13,91913,91913.0,"751 Otay Lakes Road, Chula Vista, CA, 91913"
37684113730801,Castle Park Senior High,1395 Hilltop Drive,1395 Hilltop Dr.,Chula Vista,91911-4529,CA,HS,N,32.606982,-117.05284,2019-02-13,91911,91911.0,"1395 Hilltop Drive, Chula Vista, CA, 91911"
37684113730843,Eastlake High,1120 Eastlake Parkway,1120 Eastlake Pkwy.,Chula Vista,91915-2102,CA,HS,N,32.646442,-116.96522,2019-08-26,91915,91915.0,"1120 Eastlake Parkway, Chula Vista, CA, 91915"
37684113731064,Chula Vista Senior High,820 Fourth Avenue,820 Fourth Ave.,Chula Vista,91911-1102,CA,HS,N,32.622027,-117.07697,2020-08-12,91911,91911.0,"820 Fourth Avenue, Chula Vista, CA, 91911"
37684113731106,San Ysidro Adult Education Center,4220 Otay Mesa Road,4220 Otay Mesa Rd.,San Ysidro,92173,CA,A,N,32.558871,-117.04133,2019-08-26,92173,92173.0,"4220 Otay Mesa Road, San Ysidro, CA, 92173"
37684113731155,Options Secondary,467 Moss Street,467 Moss St.,Chula Vista,91911-1705,CA,HS,N,32.61526,-117.07696,2020-08-13,91911,91911.0,"467 Moss Street, Chula Vista, CA, 91911"
37684113731171,Chula Vista Adult,1034 Fourth Avenue,1034 Fourth Ave.,Chula Vista,91911,CA,A,N,32.614769,-117.075,2019-08-26,91911,91911.0,"1034 Fourth Avenue, Chula Vista, CA, 91911"
37684113731304,MAAC Community Charter,1385 Third Avenue,1385 Third Ave.,Chula Vista,91911-4302,CA,HS,N,32.604299,-117.06543,2019-02-13,91911,91911.0,"1385 Third Avenue, Chula Vista, CA, 91911"
37684113731460,Alta Vista Academy,730 Medical Center Court,730 Medical Center Ct.,Chula Vista,91911-6618,CA,HS,N,32.61872,-117.02445,2020-08-13,91911,91911.0,"730 Medical Center Court, Chula Vista, CA, 91911"
37684113731502,San Ysidro High,5353 Airway Road,5353 Airway Rd.,San Diego,92154-4806,CA,HS,N,32.566438,-117.01748,2019-02-13,92154,92154.0,"5353 Airway Road, San Diego, CA, 92154"
37684113731627,Otay Ranch Senior High,1250 Olympic Parkway,1250 Olympic Pkwy.,Chula Vista,91913-1900,CA,HS,N,32.619073,-116.99635,2019-02-13,91913,91913.0,"1250 Olympic Parkway, Chula Vista, CA, 91913"
37684113732047,Palomar High,480 Palomar Street,480 Palomar St.,Chula Vista,91911-3098,CA,HS,N,32.604757,-117.07385,2019-08-27,91911,91911.0,"480 Palomar Street, Chula Vista, CA, 91911"
37684113732849,Hilltop Senior High,555 Claire Avenue,555 Claire Ave.,Chula Vista,91910-6105,CA,HS,N,32.636851,-117.0599,2019-10-31,91910,91910.0,"555 Claire Avenue, Chula Vista, CA, 91910"
37684113733953,Mar Vista Senior High,505 Elm Avenue,505 Elm Ave.,Imperial Beach,91932-2027,CA,HS,N,32.580208,-117.12224,2019-08-26,91932,91932.0,"505 Elm Avenue, Imperial Beach, CA, 91932"
37684113738184,National City Adult,517 West 24th Street,517 West 24th St.,National City,91950,CA,A,N,32.663588,-117.096,2019-08-26,91950,91950.0,"517 West 24th Street, National City, CA, 91950"
37684113738226,Sweetwater High,2900 Highland Avenue,2900 Highland Ave.,National City,91950-7415,CA,HS,N,32.659933,-117.0917,2019-02-13,91950,91950.0,"2900 Highland Avenue, National City, CA, 91950"
37684113738234,Montgomery Senior High,3250 Palm Avenue,3250 Palm Ave.,San Diego,92154-1507,CA,HS,N,32.583873,-117.06422,2019-08-26,92154,92154.0,"3250 Palm Avenue, San Diego, CA, 92154"
37684116059745,Bonita Vista Middle,650 Otay Lakes Road,650 Otay Lakes Rd.,Chula Vista,91910-6910,CA,INTMIDJR,N,32.648596,-117.00527,2019-02-13,91910,91910.0,"650 Otay Lakes Road, Chula Vista, CA, 91910"
37684116059752,Castle Park Middle,160 Quintard Street,160 Quintard St.,Chula Vista,91911-4414,CA,INTMIDJR,N,32.604981,-117.05939,2019-02-13,91911,91911.0,"160 Quintard Street, Chula Vista, CA, 91911"
37684116059760,Chula Vista Middle,415 Fifth Avenue,415 Fifth Ave.,Chula Vista,91910-4305,CA,INTMIDJR,N,32.635067,-117.08645,2020-08-10,91910,91910.0,"415 Fifth Avenue, Chula Vista, CA, 91910"
37684116059778,Granger Junior High,2101 Granger Avenue,2101 Granger Ave.,National City,91950-6299,CA,INTMIDJR,N,32.672621,-117.07383,2019-08-26,91950,91950.0,"2101 Granger Avenue, National City, CA, 91950"
37684116059786,Mar Vista Academy,1267 Thermal Avenue,1267 Thermal Ave.,San Diego,92154-2802,CA,INTMIDJR,N,32.57488,-117.09709,2019-02-13,92154,92154.0,"1267 Thermal Avenue, San Diego, CA, 92154"
37684116059794,National City Middle,1701 D Avenue,1701 D Ave.,National City,91950-4535,CA,INTMIDJR,N,32.669245,-117.09973,2019-08-26,91950,91950.0,"1701 D Avenue, National City, CA, 91950"
37684116062004,Hilltop Middle,44 East J Street,44 East J St.,Chula Vista,91910-6115,CA,INTMIDJR,N,32.630395,-117.06408,2019-08-26,91910,91910.0,"44 East J Street, Chula Vista, CA, 91910"
37684116062012,Southwest Middle,2710 Iris Street,2710 Iris St.,San Diego,92154-3338,CA,INTMIDJR,N,32.569138,-117.07381,2019-02-13,92154,92154.0,"2710 Iris Street, San Diego, CA, 92154"
37684116070890,Montgomery Middle,1051 Picador Boulevard,1051 Picador Blvd.,San Diego,92154-3548,CA,INTMIDJR,N,32.576045,-117.05612,2019-02-13,92154,92154.0,"1051 Picador Boulevard, San Diego, CA, 92154"
37684116114276,Rancho del Rey Middle,1174 East J Street,1174 East J St.,Chula Vista,91910-7040,CA,INTMIDJR,N,32.630868,-117.00764,2019-02-13,91910,91910.0,"1174 East J Street, Chula Vista, CA, 91910"
37684116117154,Sweetwater Community Day,1355 Second Avenue,1355 Second Ave.,Chula Vista,91911-4404,CA,HS,N,32.605905,-117.06115,2020-08-13,91911,91911.0,"1355 Second Avenue, Chula Vista, CA, 91911"
37684116120968,Eastlake Middle,900 Duncan Ranch Road,900 Duncan Ranch Rd.,Chula Vista,91914-2626,CA,INTMIDJR,N,32.655591,-116.94818,2019-08-26,91914,91914.0,"900 Duncan Ranch Road, Chula Vista, CA, 91914"
37684376040562,Vallecitos Elementary,5211 Fifth Street,5211 Fifth St.,Rainbow,92028-9795,CA,ELEM,N,33.413921,-117.14871,2020-08-13,92028,92028.0,"5211 Fifth Street, Rainbow, CA, 92028"
37684520100925,T.H.E Leadership Academy,1550 Temple Heights Drive,1550 Temple Heights Dr.,Oceanside,92056-3066,CA,ELEM,N,33.218505,-117.27087,2020-08-13,92056,92056.0,"1550 Temple Heights Drive, Oceanside, CA, 92056"
37684520100933,Hannalei Elementary,120 Hannalei Drive,120 Hannalei Dr.,Vista,92083-7625,CA,ELEM,N,33.178337,-117.21575,2020-08-13,92083,92083.0,"120 Hannalei Drive, Vista, CA, 92083"
37684520105882,Foothill Oak Elementary,1370 Oak Drive,1370 Oak Dr.,Vista,92084-4001,CA,ELEM,N,33.218194,-117.22187,2020-08-13,92084,92084.0,"1370 Oak Drive, Vista, CA, 92084"
37684520106120,SIATech,"2611 Temple Heights Drive, Suite A","2611 Temple Heights Dr., Ste. A",Oceanside,92056-3582,CA,HS,C,33.216092,-117.26989,2020-08-31,92056,92056.0,"2611 Temple Heights Drive, Suite A, Oceanside, CA, 92056"
37684520111237,Maryland Elementary,700 North Avenue,700 North Ave.,Vista,92084-2906,CA,ELEM,N,33.215538,-117.25793,2020-08-13,92084,92084.0,"700 North Avenue, Vista, CA, 92084"
37684520114264,North County Trade Tech High,"1132 N Melrose Drive, Suite 501","1132 N Melrose Drive, Ste. 501",Vista,92083-3467,CA,HS,N,33.212842,-117.25511,2020-08-13,92083,92083.0,"1132 N Melrose Drive, Suite 501, Vista, CA, 92083"
37684520114637,"Vista Magnet Middle School of Technology, Science, and Math",151 Civic Center Drive,151 Civic Center Dr.,Vista,92084-6035,CA,INTMIDJR,N,33.20314,-117.23667,2020-08-13,92084,92084.0,"151 Civic Center Drive, Vista, CA, 92084"
37684520115451,Major General Raymond Murray High,215 North Melrose Drive,215 North Melrose Dr.,Vista,92083-5720,CA,HS,N,33.198351,-117.25582,2020-08-13,92083,92083.0,"215 North Melrose Drive, Vista, CA, 92083"
37684520118430,Mission Vista High,1306 Melrose Drive,1306 Melrose Dr.,Oceanside,92057-4649,CA,HS,N,33.25599,-117.26381,2020-08-13,92057,92057.0,"1306 Melrose Drive, Oceanside, CA, 92057"
37684520124917,Guajome Learning Center,2000 North Santa Fe Avenue,2000 North Santa Fe Ave.,Vista,92083-1534,CA,ELEMHIGH,C,33.230575,-117.25014,2020-08-13,92083,92083.0,"2000 North Santa Fe Avenue, Vista, CA, 92083"
37684520126300,Vista Visions Academy,1575 Bonair Drive,1575 Bonair Dr.,Vista,92084-3572,CA,ELEMHIGH,C,33.222677,-117.21924,2020-08-13,92084,92084.0,"1575 Bonair Drive, Vista, CA, 92084"
37684520128223,Bella Mente Montessori Academy,1737 West Vista Way,1737 West Vista Way,Vista,92083-2112,CA,ELEM,N,33.189574,-117.27872,2020-08-13,92083,92083.0,"1737 West Vista Way, Vista, CA, 92083"
37684523730207,Vista Adult Transition Center,325 East Bobier Drive,325 East Bobier Dr.,Vista,92084-3027,CA,ELEMHIGH,N,33.221287,-117.24111,2020-08-13,92084,92084.0,"325 East Bobier Drive, Vista, CA, 92084"
37684523730298,Vista Adult,510 Sunset Drive,510 Sunset Dr.,Vista,92081,CA,A,N,33.187198,-117.24038,2019-09-24,92081,92081.0,"510 Sunset Drive, Vista, CA, 92081"
37684523730728,Rancho Buena Vista High,1601 Longhorn Drive,1601 Longhorn Dr.,Vista,92081-5423,CA,HS,N,33.164594,-117.24715,2020-08-13,92081,92081.0,"1601 Longhorn Drive, Vista, CA, 92081"
37684523730942,Guajome Park Academy Charter,2000 North Santa Fe Avenue,2000 North Santa Fe Ave.,Vista,92083-1534,CA,ELEMHIGH,C,33.23012,-117.24877,2019-02-13,92083,92083.0,"2000 North Santa Fe Avenue, Vista, CA, 92083"
37684523732039,Alta Vista High (Continuation),1575 Bonair Drive,1575 Bonair Dr.,Vista,92084-3572,CA,HS,N,33.222471,-117.2196,2020-08-13,92084,92084.0,"1575 Bonair Drive, Vista, CA, 92084"
37684523738705,Vista High,1 Panther Drive,1 Panther Dr.,Vista,92084-3101,CA,HS,N,33.223361,-117.2419,2020-08-13,92084,92084.0,"1 Panther Drive, Vista, CA, 92084"
37684526040588,Beaumont Elementary,550 Beaumont Drive,550 Beaumont Dr.,Vista,92084-6321,CA,ELEM,N,33.198044,-117.22481,2020-08-13,92084,92084.0,"550 Beaumont Drive, Vista, CA, 92084"
37684526040596,Bobier Elementary,220 West Bobier Drive,220 West Bobier Dr.,Vista,92083-1903,CA,ELEM,N,33.221088,-117.24761,2020-08-13,92083,92083.0,"220 West Bobier Drive, Vista, CA, 92083"
37684526040604,California Avenue Elementary,215 West California Avenue,215 West California Ave.,Vista,92083-3622,CA,ELEM,N,33.207511,-117.24664,2020-08-13,92083,92083.0,"215 West California Avenue, Vista, CA, 92083"
37684526040620,Grapevine Elementary,630 Grapevine Road,630 Grapevine Rd.,Vista,92083-5599,CA,ELEM,N,33.199834,-117.27374,2020-06-11,92083,92083.0,"630 Grapevine Road, Vista, CA, 92083"
37684526040638,Monte Vista Elementary,1720 Monte Vista Road,1720 Monte Vista Rd.,Vista,92084-7122,CA,ELEM,N,33.190319,-117.21212,2020-08-13,92084,92084.0,"1720 Monte Vista Road, Vista, CA, 92084"
37684526040653,Vista Academy of Visual and Performing Arts,600 North Santa Fe Avenue,600 North Santa Fe Ave.,Vista,92083-3631,CA,ELEM,N,33.207469,-117.24508,2020-08-13,92083,92083.0,"600 North Santa Fe Avenue, Vista, CA, 92083"
37684526059802,Rancho Minerva Middle,2245 Foothill Drive,2245 Foothill Dr.,Vista,92084-6035,CA,INTMIDJR,N,33.204318,-117.20552,2020-08-13,92084,92084.0,"2245 Foothill Drive, Vista, CA, 92084"
37684526059810,Vista Innovation and Design Academy,740 Olive Avenue,740 Olive Ave.,Vista,92083-3396,CA,INTMIDJR,N,33.204628,-117.25714,2020-08-13,92083,92083.0,"740 Olive Avenue, Vista, CA, 92083"
37684526069124,Casita Center for Science/Math/Technology,260 Cedar Drive,260 Cedar Dr.,Vista,92083-5108,CA,ELEM,N,33.191355,-117.28465,2020-08-13,92083,92083.0,"260 Cedar Drive, Vista, CA, 92083"
37684526107031,Alamosa Park Elementary,5130 Alamosa Park Drive,5130 Alamosa Park Dr.,Oceanside,92057-6301,CA,ELEM,N,33.239596,-117.28112,2020-08-13,92057,92057.0,"5130 Alamosa Park Drive, Oceanside, CA, 92057"
37684526107577,Roosevelt Middle,850 Sagewood Drive,850 Sagewood Dr.,Oceanside,92057-6937,CA,INTMIDJR,N,33.235127,-117.28067,2020-08-13,92057,92057.0,"850 Sagewood Drive, Oceanside, CA, 92057"
37684526107585,Lake Elementary,4950 Lake Boulevard,4950 Lake Blvd.,Oceanside,92056-4749,CA,ELEM,N,33.17323,-117.25791,2020-08-13,92056,92056.0,"4950 Lake Boulevard, Oceanside, CA, 92056"
37684526108708,Empresa Elementary,4850 Avenida Empresa,4850 Avenida Empresa,Oceanside,92056-6541,CA,ELEM,N,33.223041,-117.28771,2020-08-13,92056,92056.0,"4850 Avenida Empresa, Oceanside, CA, 92056"
37684526110399,Breeze Hill Elementary,1111 Melrose Way,1111 Melrose Way,Vista,92083-6505,CA,ELEM,N,33.18517,-117.25456,2020-08-13,92083,92083.0,"1111 Melrose Way, Vista, CA, 92083"
37684526110407,Mission Meadows Elementary,5657 Spur Avenue,5657 Spur Ave.,Oceanside,92056-5714,CA,ELEM,N,33.246059,-117.25806,2020-08-13,92056,92056.0,"5657 Spur Avenue, Oceanside, CA, 92056"
37684526112221,Madison Middle,4930 Lake Boulevard,4930 Lake Blvd.,Oceanside,92056-4749,CA,INTMIDJR,N,33.173316,-117.25871,2020-08-13,92056,92056.0,"4930 Lake Boulevard, Oceanside, CA, 92056"
37735283736808,San Diego Continuing Education,4343 Ocean View Boulevard,4343 Ocean View Blvd.,San Diego,92113-1915,CA,A,,32.699457,-117.10188,2016-01-30,92113,92113.0,"4343 Ocean View Boulevard, San Diego, CA, 92113"
37735510107557,Calavera Hills Middle,4104 Tamarack Avenue,4104 Tamarack Ave.,Carlsbad,92008-7101,CA,INTMIDJR,N,33.172385,-117.29083,2020-08-13,92008,92008.0,"4104 Tamarack Avenue, Carlsbad, CA, 92008"
37735510113498,Poinsettia Elementary,2445 Mica Road,2445 Mica Rd.,Carlsbad,92009-1733,CA,ELEM,N,33.1186,-117.2562,2020-08-13,92009,92009.0,"2445 Mica Road, Carlsbad, CA, 92009"
37735510127423,Sage Creek High,3900 Bobcat Boulevard,3900 Bobcat Blvd.,Carlsbad,92010-5573,CA,HS,N,33.142565,-117.24945,2020-08-13,92010,92010.0,"3900 Bobcat Boulevard, Carlsbad, CA, 92010"
37735513730017,Carlsbad Village Academy,3557 Monroe Street,3557 Monroe St.,Carlsbad,92008-2785,CA,HS,N,33.162338,-117.32762,2020-08-13,92008,92008.0,"3557 Monroe Street, Carlsbad, CA, 92008"
37735513730694,Carlsbad High,3557 Monroe Street,3557 Monroe St.,Carlsbad,92008-2729,CA,HS,N,33.162399,-117.32698,2020-08-13,92008,92008.0,"3557 Monroe Street, Carlsbad, CA, 92008"
37735513730892,Carlsbad Adult Transition,6225 El Camino Real,6225 El Camino Real,Carlsbad,92009,CA,A,N,33.122871,-117.26761,2016-10-08,92009,92009.0,"6225 El Camino Real, Carlsbad, CA, 92009"
37735513731163,Carlsbad Seaside Academy,3557 Monroe Street,3557 Monroe St.,Carlsbad,92008-2785,CA,HS,N,33.162338,-117.32762,2019-02-13,92008,92008.0,"3557 Monroe Street, Carlsbad, CA, 92008"
37735516037774,Buena Vista Elementary,1330 Buena Vista Way,1330 Buena Vista Way,Carlsbad,92008-1535,CA,ELEM,N,33.168932,-117.34252,2020-08-13,92008,92008.0,"1330 Buena Vista Way, Carlsbad, CA, 92008"
37735516037782,Jefferson Elementary,3743 Jefferson Street,3743 Jefferson St.,Carlsbad,92008-3336,CA,ELEM,N,33.153787,-117.33958,2020-08-13,92008,92008.0,"3743 Jefferson Street, Carlsbad, CA, 92008"
37735516037790,Magnolia Elementary,1905 Magnolia Avenue,1905 Magnolia Ave.,Carlsbad,92008-2632,CA,ELEM,N,33.160076,-117.3267,2020-08-13,92008,92008.0,"1905 Magnolia Avenue, Carlsbad, CA, 92008"
37735516037816,Valley Middle,1645 Magnolia Avenue,1645 Magnolia Ave.,Carlsbad,92008-2626,CA,INTMIDJR,N,33.158874,-117.32931,2020-08-13,92008,92008.0,"1645 Magnolia Avenue, Carlsbad, CA, 92008"
37735516099352,Kelly Elementary,4885 Kelly Drive,4885 Kelly Dr.,Carlsbad,92008-3734,CA,ELEM,N,33.14836,-117.31122,2020-08-13,92008,92008.0,"4885 Kelly Drive, Carlsbad, CA, 92008"
37735516106512,Hope Elementary,3010 Tamarack Avenue,3010 Tamarack Ave.,Carlsbad,92008-2430,CA,ELEM,N,33.17052,-117.30462,2020-08-13,92008,92008.0,"3010 Tamarack Avenue, Carlsbad, CA, 92008"
37735516109201,Aviara Oaks Elementary,6900 Ambrosia Lane,6900 Ambrosia Ln.,Carlsbad,92009-2430,CA,ELEM,N,33.101346,-117.27667,2020-08-13,92009,92009.0,"6900 Ambrosia Lane, Carlsbad, CA, 92009"
37735516116578,Pacific Rim Elementary,1100 Camino de las Ondas,1100 Camino de las Ondas,Carlsbad,92009-3400,CA,ELEM,N,33.110252,-117.30595,2020-08-13,92009,92009.0,"1100 Camino de las Ondas, Carlsbad, CA, 92009"
37735516118137,Aviara Oaks Middle,6880 Ambrosia Lane,6880 Ambrosia Ln.,Carlsbad,92011-5057,CA,INTMIDJR,N,33.103077,-117.27894,2020-08-13,92011,92011.0,"6880 Ambrosia Lane, Carlsbad, CA, 92011"
37735516120711,Calavera Hills Elementary,4100 Tamarack Avenue,4100 Tamarack Ave.,Carlsbad,92008-7101,CA,ELEM,N,33.172385,-117.29083,2020-08-13,92008,92008.0,"4100 Tamarack Avenue, Carlsbad, CA, 92008"
37735690113514,Louise Foussat Elementary,3800 Pala Road,3800 Pala Rd.,Oceanside,92058-0678,CA,ELEM,N,33.237973,-117.32914,2020-08-13,92058,92058.0,"3800 Pala Road, Oceanside, CA, 92058"
37735690113522,Cesar Chavez Middle,202 Oleander Drive,202 Oleander Dr.,Oceanside,92057-6122,CA,INTMIDJR,N,33.241726,-117.30066,2020-08-13,92057,92057.0,"202 Oleander Drive, Oceanside, CA, 92057"
37735690136267,Coastal Academy Charter,4096 Calle Platino,4096 Calle Platino,Oceanside,92056-5805,CA,ELEMHIGH,C,33.206522,-117.29292,2020-08-13,92056,92056.0,"4096 Calle Platino, Oceanside, CA, 92056"
37735690140079,Surfside Academy,1125 South Ditmar Street,1125 South Ditmar St.,Oceanside,92054-5103,CA,ELEMHIGH,V,33.18541,-117.36811,2020-08-19,92054,92054.0,"1125 South Ditmar Street, Oceanside, CA, 92054"
37735690140343,Oceanside Unified School District Adult Transition Program,707 Carey Road,707 Carey Rd.,Oceanside,92058-2311,CA,UG,N,33.208707,-117.36229,2020-09-09,92058,92058.0,"707 Carey Road, Oceanside, CA, 92058"
37735693731221,Pacific View Charter,3670 Ocean Ranch Boulevard,3670 Ocean Ranch Blvd.,Oceanside,92056-2669,CA,ELEMHIGH,N,33.210649,-117.31151,2019-02-13,92056,92056.0,"3670 Ocean Ranch Boulevard, Oceanside, CA, 92056"
37735693735206,Oceanside High,1 Pirates Cove,1 Pirates Cove,Oceanside,92054-3066,CA,HS,C,33.197067,-117.37414,2020-07-08,92054,92054.0,"1 Pirates Cove, Oceanside, CA, 92054"
37735693739018,El Camino High,400 Rancho del Oro Drive,400 Rancho del Oro Dr.,Oceanside,92057-8316,CA,HS,C,33.219594,-117.31909,2019-03-25,92057,92057.0,"400 Rancho del Oro Drive, Oceanside, CA, 92057"
37735693739026,Surfside High (Continuation),1125 South Ditmar Street,1125 South Ditmar St.,Oceanside,92054-5103,CA,HS,C,33.18541,-117.36811,2020-08-20,92054,92054.0,"1125 South Ditmar Street, Oceanside, CA, 92054"
37735696038830,Jefferson Middle,823 Acacia Street,823 Acacia St.,Oceanside,92058-2305,CA,INTMIDJR,N,33.208382,-117.36389,2020-08-13,92058,92058.0,"823 Acacia Street, Oceanside, CA, 92058"
37735696038848,Laurel Elementary,1410 Laurel Street,1410 Laurel St.,Oceanside,92058-2217,CA,ELEM,N,33.207375,-117.37345,2020-08-13,92058,92058.0,"1410 Laurel Street, Oceanside, CA, 92058"
37735696038855,Libby Elementary,423 West Redondo Drive,423 West Redondo Dr.,Oceanside,92057-4316,CA,ELEM,N,33.251715,-117.30467,2020-08-13,92057,92057.0,"423 West Redondo Drive, Oceanside, CA, 92057"
37735696038863,Lincoln Middle,2000 California Street,2000 California St.,Oceanside,92054-5683,CA,INTMIDJR,N,33.187731,-117.35255,2020-08-13,92054,92054.0,"2000 California Street, Oceanside, CA, 92054"
37735696038871,Mission Elementary,2100 Mission Avenue,2100 Mission Ave.,Oceanside,92058-2327,CA,ELEM,N,33.205741,-117.36293,2020-08-13,92058,92058.0,"2100 Mission Avenue, Oceanside, CA, 92058"
37735696038889,North Terrace Elementary,141 Santa Rosa Drive,141 Santa Rosa Dr.,Oceanside,92058-6880,CA,ELEM,N,33.21915,-117.38004,2020-08-13,92058,92058.0,"141 Santa Rosa Drive, Oceanside, CA, 92058"
37735696038897,Palmquist Elementary,1999 California Street,1999 California St.,Oceanside,92054-5685,CA,ELEM,N,33.189628,-117.34938,2020-08-13,92054,92054.0,"1999 California Street, Oceanside, CA, 92054"
37735696038905,San Luis Rey Elementary,3535 Hacienda Drive,3535 Hacienda Dr.,Oceanside,92054-3854,CA,ELEM,N,33.219659,-117.3362,2020-08-13,92054,92054.0,"3535 Hacienda Drive, Oceanside, CA, 92054"
37735696038913,Santa Margarita Elementary,1 Carnes Road,1 Carnes Rd.,Oceanside,92058-6699,CA,ELEM,N,33.230925,-117.37907,2020-08-13,92058,92058.0,"1 Carnes Road, Oceanside, CA, 92058"
37735696038921,South Oceanside Elementary,1806 South Horne Street,1806 South Horne St.,Oceanside,92054-6017,CA,ELEM,N,33.177487,-117.35807,2020-08-13,92054,92054.0,"1806 South Horne Street, Oceanside, CA, 92054"
37735696088991,Del Rio Elementary,5200 North River Road,5200 North River Rd.,Oceanside,92057-3811,CA,ELEM,N,33.255349,-117.29486,2020-08-13,92057,92057.0,"5200 North River Road, Oceanside, CA, 92057"
37735696106546,Reynolds Elementary,4575 Douglas Drive,4575 Douglas Dr.,Oceanside,92057-4228,CA,ELEM,N,33.255862,-117.3144,2019-02-13,92057,92057.0,"4575 Douglas Drive, Oceanside, CA, 92057"
37735696108211,Christa McAuliffe Elementary,3701 Kelton Drive,3701 Kelton Dr.,Oceanside,92056-6311,CA,ELEM,N,33.200502,-117.30626,2020-08-13,92056,92056.0,"3701 Kelton Drive, Oceanside, CA, 92056"
37735696109995,Ivey Ranch Elementary,4275 Via Rancho Road,4275 Via Rancho Rd.,Oceanside,92057-8534,CA,ELEM,N,33.219404,-117.30103,2020-08-13,92057,92057.0,"4275 Via Rancho Road, Oceanside, CA, 92057"
37735696111777,Martin Luther King Jr. Middle,1290 Ivey Ranch Road,1290 Ivey Ranch Rd.,Oceanside,92057-8535,CA,INTMIDJR,N,33.215828,-117.31067,2020-08-13,92057,92057.0,"1290 Ivey Ranch Road, Oceanside, CA, 92057"
37735696115299,Stuart Mesa Elementary,100 Yamanaka Way,100 Yamanaka Way,Oceanside,92058-8016,CA,ELEM,N,33.254199,-117.40995,2020-08-13,92058,92058.0,"100 Yamanaka Way, Oceanside, CA, 92058"
37735696119713,Nichols Elementary,4250 Old Grove Road,4250 Old Grove Rd.,Oceanside,92057-6539,CA,ELEM,N,33.23807,-117.31559,2020-08-13,92057,92057.0,"4250 Old Grove Road, Oceanside, CA, 92057"
37737910105684,San Elijo Middle,1600 Schoolhouse Way,1600 Schoolhouse Way,San Marcos,92078-1079,CA,INTMIDJR,N,33.09882,-117.19736,2020-08-13,92078,92078.0,"1600 Schoolhouse Way, San Marcos, CA, 92078"
37737910105726,Mission Hills High,1 Mission Hills Court,1 Mission Hills Ct.,San Marcos,92069-1965,CA,HS,N,33.147163,-117.14694,2020-08-13,92069,92069.0,"1 Mission Hills Court, San Marcos, CA, 92069"
37737910111468,San Elijo Elementary,1615 Schoolhouse Way,1615 Schoolhouse Way,San Marcos,92078-1080,CA,ELEM,N,33.1,-117.1953,2020-08-13,92078,92078.0,"1615 Schoolhouse Way, San Marcos, CA, 92078"
37737910116467,Joli Ann Leichtag Elementary,653 Poinsettia Avenue,653 Poinsettia Ave.,Vista,92081-8113,CA,ELEM,N,33.155513,-117.21079,2020-08-13,92081,92081.0,"653 Poinsettia Avenue, Vista, CA, 92081"
37737910131433,Double Peak,111 San Elijo Road,111 San Elijo Rd.,San Marcos,92078-2051,CA,ELEM,N,33.106382,-117.16582,2020-08-13,92078,92078.0,"111 San Elijo Road, San Marcos, CA, 92078"
37737910138222,Pivot Charter School - San Diego II,1030 La Bonita Drive Suite 100,1030 La Bonita Dr. Ste. 100,San Marcos,92078-5291,CA,ELEMHIGH,V,33.124043,-117.20913,2020-08-13,92078,92078.0,"1030 La Bonita Drive Suite 100, San Marcos, CA, 92078"
37737913730215,Twin Oaks High,158 Cassou Road,158 Cassou Rd.,San Marcos,92069-9702,CA,HS,N,33.179778,-117.1591,2020-08-13,92069,92069.0,"158 Cassou Road, San Marcos, CA, 92069"
37737913730793,Foothills High,158 Cassou Road,158 Cassou Rd.,San Marcos,92069-9702,CA,HS,N,33.180651,-117.15868,2020-08-13,92069,92069.0,"158 Cassou Road, San Marcos, CA, 92069"
37737913730918,San Marcos Adult,158 Cassou Road,158 Cassou Rd.,San Marcos,92069-9702,CA,HS,N,33.178187,-117.15659,2020-08-13,92069,92069.0,"158 Cassou Road, San Marcos, CA, 92069"
37737913737632,San Marcos High,1615 San Marcos Boulevard,1615 San Marcos Blvd.,San Marcos,92078-4020,CA,HS,N,33.131215,-117.20543,2020-08-13,92078,92078.0,"1615 San Marcos Boulevard, San Marcos, CA, 92078"
37737916039069,La Mirada Academy,3697 La Mirada Drive,3697 La Mirada Dr.,San Marcos,92078-2312,CA,ELEM,N,33.143808,-117.20381,2019-02-13,92078,92078.0,"3697 La Mirada Drive, San Marcos, CA, 92078"
37737916039077,Richland Elementary,910 Borden Road,910 Borden Rd.,San Marcos,92069-2199,CA,ELEM,N,33.154751,-117.14016,2020-08-13,92069,92069.0,"910 Borden Road, San Marcos, CA, 92069"
37737916039085,San Marcos Elementary,1 Tiger Way,1 Tiger Way,San Marcos,92069-2703,CA,ELEM,N,33.14128,-117.16829,2020-08-13,92069,92069.0,"1 Tiger Way, San Marcos, CA, 92069"
37737916039093,San Marcos Middle,650 West Mission Road,650 West Mission Rd.,San Marcos,92069-1555,CA,INTMIDJR,N,33.145673,-117.1749,2020-08-13,92069,92069.0,"650 West Mission Road, San Marcos, CA, 92069"
37737916095061,Woodland Park Middle,1270 Rock Springs Road,1270 Rock Springs Rd.,San Marcos,92069-3220,CA,INTMIDJR,N,33.147436,-117.12958,2020-08-13,92069,92069.0,"1270 Rock Springs Road, San Marcos, CA, 92069"
37737916105993,La Costa Meadows Elementary,6889 El Fuerte Street,6889 El Fuerte St.,Carlsbad,92009-5923,CA,ELEM,N,33.104542,-117.23995,2020-08-13,92009,92009.0,"6889 El Fuerte Street, Carlsbad, CA, 92009"
37737916107148,Knob Hill Elementary,1825 Knob Hill Road,1825 Knob Hill Rd.,San Marcos,92069-3301,CA,ELEM,N,33.139633,-117.11971,2020-08-13,92069,92069.0,"1825 Knob Hill Road, San Marcos, CA, 92069"
37737916108872,Paloma Elementary,660 Camino Magnifico,660 Camino Magnifico,San Marcos,92069-7323,CA,ELEM,N,33.159796,-117.18482,2020-08-13,92069,92069.0,"660 Camino Magnifico, San Marcos, CA, 92069"
37737916114169,Discovery Elementary,730 Applewilde Drive,730 Applewilde Dr.,San Marcos,92078-4969,CA,ELEM,N,33.129296,-117.1905,2020-08-13,92078,92078.0,"730 Applewilde Drive, San Marcos, CA, 92078"
37737916115349,Twin Oaks Elementary,1 Cassou Road,1 Cassou Rd.,San Marcos,92069-9831,CA,ELEM,N,33.178528,-117.15544,2020-08-13,92069,92069.0,"1 Cassou Road, San Marcos, CA, 92069"
37737916116206,Carrillo Elementary,2875 Poinsettia Lane,2875 Poinsettia Ln.,Carlsbad,92009-3041,CA,ELEM,N,33.119466,-117.2419,2020-08-13,92009,92009.0,"2875 Poinsettia Lane, Carlsbad, CA, 92009"
37745263790029,San Diego County ROP,"6401 Linda Vista Road, Room 408","6401 Linda Vista Rd., Rm. 408",San Diego,92111-7319,CA,UG,,32.771468,-117.1793,2015-03-24,92111,92111.0,"6401 Linda Vista Road, Room 408, San Diego, CA, 92111"
37754160122796,All Tribes Elementary Charter,"34320 Valley Center Road, Suite B","34320 Valley Center Rd., Ste. B",Valley Center,92082-6046,CA,ELEM,N,33.277583,-116.95371,2019-02-13,92082,92082.0,"34320 Valley Center Road, Suite B, Valley Center, CA, 92082"
37754160132472,California Pacific Charter - San Diego,4101 Birch Street Suite 150,4101 Birch St. Ste. 150,Newport Beach,92660-2221,CA,ELEMHIGH,F,33.666,-117.86982,2020-05-15,92660,92660.0,"4101 Birch Street Suite 150, Newport Beach, CA, 92660"
37754160138651,San Diego Mission Academy,9512 Chesapeake Drive Suite 402,9512 Chesapeake Dr. Ste. 402,San Diego,92123-1305,CA,ELEMHIGH,F,32.835904,-117.12397,2020-08-13,92123,92123.0,"9512 Chesapeake Drive Suite 402, San Diego, CA, 92123"
37754160139378,Sage Oak Charter School - South,1473 Ford Street Suite #105,1473 Ford St. Ste. #105,Redlands,92373-3913,CA,ELEMHIGH,V,34.038346,-117.15383,2020-08-13,92373,92373.0,"1473 Ford Street Suite #105, Redlands, CA, 92373"
37754160139386,Excel Academy Charter,"1 Technology Drive Building I, Suite 811","1 Technology Dr. Bldg. I, Ste. 811",Irvine,92618-2339,CA,ELEMHIGH,V,33.647447,-117.73468,2020-05-21,92618,92618.0,"1 Technology Drive Building I, Suite 811, Irvine, CA, 92618"
37754160139451,Pathways Academy Charter - Adult Education,100 East San Marcos Boulevard Suite 350,100 East San Marcos Blvd. Ste. 350,San Marcos,92069-2986,CA,HS,F,33.141522,-117.16245,2019-11-04,92069,92069.0,"100 East San Marcos Boulevard Suite 350, San Marcos, CA, 92069"
37754163730975,Warner Junior/Senior High,30951 Highway 79,30951 Highway 79,Warner Springs,92086,CA,HS,N,33.292294,-116.68489,2020-08-13,92086,92086.0,"30951 Highway 79, Warner Springs, CA, 92086"
37754163731015,San Jose Valley Continuation High,30951 Highway 79,30951 Highway 79,Warner Springs,92086,CA,HS,N,33.292294,-116.68489,2017-05-26,92086,92086.0,"30951 Highway 79, Warner Springs, CA, 92086"
37754166040661,Warner Elementary,30951 Highway 79,30951 Highway 79,Warner Springs,92086-0008,CA,ELEM,N,33.346655,-116.73027,2020-08-13,92086,92086.0,"30951 Highway 79, Warner Springs, CA, 92086"
37754166119275,All Tribes Charter,34320 Valley Center Road,34320 Valley Center Rd.,Valley Center,92082-6046,CA,ELEMHIGH,N,33.277583,-116.95371,2019-02-13,92082,92082.0,"34320 Valley Center Road, Valley Center, CA, 92082"
37756140100511,Lilac,30109 Lilac Road,30109 Lilac Rd.,Valley Center,92082-3318,CA,ELEM,N,33.256624,-117.06917,2019-08-21,92082,92082.0,"30109 Lilac Road, Valley Center, CA, 92082"
37756143731114,Valley Center High,31322 Cole Grade Road,31322 Cole Grade Rd.,Valley Center,92082-3867,CA,HS,N,33.279829,-117.02379,2020-08-13,92082,92082.0,"31322 Cole Grade Road, Valley Center, CA, 92082"
37756143731312,Oak Glen High,14172 West Oak Glen Road,14172 West Oak Glen Rd.,Valley Center,92082-4123,CA,HS,N,33.282007,-117.02401,2020-08-13,92082,92082.0,"14172 West Oak Glen Road, Valley Center, CA, 92082"
37756143731338,Valley Center-Pauma Adult,31322 Cole Grade Road,31322 Cole Grade Rd.,Valley Center,92082,CA,HS,N,33.28002,-117.02398,2018-07-12,92082,92082.0,"31322 Cole Grade Road, Valley Center, CA, 92082"
37756143731601,Valley Center Prep,28751-U Cole Grade Road,28751-U Cole Grade Rd.,Valley Center,92082,CA,ELEMHIGH,N,33.236018,-117.02144,2020-08-13,92082,92082.0,"28751-U Cole Grade Road, Valley Center, CA, 92082"
37756146038962,Pauma Elementary,33158 Cole Grade Road,33158 Cole Grade Rd.,Pauma Valley,92061-9578,CA,ELEM,N,33.315897,-116.99873,2019-08-21,92061,92061.0,"33158 Cole Grade Road, Pauma Valley, CA, 92061"
37756146093272,Valley Center Middle,28102 North Lake Wohlford Road,28102 North Lake Wohlford Rd.,Valley Center,92082-6740,CA,INTMIDJR,N,33.224381,-116.97567,2019-08-21,92082,92082.0,"28102 North Lake Wohlford Road, Valley Center, CA, 92082"
37756146106124,Valley Center Primary,14249 Fruitvale Road,14249 Fruitvale Rd.,Valley Center,92082-5907,CA,ELEM,N,33.239526,-117.02157,2019-08-21,92082,92082.0,"14249 Fruitvale Road, Valley Center, CA, 92082"
37756146112494,Valley Center Elementary,28751 Cole Grade Road,28751 Cole Grade Rd.,Valley Center,92082-6575,CA,ELEM,N,33.234769,-117.02397,2019-08-21,92082,92082.0,"28751 Cole Grade Road, Valley Center, CA, 92082"
37764710114678,High Tech High Chula Vista,1945 Discovery Falls Drive,1945 Discovery Falls Dr.,Chula Vista,91915-2037,CA,HS,N,32.62223,-116.95962,2020-08-31,91915,91915.0,"1945 Discovery Falls Drive, Chula Vista, CA, 91915"
37764710114694,High Tech High North County,1420 San Marcos Boulevard,1420 San Marcos Blvd.,San Marcos,92078-4017,CA,HS,N,33.131486,-117.20153,2020-08-13,92078,92078.0,"1420 San Marcos Boulevard, San Marcos, CA, 92078"
37764710119271,High Tech Middle North County,1460 West San Marcos Boulevard,1460 West San Marcos Blvd.,San Marcos,92078-4017,CA,INTMIDJR,N,33.131433,-117.20232,2020-08-13,92078,92078.0,"1460 West San Marcos Boulevard, San Marcos, CA, 92078"
37764710123042,High Tech Middle Chula Vista,1949 Discovery Falls Drive,1949 Discovery Falls Dr.,Chula Vista,91915-2037,CA,INTMIDJR,N,32.619241,-116.95858,2020-08-13,91915,91915.0,"1949 Discovery Falls Drive, Chula Vista, CA, 91915"
37764710123059,High Tech Elementary Chula Vista,1949 Discovery Falls Drive,1949 Discovery Falls Dr.,Chula Vista,91915-2037,CA,ELEM,N,32.619241,-116.95858,2020-08-13,91915,91915.0,"1949 Discovery Falls Drive, Chula Vista, CA, 91915"
37764710127605,High Tech Elementary North County,1480 West San Marcos Boulevard,1480 West San Marcos Blvd.,San Marcos,92078-4017,CA,ELEM,N,33.131439,-117.20377,2020-08-13,92078,92078.0,"1480 West San Marcos Boulevard, San Marcos, CA, 92078"
37764710137067,High Tech High Mesa,5331 Mount Alifan,5331 Mt. Alifan,San Diego,92111-2622,CA,HS,N,32.815661,-117.18079,2020-08-13,92111,92111.0,"5331 Mount Alifan, San Diego, CA, 92111"
37764710138768,High Tech Middle Mesa,5331 Mount Alifan Drive Building 400,5331 Mt. Alifan Dr. Bldg. 400,San Diego,92111-2622,CA,INTMIDJR,N,32.815661,-117.18079,2020-08-13,92111,92111.0,"5331 Mount Alifan Drive Building 400, San Diego, CA, 92111"
37764710138776,High Tech Elementary Mesa,5331 Mount Alifan Drive Building 200,5331 Mt. Alifan Dr. Bldg. 200,San Diego,92111-2622,CA,ELEM,N,32.815661,-117.18079,2020-08-13,92111,92111.0,"5331 Mount Alifan Drive Building 200, San Diego, CA, 92111"
37768510110122,Bonsall West Elementary,5050 El Mirlo Drive,5050 El Mirlo Dr.,Oceanside,92057-2704,CA,ELEM,N,33.263619,-117.29384,2020-08-13,92057,92057.0,"5050 El Mirlo Drive, Oceanside, CA, 92057"
37768510129320,Bonsall High,7350 West Lilac Road,7350 West Lilac Rd.,Bonsall,92003-4316,CA,HS,N,33.296238,-117.17648,2020-08-13,92003,92003.0,"7350 West Lilac Road, Bonsall, CA, 92003"
37768516037543,Bonsall Elementary,31555 Old River Road,31555 Old River Rd.,Bonsall,92003-5112,CA,ELEM,N,33.287143,-117.22078,2020-08-13,92003,92003.0,"31555 Old River Road, Bonsall, CA, 92003"
37768516108567,Norman L. Sullivan Middle,7350 West Lilac Road,7350 West Lilac Rd.,Bonsall,92003-5112,CA,INTMIDJR,N,33.296116,-117.17507,2020-08-13,92003,92003.0,"7350 West Lilac Road, Bonsall, CA, 92003"
37768516113468,Vivian Banks Charter,11800 Pala Mission Road,11800 Pala Mission Rd.,Pala,92059,CA,ELEM,N,33.365115,-117.07171,2020-08-13,92059,92059.0,"11800 Pala Mission Road, Pala, CA, 92059"
37770320134577,Audeo Charter II,"3821 Plaza Drive, Suite 402","3821 Plaza Drive, Ste. 402",Oceanside,92056-4605,CA,ELEMHIGH,N,33.180779,-117.29137,2020-08-13,92056,92056.0,"3821 Plaza Drive, Suite 402, Oceanside, CA, 92056"
37770990136077,Grossmont Secondary,111 Fletcher Parkway,111 Fletcher Pkwy.,El Cajon,92020-2510,CA,HS,N,32.806734,-116.96305,2020-08-13,92020,92020.0,"111 Fletcher Parkway, El Cajon, CA, 92020"
37771070136473,Sweetwater Secondary,3252 Bonita Road,3252 Bonita Rd.,Chula Vista,91910-3200,CA,HS,N,32.648779,-117.05338,2020-08-13,91910,91910.0,"3252 Bonita Road, Chula Vista, CA, 91910"
37771560137323,Vista Springs Charter,700 East Bobier Avenue,700 East Bobier Ave.,Vista,92084-3804,CA,ELEMHIGH,N,33.220678,-117.23443,2019-03-27,92084,92084.0,"700 East Bobier Avenue, Vista, CA, 92084"
37771640137356,College Preparatory Middle,10269 Madrid Way,10269 Madrid Way,Spring Valley,91977-1928,CA,INTMIDJR,N,32.745829,-116.9713,2020-08-13,91977,91977.0,"10269 Madrid Way, Spring Valley, CA, 91977"
37771720138099,Baypoint Preparatory Academy - San Diego,520 E. Carmel Street,520 E. Carmel St.,San Marcos,92078-3811,CA,ELEM,N,33.138648,-117.15028,2020-08-13,92078,92078.0,"520 E. Carmel Street, San Marcos, CA, 92078"
