,CDSCode,District,School_x,Zip,WebSite,EILName,Latitude,Longitude,LastUpDate,Address,Zipcode,"School, District",AggregateLevel,CountyName,DistrictName,School_y,ReportingCategory,CumulativeEnrollment
0,37103710115998,San Diego County Office of Education,San Pasqual Academy,92025-5301,http://www.sanpasqualacademy.org,High School,33.09058,-116.95009,2019-02-13,"17701 San Pasqual Valley Road,Escondido,CA,92025",92025,"San Pasqual Academy, San Diego County Office of Education",S,San Diego,San Diego County Office of Education,San Pasqual Academy,TA,94.0
1,37103710120485,San Diego County Office of Education,Davila Day,91910-3604,,Elementary,32.635041,-117.08832,2019-02-13,"540 G Street,Chula Vista,CA,91910",91910,"Davila Day, San Diego County Office of Education",S,San Diego,San Diego County Office of Education,Davila Day,TA,34.0
2,37103710120493,San Diego County Office of Education,Monarch,92113-1012,http://www.monarchschools.org,Elementary-High Combination,32.702375,-117.15045,2020-08-24,"1625 Newton Avenue,San Diego,CA,92113",92113,"Monarch, San Diego County Office of Education",S,San Diego,San Diego County Office of Education,Monarch,TA,333.0
3,37103710128520,San Diego County Office of Education,San Diego County Community,92111-7399,http://www.sdcoe.net,Elementary-High Combination,32.769578,-117.17984,2020-08-21,"6401 Linda Vista Road, Room 216,San Diego,CA,92111",92111,"San Diego County Community, San Diego County Office of Education",S,San Diego,San Diego County Office of Education,San Diego County Community,TA,1366.0
4,37103710128538,San Diego County Office of Education,San Diego County Court,92123,http://www.sdcoe.net/jccs,High School,32.794147,-117.15396,2019-02-13,"2801 Meadow Lark Drive,San Diego,CA,92123",92123,"San Diego County Court, San Diego County Office of Education",S,San Diego,San Diego County Office of Education,San Diego County Court,TA,1433.0
5,37103711996545,San Diego County Office of Education,North Coastal Consortium Schools,92069-3709,http://nccse.org,Elementary-High Combination,33.142539,-117.16504,2019-02-13,"255 Pico Avenue, Room 220,San Marcos,CA,92069",92069,"North Coastal Consortium Schools, San Diego County Office of Education",S,San Diego,San Diego County Office of Education,North Coastal Consortium Schools,TA,115.0
6,37103716069355,San Diego County Office of Education,San Diego County Special Education,92111-7319,http://www.sdcoe.net,Elementary-High Combination,32.769409,-117.1796,2019-11-20,"6401 Linda Vista Road, Room 409,San Diego,CA,92111",92111,"San Diego County Special Education, San Diego County Office of Education",S,San Diego,San Diego County Office of Education,San Diego County Special Education,TA,41.0
7,37679676037535,Alpine Union Elementary,Joan MacQueen Middle,91901-3129,http://www.alpineschools.net/joanmac,Intermediate/Middle/Junior High,32.825432,-116.77538,2019-02-13,"2001 Tavern Road,Alpine,CA,91901",91901,"Joan MacQueen Middle, Alpine Union Elementary",S,San Diego,Alpine Union Elementary,Joan MacQueen Middle,TA,467.0
8,37679676106256,Alpine Union Elementary,Shadow Hills Elementary,91901-2615,http://www.alpineschools.net/shadowhills,Elementary,32.8319,-116.81522,2019-02-26,"8770 Harbison Canyon Road,Alpine,CA,91901",91901,"Shadow Hills Elementary, Alpine Union Elementary",S,San Diego,Alpine Union Elementary,Shadow Hills Elementary,TA,410.0
9,37679676109086,Alpine Union Elementary,Boulder Oaks Elementary,91901-3134,http://www.alpineschools.net/boulderoaks,Elementary,32.819163,-116.77617,2020-08-13,"2320 Tavern Road,Alpine,CA,91901",91901,"Boulder Oaks Elementary, Alpine Union Elementary",S,San Diego,Alpine Union Elementary,Boulder Oaks Elementary,TA,360.0
10,37679676109953,Alpine Union Elementary,Mountain View Learning Academy,91901-2615,http://www.alpineschools.net/mountainview,Elementary,32.832208,-116.81507,2020-08-13,"8770 Harbison Canyon Road,Alpine,CA,91901",91901,"Mountain View Learning Academy, Alpine Union Elementary",S,San Diego,Alpine Union Elementary,Mountain View Learning Academy,TA,82.0
11,37679676118723,Alpine Union Elementary,Creekside Early Learning Center,91901-2616,http://www.alpineschools.net/creekside,Elementary,32.832208,-116.81507,2019-02-13,"8818 Harbison Canyon Road,Alpine,CA,91901",91901,"Creekside Early Learning Center, Alpine Union Elementary",S,San Diego,Alpine Union Elementary,Creekside Early Learning Center,TA,293.0
12,37679833730447,Borrego Springs Unified,Borrego Springs High,92004-0235,http://www.bsusd.net,High School,33.265514,-116.38373,2019-11-06,"2281 Diegueno Road,Borrego Springs,CA,92004",92004,"Borrego Springs High, Borrego Springs Unified",S,San Diego,Borrego Springs Unified,Borrego Springs High,TA,132.0
13,37679836037550,Borrego Springs Unified,Borrego Springs Elementary,92004-0235,,Elementary,33.256865,-116.34685,2019-02-13,"1315 Palm Canyon Drive,Borrego Springs,CA,92004",92004,"Borrego Springs Elementary, Borrego Springs Unified",S,San Diego,Borrego Springs Unified,Borrego Springs Elementary,TA,194.0
14,37679836115315,Borrego Springs Unified,Borrego Springs Middle,92004,,Intermediate/Middle/Junior High,33.264682,-116.38367,2019-11-06,"2255 Diegueno Road,Borrego Springs,CA,92004",92004,"Borrego Springs Middle, Borrego Springs Unified",S,San Diego,Borrego Springs Unified,Borrego Springs Middle,TA,94.0
15,37679910111005,Cajon Valley Union,Los Coches Creek Middle,92021-2619,,Intermediate/Middle/Junior High,32.858622,-116.81938,2020-08-13,"9669 Dunbar Lane,El Cajon,CA,92021",92021,"Los Coches Creek Middle, Cajon Valley Union",S,San Diego,Cajon Valley Union,Los Coches Creek Middle,TA,836.0
16,37679910136176,Cajon Valley Union,Empower,92020-4015,http://www.cajonvalley.net,Intermediate/Middle/Junior High,32.795836,-116.95489,2020-08-13,"165 Roanoke Road,El Cajon,CA,92020",92020,"Empower, Cajon Valley Union",S,San Diego,Cajon Valley Union,Empower,TA,26.0
17,37679916037568,Cajon Valley Union,Anza Elementary,92020-8602,,Elementary,32.786,-116.9478,2020-08-13,"1005 South Anza Street,El Cajon,CA,92020",92020,"Anza Elementary, Cajon Valley Union",S,San Diego,Cajon Valley Union,Anza Elementary,TA,628.0
18,37679916037576,Cajon Valley Union,Bostonia Language Academy,92021-5812,,Elementary,32.807818,-116.93171,2019-08-22,"1390 East Broadway,El Cajon,CA,92021",92021,"Bostonia Language Academy, Cajon Valley Union",S,San Diego,Cajon Valley Union,Bostonia Language Academy,TA,625.0
19,37679916037584,Cajon Valley Union,Cajon Valley Middle,92020-3922,,Intermediate/Middle/Junior High,32.798383,-116.95555,2020-08-13,"550 Park Avenue,El Cajon,CA,92020",92020,"Cajon Valley Middle, Cajon Valley Union",S,San Diego,Cajon Valley Union,Cajon Valley Middle,TA,1070.0
20,37679916037592,Cajon Valley Union,Chase Avenue Elementary,92020-6201,,Elementary,32.780336,-116.96003,2020-08-13,"195 East Chase Avenue,El Cajon,CA,92020",92020,"Chase Avenue Elementary, Cajon Valley Union",S,San Diego,Cajon Valley Union,Chase Avenue Elementary,TA,832.0
21,37679916037600,Cajon Valley Union,Crest Elementary,92021-4249,,Elementary,32.805538,-116.86647,2020-08-14,"2000 Suncrest Boulevard,El Cajon,CA,92021",92021,"Crest Elementary, Cajon Valley Union",S,San Diego,Cajon Valley Union,Crest Elementary,TA,119.0
22,37679916037626,Cajon Valley Union,Emerald Middle,92020-7315,,Intermediate/Middle/Junior High,32.778996,-116.96869,2020-08-14,"1221 South Emerald Avenue,El Cajon,CA,92020",92020,"Emerald Middle, Cajon Valley Union",S,San Diego,Cajon Valley Union,Emerald Middle,TA,679.0
23,37679916037634,Cajon Valley Union,Flying Hills School of Arts,92020-1433,,Elementary,32.811827,-116.9824,2020-08-13,"1251 Finch Street,El Cajon,CA,92020",92020,"Flying Hills School of Arts, Cajon Valley Union",S,San Diego,Cajon Valley Union,Flying Hills School of Arts,TA,586.0
24,37679916037642,Cajon Valley Union,Fuerte Elementary,92020-8309,,Elementary,32.762217,-116.94678,2020-08-13,"11625 Fuerte Drive,El Cajon,CA,92020",92020,"Fuerte Elementary, Cajon Valley Union",S,San Diego,Cajon Valley Union,Fuerte Elementary,TA,696.0
25,37679916037659,Cajon Valley Union,Greenfield Middle,92021-3414,,Intermediate/Middle/Junior High,32.811048,-116.92834,2020-08-14,"1495 Greenfield Drive,El Cajon,CA,92021",92021,"Greenfield Middle, Cajon Valley Union",S,San Diego,Cajon Valley Union,Greenfield Middle,TA,860.0
26,37679916037675,Cajon Valley Union,Johnson Elementary,92020-3211,,Elementary,32.8008,-116.9562,2019-02-13,"500 West Madison,El Cajon,CA,92020",92020,"Johnson Elementary, Cajon Valley Union",S,San Diego,Cajon Valley Union,Johnson Elementary,TA,795.0
27,37679916037683,Cajon Valley Union,Lexington Elementary,92019-4739,,Elementary,32.791145,-116.94234,2020-08-14,"1145 Redwood Avenue,El Cajon,CA,92019",92019,"Lexington Elementary, Cajon Valley Union",S,San Diego,Cajon Valley Union,Lexington Elementary,TA,936.0
28,37679916037691,Cajon Valley Union,Madison Avenue Elementary,92019-1046,,Elementary,32.800143,-116.922,2020-08-13,"1615 East Madison Avenue,El Cajon,CA,92019",92019,"Madison Avenue Elementary, Cajon Valley Union",S,San Diego,Cajon Valley Union,Madison Avenue Elementary,TA,707.0
29,37679916037709,Cajon Valley Union,Magnolia Elementary,92021-2957,,Elementary,32.813388,-116.95404,2020-08-13,"650 Greenfield Drive,El Cajon,CA,92021",92021,"Magnolia Elementary, Cajon Valley Union",S,San Diego,Cajon Valley Union,Magnolia Elementary,TA,655.0
30,37679916037717,Cajon Valley Union,Meridian Elementary,92019-2517,,Elementary,32.788386,-116.92685,2020-08-13,"651 South Third Street,El Cajon,CA,92019",92019,"Meridian Elementary, Cajon Valley Union",S,San Diego,Cajon Valley Union,Meridian Elementary,TA,648.0
31,37679916037725,Cajon Valley Union,Naranca Elementary,92021-5615,,Elementary,32.803995,-116.94638,2020-08-13,"1030 Naranca Avenue,El Cajon,CA,92021",92021,"Naranca Elementary, Cajon Valley Union",S,San Diego,Cajon Valley Union,Naranca Elementary,TA,930.0
32,37679916037733,Cajon Valley Union,Rios Elementary,92021-2725,,Elementary,32.840076,-116.87577,2020-08-13,"14314 Rios Canyon Road,El Cajon,CA,92021",92021,"Rios Elementary, Cajon Valley Union",S,San Diego,Cajon Valley Union,Rios Elementary,TA,401.0
33,37679916037741,Cajon Valley Union,W. D. Hall Elementary,92021-1460,,Elementary,32.820878,-116.93116,2020-08-14,"1376 Pepper Drive,El Cajon,CA,92021",92021,"W. D. Hall Elementary, Cajon Valley Union",S,San Diego,Cajon Valley Union,W. D. Hall Elementary,TA,642.0
34,37679916069082,Cajon Valley Union,Avocado Elementary,91941-7319,,Elementary,32.750432,-116.96075,2020-08-13,"3845 Avocado School Road,La Mesa,CA,91941",91941,"Avocado Elementary, Cajon Valley Union",S,San Diego,Cajon Valley Union,Avocado Elementary,TA,628.0
35,37679916093207,Cajon Valley Union,Montgomery Middle,92019-2015,,Intermediate/Middle/Junior High,32.79653,-116.92542,2020-08-13,"1570 Melody Lane,El Cajon,CA,92019",92019,"Montgomery Middle, Cajon Valley Union",S,San Diego,Cajon Valley Union,Montgomery Middle,TA,985.0
36,37679916101794,Cajon Valley Union,Vista Grande Elementary,92019-3823,,Elementary,32.76508,-116.91501,2020-08-13,"1908 Vista Grande Road,El Cajon,CA,92019",92019,"Vista Grande Elementary, Cajon Valley Union",S,San Diego,Cajon Valley Union,Vista Grande Elementary,TA,635.0
37,37679916106025,Cajon Valley Union,Rancho San Diego Elementary,92019-4825,,Elementary,32.754628,-116.93287,2020-08-13,"12151 Calle Albara,El Cajon,CA,92019",92019,"Rancho San Diego Elementary, Cajon Valley Union",S,San Diego,Cajon Valley Union,Rancho San Diego Elementary,TA,628.0
38,37679916110787,Cajon Valley Union,Jamacha Elementary,92019-4640,,Elementary,32.740143,-116.91223,2020-08-13,"2962 Jamul Drive,El Cajon,CA,92019",92019,"Jamacha Elementary, Cajon Valley Union",S,San Diego,Cajon Valley Union,Jamacha Elementary,TA,518.0
39,37679916112148,Cajon Valley Union,Blossom Valley Elementary,92021-2300,,Elementary,32.861732,-116.84665,2020-08-13,"9863 Oakmont Terrace,El Cajon,CA,92021",92021,"Blossom Valley Elementary, Cajon Valley Union",S,San Diego,Cajon Valley Union,Blossom Valley Elementary,TA,573.0
40,37679916112890,Cajon Valley Union,Hillsdale Middle,92019-4374,,Intermediate/Middle/Junior High,32.74944,-116.9324,2020-08-14,"1301 Brabham Street,El Cajon,CA,92019",92019,"Hillsdale Middle, Cajon Valley Union",S,San Diego,Cajon Valley Union,Hillsdale Middle,TA,1581.0
41,37679916118319,Cajon Valley Union,Cajon Valley Home,92021-5812,,Elementary,32.807708,-116.93212,2020-08-13,"1384 Broadway,El Cajon,CA,92021",92021,"Cajon Valley Home, Cajon Valley Union",S,San Diego,Cajon Valley Union,Cajon Valley Home,TA,133.0
42,37680076037758,Cardiff Elementary,Ada W. Harris Elementary,92007-1356,,Elementary,33.03128,-117.27349,2020-08-13,"1508 Windsor Road,Cardiff-by-the-Sea,CA,92007",92007,"Ada W. Harris Elementary, Cardiff Elementary",S,San Diego,Cardiff Elementary,Ada W. Harris Elementary,TA,368.0
43,37680076037766,Cardiff Elementary,Cardiff Elementary,92007-2313,,Elementary,33.025044,-117.2822,2020-08-13,"1888 Montgomery Avenue,Cardiff-by-the-Sea,CA,92007",92007,"Cardiff Elementary, Cardiff Elementary",S,San Diego,Cardiff Elementary,Cardiff Elementary,TA,354.0
44,37680230101592,Chula Vista Elementary,Hedenkamp (Anne and William) Elementary,91913-2895,http://schools.cvesd.org/schools/hedenkamp/,Elementary,32.61674,-117.015,2019-02-13,"930 East Palomar,Chula Vista,CA,91913",91913,"Hedenkamp (Anne and William) Elementary, Chula Vista Elementary",S,San Diego,Chula Vista Elementary,Hedenkamp (Anne and William) Elementary,TA,1035.0
45,37680230105957,Chula Vista Elementary,Liberty Elementary,91914-4026,http://schools.cvesd.org/schools/liberty/,Elementary,32.663976,-116.97761,2019-02-13,"2175 Proctor Valley Road,Chula Vista,CA,91914",91914,"Liberty Elementary, Chula Vista Elementary",S,San Diego,Chula Vista Elementary,Liberty Elementary,TA,722.0
46,37680230105965,Chula Vista Elementary,Salt Creek Elementary,91914-3622,http://schools.cvesd.org/schools/saltcreek/,Elementary,32.649018,-116.94925,2019-02-13,"1055 Hunte Parkway,Chula Vista,CA,91914",91914,"Salt Creek Elementary, Chula Vista Elementary",S,San Diego,Chula Vista Elementary,Salt Creek Elementary,TA,946.0
47,37680230108662,Chula Vista Elementary,Veterans Elementary,91913-3948,http://schools.cvesd.org/schools/veterans/,Elementary,32.623835,-116.97634,2019-02-13,"1550 Magdalena Avenue,Chula Vista,CA,91913",91913,"Veterans Elementary, Chula Vista Elementary",S,San Diego,Chula Vista Elementary,Veterans Elementary,TA,925.0
48,37680230114009,Chula Vista Elementary,Wolf Canyon Elementary,91913-3948,http://schools.cvesd.org/schools/wolfcanyon/,Elementary,32.611931,-116.97324,2020-08-13,"1950 Wolf Canyon Loop,Chula Vista,CA,91913",91913,"Wolf Canyon Elementary, Chula Vista Elementary",S,San Diego,Chula Vista Elementary,Wolf Canyon Elementary,TA,822.0
49,37680230127431,Chula Vista Elementary,Camarena (Enrique S.) Elementary,91915-1961,http://schools.cvesd.org/schools/camarena/,Elementary,32.622811,-116.95651,2019-02-13,"1650 Exploration Falls Drive,Chula Vista,CA,91915",91915,"Camarena (Enrique S.) Elementary, Chula Vista Elementary",S,San Diego,Chula Vista Elementary,Camarena (Enrique S.) Elementary,TA,1094.0
50,37680230135277,Chula Vista Elementary,Muraoka (Saburo) Elementary,91915,http://www.cvesd.org,Elementary,32.615167,-116.99163,2020-01-27,"1644 Santa Alexia Avenue,Chula Vista,CA,91915",91915,"Muraoka (Saburo) Elementary, Chula Vista Elementary",S,San Diego,Chula Vista Elementary,Muraoka (Saburo) Elementary,TA,789.0
51,37680236037824,Chula Vista Elementary,Castle Park Elementary,91910-3309,http://schools.cvesd.org/schools/castlepark/,Elementary,32.615057,-117.05726,2020-08-12,"25 Emerson Street,Chula Vista,CA,91910",91910,"Castle Park Elementary, Chula Vista Elementary",S,San Diego,Chula Vista Elementary,Castle Park Elementary,TA,435.0
52,37680236037832,Chula Vista Elementary,Allen (Ella B.) Elementary,91902-2309,http://schools.cvesd.org/schools/allen/,Elementary,32.656765,-117.03358,2020-08-13,"4300 Allen School Road,Bonita,CA,91902",91902,"Allen (Ella B.) Elementary, Chula Vista Elementary",S,San Diego,Chula Vista Elementary,Allen (Ella B.) Elementary,TA,380.0
53,37680236037840,Chula Vista Elementary,Rohr (Fred H.) Elementary,91911-5999,http://schools.cvesd.org/schools/rohr/,Elementary,32.602452,-117.04055,2020-08-13,"1540 Malta Avenue,Chula Vista,CA,91911",91911,"Rohr (Fred H.) Elementary, Chula Vista Elementary",S,San Diego,Chula Vista Elementary,Rohr (Fred H.) Elementary,TA,326.0
54,37680236037857,Chula Vista Elementary,Rogers (Greg) Elementary,91911-2519,http://schools.cvesd.org/schools/rogers/,Elementary,32.611251,-117.07781,2020-08-13,"510 East Naples Street,Chula Vista,CA,91911",91911,"Rogers (Greg) Elementary, Chula Vista Elementary",S,San Diego,Chula Vista Elementary,Rogers (Greg) Elementary,TA,451.0
55,37680236037865,Chula Vista Elementary,Halecrest Elementary,91910-6499,http://schools.cvesd.org/schools/halecrest/,Elementary,32.634394,-117.04331,2020-08-13,"475 East J Street,Chula Vista,CA,91910",91910,"Halecrest Elementary, Chula Vista Elementary",S,San Diego,Chula Vista Elementary,Halecrest Elementary,TA,507.0
56,37680236037873,Chula Vista Elementary,Harborside Elementary,91911-1619,http://schools.cvesd.org/schools/harborside/,Elementary,32.609058,-117.08551,2019-02-13,"681 Naples Street,Chula Vista,CA,91911",91911,"Harborside Elementary, Chula Vista Elementary",S,San Diego,Chula Vista Elementary,Harborside Elementary,TA,725.0
57,37680236037881,Chula Vista Elementary,Cook (Hazel Goes) Elementary,91911-1501,http://schools.cvesd.org/schools/cook/,Elementary,32.625934,-117.0562,2020-08-13,"875 Cuyamaca Avenue,Chula Vista,CA,91911",91911,"Cook (Hazel Goes) Elementary, Chula Vista Elementary",S,San Diego,Chula Vista Elementary,Cook (Hazel Goes) Elementary,TA,381.0
58,37680236037899,Chula Vista Elementary,Hilltop Drive Elementary,91910-6020,http://schools.cvesd.org/schools/hilltop/,Elementary,32.632209,-117.06414,2020-08-13,"30 Murray Street,Chula Vista,CA,91910",91910,"Hilltop Drive Elementary, Chula Vista Elementary",S,San Diego,Chula Vista Elementary,Hilltop Drive Elementary,TA,564.0
59,37680236037907,Chula Vista Elementary,Lauderbach (J. Calvin) Elementary,91911-3182,http://schools.cvesd.org/schools/lauderbach/,Elementary,32.620279,-117.07566,2019-02-13,"390 Palomar Street,Chula Vista,CA,91911",91911,"Lauderbach (J. Calvin) Elementary, Chula Vista Elementary",S,San Diego,Chula Vista Elementary,Lauderbach (J. Calvin) Elementary,TA,876.0
60,37680236037915,Chula Vista Elementary,Montgomery (John J.) Elementary,91911-5799,http://schools.cvesd.org/schools/montgomery/,Elementary,32.597875,-117.069,2020-08-13,"1601 Fourth Avenue,Chula Vista,CA,91911",91911,"Montgomery (John J.) Elementary, Chula Vista Elementary",S,San Diego,Chula Vista Elementary,Montgomery (John J.) Elementary,TA,363.0
61,37680236037923,Chula Vista Elementary,Kellogg (Karl H.) Elementary,91911-2399,http://schools.cvesd.org/schools/kellogg/,Elementary,32.619721,-117.04805,2020-08-13,"229 East Naples Street,Chula Vista,CA,91911",91911,"Kellogg (Karl H.) Elementary, Chula Vista Elementary",S,San Diego,Chula Vista Elementary,Kellogg (Karl H.) Elementary,TA,364.0
62,37680236037931,Chula Vista Elementary,Rice (Lilian J.) Elementary,91911-2098,http://schools.cvesd.org/schools/rice/,Elementary,32.619137,-117.07569,2019-02-13,"915 Fourth Avenue,Chula Vista,CA,91911",91911,"Rice (Lilian J.) Elementary, Chula Vista Elementary",S,San Diego,Chula Vista Elementary,Rice (Lilian J.) Elementary,TA,716.0
63,37680236037949,Chula Vista Elementary,Loma Verde Elementary,91911-5310,http://schools.cvesd.org/schools/lomaverde/pages/home,Elementary,32.601123,-117.04889,2019-02-13,"1450 Loma Lane,Chula Vista,CA,91911",91911,"Loma Verde Elementary, Chula Vista Elementary",S,San Diego,Chula Vista Elementary,Loma Verde Elementary,TA,573.0
64,37680236037964,Chula Vista Elementary,Finney (Myrtle S.) Elementary,92154-1799,http://schools.cvesd.org/schools/finney/,Elementary,32.584496,-117.04839,2020-08-13,"3950 Byrd Street,San Diego,CA,92154",92154,"Finney (Myrtle S.) Elementary, Chula Vista Elementary",S,San Diego,Chula Vista Elementary,Finney (Myrtle S.) Elementary,TA,402.0
65,37680236037972,Chula Vista Elementary,Palomar Elementary,91911-3799,http://schools.cvesd.org/schools/palomar/,Elementary,32.613776,-117.04282,2020-08-13,"300 East Palomar Street,Chula Vista,CA,91911",91911,"Palomar Elementary, Chula Vista Elementary",S,San Diego,Chula Vista Elementary,Palomar Elementary,TA,368.0
66,37680236037998,Chula Vista Elementary,Rosebank Elementary,91911-1997,http://schools.cvesd.org/schools/rosebank/,Elementary,32.649741,-117.07336,2020-08-13,"80 Flower Street,Chula Vista,CA,91911",91911,"Rosebank Elementary, Chula Vista Elementary",S,San Diego,Chula Vista Elementary,Rosebank Elementary,TA,651.0
67,37680236038004,Chula Vista Elementary,Silver Wing Elementary,92154-2422,http://schools.cvesd.org/schools/silverwing/,Elementary,32.578749,-117.05258,2019-12-05,"3730 Arey Drive,San Diego,CA,92154",92154,"Silver Wing Elementary, Chula Vista Elementary",S,San Diego,Chula Vista Elementary,Silver Wing Elementary,TA,458.0
68,37680236038012,Chula Vista Elementary,Sunnyside Elementary,91902-2209,http://schools.cvesd.org/schools/sunnyside/,Elementary,32.674619,-117.01545,2020-08-13,"5430 San Miguel Road,Bonita,CA,91902",91902,"Sunnyside Elementary, Chula Vista Elementary",S,San Diego,Chula Vista Elementary,Sunnyside Elementary,TA,453.0
69,37680236038020,Chula Vista Elementary,Valle Lindo Elementary,91911-5699,http://schools.cvesd.org/schools/vallelindo/,Elementary,32.604937,-117.03275,2020-08-12,"1515 Oleander Avenue,Chula Vista,CA,91911",91911,"Valle Lindo Elementary, Chula Vista Elementary",S,San Diego,Chula Vista Elementary,Valle Lindo Elementary,TA,477.0
70,37680236038038,Chula Vista Elementary,Valley Vista Elementary,91902-1139,http://schools.cvesd.org/schools/valleyvista/,Elementary,32.659676,-117.04907,2019-02-13,"3724 Valley Vista Way,Bonita,CA,91902",91902,"Valley Vista Elementary, Chula Vista Elementary",S,San Diego,Chula Vista Elementary,Valley Vista Elementary,TA,621.0
71,37680236038046,Chula Vista Elementary,Vista Square Elementary,91910-3604,http://schools.cvesd.org/schools/vistasquare/,Elementary,32.635041,-117.08832,2020-08-13,"540 G Street,Chula Vista,CA,91910",91910,"Vista Square Elementary, Chula Vista Elementary",S,San Diego,Chula Vista Elementary,Vista Square Elementary,TA,777.0
72,37680236066971,Chula Vista Elementary,Parkview Elementary,91911-3826,http://schools.cvesd.org/schools/parkview/,Elementary,32.612989,-117.03115,2020-08-13,"575 Juniper Street,Chula Vista,CA,91911",91911,"Parkview Elementary, Chula Vista Elementary",S,San Diego,Chula Vista Elementary,Parkview Elementary,TA,399.0
73,37680236069090,Chula Vista Elementary,Juarez-Lincoln Elementary,92154-2599,http://schools.cvesd.org/schools/juarezlincoln/,Elementary,32.58072,-117.04543,2020-08-13,"849 Twining Avenue,San Diego,CA,92154",92154,"Juarez-Lincoln Elementary, Chula Vista Elementary",S,San Diego,Chula Vista Elementary,Juarez-Lincoln Elementary,TA,596.0
74,37680236070825,Chula Vista Elementary,Los Altos Elementary,92154-3731,http://schools.cvesd.org/schools/losaltos/,Elementary,32.572654,-117.04889,2019-02-13,"1332 Kenalan Drive,San Diego,CA,92154",92154,"Los Altos Elementary, Chula Vista Elementary",S,San Diego,Chula Vista Elementary,Los Altos Elementary,TA,353.0
75,37680236095020,Chula Vista Elementary,Tiffany (Burton C.) Elementary,91913-2612,http://schools.cvesd.org/schools/tiffany/,Elementary,32.64483,-116.99102,2020-08-13,"1691 Elmhurst Street,Chula Vista,CA,91913",91913,"Tiffany (Burton C.) Elementary, Chula Vista Elementary",S,San Diego,Chula Vista Elementary,Tiffany (Burton C.) Elementary,TA,531.0
76,37680236095038,Chula Vista Elementary,Otay Elementary,91911-5801,http://schools.cvesd.org/schools/otay/,Elementary,32.595806,-117.05804,2020-08-13,"1651 Albany Avenue,Chula Vista,CA,91911",91911,"Otay Elementary, Chula Vista Elementary",S,San Diego,Chula Vista Elementary,Otay Elementary,TA,619.0
77,37680236107775,Chula Vista Elementary,Chula Vista Hills Elementary,91910-7133,http://schools.cvesd.org/schools/chulavistahills/,Elementary,32.636251,-117.00246,2020-08-13,"980 Buena Vista Way,Chula Vista,CA,91910",91910,"Chula Vista Hills Elementary, Chula Vista Elementary",S,San Diego,Chula Vista Elementary,Chula Vista Hills Elementary,TA,575.0
78,37680236108492,Chula Vista Elementary,EastLake Elementary,91913-1263,http://schools.cvesd.org/schools/eastlake/,Elementary,32.657494,-116.98515,2019-02-13,"1955 Hillside Drive,Chula Vista,CA,91913",91913,"EastLake Elementary, Chula Vista Elementary",S,San Diego,Chula Vista Elementary,EastLake Elementary,TA,596.0
79,37680236109771,Chula Vista Elementary,Clear View,91910-7400,http://schools.cvesd.org/schools/clearview/,Elementary,32.644805,-117.04506,2019-06-25,"455 Windrose Way,Chula Vista,CA,91910",91910,"Clear View, Chula Vista Elementary",S,San Diego,Chula Vista Elementary,Clear View,TA,541.0
80,37680236113021,Chula Vista Elementary,Olympic View Elementary,91915-2127,http://schools.cvesd.org/schools/olympicview/,Elementary,32.63572,-116.96342,2020-08-13,"1220 South Greensview Drive,Chula Vista,CA,91915",91915,"Olympic View Elementary, Chula Vista Elementary",S,San Diego,Chula Vista Elementary,Olympic View Elementary,TA,782.0
81,37680236115646,Chula Vista Elementary,Casillas (Joseph) Elementary,91910-7164,http://schools.cvesd.org/schools/casillas/,Elementary,32.630446,-117.00915,2020-08-13,"1130 East J Street,Chula Vista,CA,91910",91910,"Casillas (Joseph) Elementary, Chula Vista Elementary",S,San Diego,Chula Vista Elementary,Casillas (Joseph) Elementary,TA,489.0
82,37680236116396,Chula Vista Elementary,Marshall (Thurgood) Elementary,91914-3537,http://schools.cvesd.org/schools/marshall/,Elementary,32.659064,-116.9682,2020-08-13,"2295 MacKenzie Creek Road,Chula Vista,CA,91914",91914,"Marshall (Thurgood) Elementary, Chula Vista Elementary",S,San Diego,Chula Vista Elementary,Marshall (Thurgood) Elementary,TA,691.0
83,37680236118970,Chula Vista Elementary,Heritage Elementary,91913-1480,http://schools.cvesd.org/schools/heritage/,Elementary,32.626236,-116.9953,2019-02-13,"1450 Santa Lucia Road,Chula Vista,CA,91913",91913,"Heritage Elementary, Chula Vista Elementary",S,San Diego,Chula Vista Elementary,Heritage Elementary,TA,858.0
84,37680236118988,Chula Vista Elementary,McMillin (Corky) Elementary,91913-1799,http://schools.cvesd.org/schools/mcmillin/,Elementary,32.631793,-116.98529,2020-08-13,"1201 Santa Cora Avenue,Chula Vista,CA,91913",91913,"McMillin (Corky) Elementary, Chula Vista Elementary",S,San Diego,Chula Vista Elementary,McMillin (Corky) Elementary,TA,891.0
85,37680313731478,Coronado Unified,Coronado High,92118-2113,,High School,32.691403,-117.17817,2020-08-13,"650 D Avenue,Coronado,CA,92118",92118,"Coronado High, Coronado Unified",S,San Diego,Coronado Unified,Coronado High,TA,1193.0
86,37680316038053,Coronado Unified,Coronado Village Elementary,92118-1600,,Elementary,32.693914,-117.18213,2020-08-13,"600 Sixth Street,Coronado,CA,92118",92118,"Coronado Village Elementary, Coronado Unified",S,San Diego,Coronado Unified,Coronado Village Elementary,TA,893.0
87,37680316038087,Coronado Unified,Silver Strand Elementary,92118-3124,,Elementary,32.643984,-117.14542,2020-08-13,"1350 Leyte Road,Coronado,CA,92118",92118,"Silver Strand Elementary, Coronado Unified",S,San Diego,Coronado Unified,Silver Strand Elementary,TA,369.0
88,37680316059570,Coronado Unified,Coronado Middle,92118-2110,,Intermediate/Middle/Junior High,32.69378,-117.17956,2020-08-13,"550 F Avenue,Coronado,CA,92118",92118,"Coronado Middle, Coronado Unified",S,San Diego,Coronado Unified,Coronado Middle,TA,764.0
89,37680496038095,Dehesa Elementary,Dehesa Elementary,92019-2922,http://dehesasd.net/,Elementary,32.781239,-116.8512,2020-03-10,"4612 Dehesa Road,El Cajon,CA,92019",92019,"Dehesa Elementary, Dehesa Elementary",S,San Diego,Dehesa Elementary,Dehesa Elementary,TA,163.0
90,37680560110114,Del Mar Union Elementary,Sycamore Ridge,92130-2650,http://www.dmusd.org/sycamore,Elementary,32.954011,-117.19998,2020-08-13,"5333 Old Carmel Valley Road,San Diego,CA,92130",92130,"Sycamore Ridge, Del Mar Union Elementary",S,San Diego,Del Mar Union Elementary,Sycamore Ridge,TA,627.0
91,37680560114686,Del Mar Union Elementary,Ocean Air,92130-6974,http://www.dmusd.org/oceanair,Elementary,32.9281,-117.2147,2020-08-13,"11444 Canter Heights Drive,San Diego,CA,92130",92130,"Ocean Air, Del Mar Union Elementary",S,San Diego,Del Mar Union Elementary,Ocean Air,TA,672.0
92,37680566038111,Del Mar Union Elementary,Del Mar Heights Elementary,92014-3453,http://www.dmusd.org/heights,Elementary,32.945637,-117.24973,2020-08-13,"13555 Boquita Drive,Del Mar,CA,92014",92014,"Del Mar Heights Elementary, Del Mar Union Elementary",S,San Diego,Del Mar Union Elementary,Del Mar Heights Elementary,TA,507.0
93,37680566088983,Del Mar Union Elementary,Del Mar Hills Elementary,92014-0640,http://www.dmusd.org/hills,Elementary,32.954058,-117.24724,2020-08-13,"14085 Mango Drive,Del Mar,CA,92014",92014,"Del Mar Hills Elementary, Del Mar Union Elementary",S,San Diego,Del Mar Union Elementary,Del Mar Hills Elementary,TA,305.0
94,37680566110696,Del Mar Union Elementary,Carmel Del Mar Elementary,92130-2222,http://www.dmusd.org/cdm,Elementary,32.94087,-117.22955,2020-08-13,"12345 Carmel Park Drive,San Diego,CA,92130",92130,"Carmel Del Mar Elementary, Del Mar Union Elementary",S,San Diego,Del Mar Union Elementary,Carmel Del Mar Elementary,TA,548.0
95,37680566115620,Del Mar Union Elementary,Ashley Falls Elementary,92130-3717,http://www.dmusd.org/af,Elementary,32.957549,-117.20781,2020-08-13,"13030 Ashley Falls Drive,San Diego,CA,92130",92130,"Ashley Falls Elementary, Del Mar Union Elementary",S,San Diego,Del Mar Union Elementary,Ashley Falls Elementary,TA,557.0
96,37680566117923,Del Mar Union Elementary,Sage Canyon,92130-4875,http://www.dmusd.org/sage,Elementary,32.925277,-117.20411,2020-08-13,"5290 Harvest Run Drive,San Diego,CA,92130",92130,"Sage Canyon, Del Mar Union Elementary",S,San Diego,Del Mar Union Elementary,Sage Canyon,TA,679.0
97,37680566120596,Del Mar Union Elementary,Torrey Hills,92130-8657,http://www.dmusd.org/torrey,Elementary,32.913451,-117.2232,2020-08-13,"10830 Calle Mar de Mariposa,San Diego,CA,92130",92130,"Torrey Hills, Del Mar Union Elementary",S,San Diego,Del Mar Union Elementary,Torrey Hills,TA,589.0
98,37680806038145,Encinitas Union Elementary,Paul Ecke-Central Elementary,92024-2119,http://www.eusd.k12.ca.us/pe,Elementary,33.058062,-117.29703,2019-07-12,"185 Union Street,Encinitas,CA,92024",92024,"Paul Ecke-Central Elementary, Encinitas Union Elementary",S,San Diego,Encinitas Union Elementary,Paul Ecke-Central Elementary,TA,692.0
99,37680806038152,Encinitas Union Elementary,Ocean Knoll Elementary,92024-3901,http://www.eusd.k12.ca.us/ok,Elementary,33.039889,-117.2725,2020-08-13,"910 Melba Road,Encinitas,CA,92024",92024,"Ocean Knoll Elementary, Encinitas Union Elementary",S,San Diego,Encinitas Union Elementary,Ocean Knoll Elementary,TA,692.0
100,37680806066989,Encinitas Union Elementary,Capri Elementary,92024-1214,http://www.eusd.k12.ca.us/ca,Elementary,33.076064,-117.28846,2019-02-13,"941 Capri Road,Encinitas,CA,92024",92024,"Capri Elementary, Encinitas Union Elementary",S,San Diego,Encinitas Union Elementary,Capri Elementary,TA,739.0
101,37680806095046,Encinitas Union Elementary,Park Dale Lane Elementary,92024-4324,http://www.eusd.k12.ca.us/pd,Elementary,33.046392,-117.24311,2020-08-13,"2050 Park Dale Lane,Encinitas,CA,92024",92024,"Park Dale Lane Elementary, Encinitas Union Elementary",S,San Diego,Encinitas Union Elementary,Park Dale Lane Elementary,TA,492.0
102,37680806099402,Encinitas Union Elementary,Flora Vista Elementary,92024-2417,http://www.eusd.k12.ca.us/fv,Elementary,33.055334,-117.25288,2020-08-13,"1690 Wandering Road,Encinitas,CA,92024",92024,"Flora Vista Elementary, Encinitas Union Elementary",S,San Diego,Encinitas Union Elementary,Flora Vista Elementary,TA,473.0
103,37680806106132,Encinitas Union Elementary,La Costa Heights Elementary,92009-8331,http://www.eusd.k12.ca.us/lc,Elementary,33.080785,-117.24484,2020-08-13,"3035 Levante Street,Carlsbad,CA,92009",92009,"La Costa Heights Elementary, Encinitas Union Elementary",S,San Diego,Encinitas Union Elementary,La Costa Heights Elementary,TA,695.0
104,37680806108534,Encinitas Union Elementary,Mission Estancia Elementary,92009-9319,http://www.eusd.k12.ca.us/me,Elementary,33.072276,-117.23533,2020-08-13,"3330 Calle Barcelona,Carlsbad,CA,92009",92009,"Mission Estancia Elementary, Encinitas Union Elementary",S,San Diego,Encinitas Union Elementary,Mission Estancia Elementary,TA,513.0
105,37680806112445,Encinitas Union Elementary,Olivenhain Pioneer Elementary,92009-8900,http://www.eusd.k12.ca.us/op,Elementary,33.064891,-117.23227,2020-08-13,"8000 Calle Acervo,Carlsbad,CA,92009",92009,"Olivenhain Pioneer Elementary, Encinitas Union Elementary",S,San Diego,Encinitas Union Elementary,Olivenhain Pioneer Elementary,TA,583.0
106,37680806117709,Encinitas Union Elementary,El Camino Creek Elementary,92009-9028,http://www.eusd.k12.ca.us/ec,Elementary,33.077016,-117.25892,2020-08-13,"7885 Paseo Aliso,Carlsbad,CA,92009",92009,"El Camino Creek Elementary, Encinitas Union Elementary",S,San Diego,Encinitas Union Elementary,El Camino Creek Elementary,TA,602.0
107,37680980102590,Escondido Union,Bear Valley Middle,92025-7618,http://www.eusd.org,Intermediate/Middle/Junior High,33.083711,-117.05634,2020-08-13,"3003 Bear Valley Parkway,Escondido,CA,92025",92025,"Bear Valley Middle, Escondido Union",S,San Diego,Escondido Union,Bear Valley Middle,TA,1064.0
108,37680980102608,Escondido Union,Farr Avenue Elementary,92026-3121,http://www.eusd.org,Elementary,33.138769,-117.0776,2019-02-13,"933 Farr Avenue,Escondido,CA,92026",92026,"Farr Avenue Elementary, Escondido Union",S,San Diego,Escondido Union,Farr Avenue Elementary,TA,661.0
109,37680980107862,Escondido Union,Reidy Creek Elementary,92026-8802,http://www.eusd.org,Elementary,33.17259,-117.08928,2020-08-24,"2869 North Broadway,Escondido,CA,92026",92026,"Reidy Creek Elementary, Escondido Union",S,San Diego,Escondido Union,Reidy Creek Elementary,TA,695.0
110,37680980107870,Escondido Union,Bernardo Elementary,92029-5634,http://www.eusd.org,Elementary,33.084707,-117.09137,2020-08-13,"1122 Mountain Heights Drive,Escondido,CA,92029",92029,"Bernardo Elementary, Escondido Union",S,San Diego,Escondido Union,Bernardo Elementary,TA,605.0
111,37680980131813,Escondido Union,Quantum Academy,92027-5331,http://www.eusd.org,Intermediate/Middle/Junior High,33.143614,-117.03501,2020-08-13,"420 North Falconer Road,Escondido,CA,92027",92027,"Quantum Academy, Escondido Union",S,San Diego,Escondido Union,Quantum Academy,TA,308.0
112,37680986038178,Escondido Union,Central Elementary,92025-4134,http://www.eusd.org,Elementary,33.118835,-117.07991,2020-08-24,"122 West Fourth Avenue,Escondido,CA,92025",92025,"Central Elementary, Escondido Union",S,San Diego,Escondido Union,Central Elementary,TA,649.0
113,37680986038186,Escondido Union,Conway Elementary,92027-1629,http://www.eusd.org,Elementary,33.146289,-117.07398,2020-08-13,"1325 Conway Drive,Escondido,CA,92027",92027,"Conway Elementary, Escondido Union",S,San Diego,Escondido Union,Conway Elementary,TA,573.0
114,37680986038194,Escondido Union,Del Dios Academy of Arts and Sciences,92025-2204,http://www.eusd.org,Intermediate/Middle/Junior High,33.11037,-117.10117,2020-08-13,"1400 West Ninth Avenue,Escondido,CA,92025",92025,"Del Dios Academy of Arts and Sciences, Escondido Union",S,San Diego,Escondido Union,Del Dios Academy of Arts and Sciences,TA,833.0
115,37680986038202,Escondido Union,Felicita Elementary,92025-5510,http://www.eusd.org,Elementary,33.106493,-117.08245,2020-08-13,"737 West 13th Avenue,Escondido,CA,92025",92025,"Felicita Elementary, Escondido Union",S,San Diego,Escondido Union,Felicita Elementary,TA,574.0
116,37680986038210,Escondido Union,Mission Middle,92026-2216,http://www.eusd.org,Intermediate/Middle/Junior High,33.13394,-117.07324,2020-08-13,"939 East Mission Avenue,Escondido,CA,92026",92026,"Mission Middle, Escondido Union",S,San Diego,Escondido Union,Mission Middle,TA,1059.0
117,37680986038228,Escondido Union,Juniper Elementary,92025-6240,http://www.eusd.org,Elementary,33.105286,-117.06731,2020-08-13,"1809 South Juniper Street,Escondido,CA,92025",92025,"Juniper Elementary, Escondido Union",S,San Diego,Escondido Union,Juniper Elementary,TA,682.0
118,37680986038236,Escondido Union,Lincoln Elementary,92026-3043,http://www.eusd.org,Elementary,33.134291,-117.08714,2020-08-24,"1029 North Broadway,Escondido,CA,92026",92026,"Lincoln Elementary, Escondido Union",S,San Diego,Escondido Union,Lincoln Elementary,TA,549.0
119,37680986038244,Escondido Union,Oak Hill Elementary,92027-1629,http://www.eusd.org,Elementary,33.12953,-117.05125,2020-08-13,"1820 Oak Hill Drive,Escondido,CA,92027",92027,"Oak Hill Elementary, Escondido Union",S,San Diego,Escondido Union,Oak Hill Elementary,TA,813.0
120,37680986038251,Escondido Union,Rose Elementary,92027-1629,http://www.eusd.org,Elementary,33.143321,-117.0659,2020-08-13,"906 North Rose Avenue,Escondido,CA,92027",92027,"Rose Elementary, Escondido Union",S,San Diego,Escondido Union,Rose Elementary,TA,563.0
121,37680986038939,Escondido Union,Glen View Elementary,92027-1629,http://www.eusd.org,Elementary,33.146627,-117.05374,2019-08-13,"2201 East Mission Avenue,Escondido,CA,92027",92027,"Glen View Elementary, Escondido Union",S,San Diego,Escondido Union,Glen View Elementary,TA,718.0
122,37680986038947,Escondido Union,Orange Glen Elementary,92027-2930,http://www.eusd.org,Elementary,33.145429,-117.03605,2020-08-13,"2861 Valley Parkway,Escondido,CA,92027",92027,"Orange Glen Elementary, Escondido Union",S,San Diego,Escondido Union,Orange Glen Elementary,TA,666.0
123,37680986066997,Escondido Union,Miller Elementary,92025-5932,http://www.eusd.org,Elementary,33.09646,-117.07896,2020-08-13,"1975 Miller Avenue,Escondido,CA,92025",92025,"Miller Elementary, Escondido Union",S,San Diego,Escondido Union,Miller Elementary,TA,460.0
124,37680986093215,Escondido Union,Hidden Valley Middle,92027-1629,http://www.eusd.org,Intermediate/Middle/Junior High,33.133732,-117.03329,2020-08-13,"2700 Reed Road,Escondido,CA,92027",92027,"Hidden Valley Middle, Escondido Union",S,San Diego,Escondido Union,Hidden Valley Middle,TA,1008.0
125,37680986102750,Escondido Union,North Broadway Elementary,92026-1412,http://www.eusd.org,Elementary,33.161048,-117.09293,2020-08-24,"2301 North Broadway,Escondido,CA,92026",92026,"North Broadway Elementary, Escondido Union",S,San Diego,Escondido Union,North Broadway Elementary,TA,633.0
126,37680986105944,Escondido Union,Rincon Middle,92026-1512,http://www.eusd.org,Intermediate/Middle/Junior High,33.157721,-117.08255,2020-08-24,"925 Lehner Avenue,Escondido,CA,92026",92026,"Rincon Middle, Escondido Union",S,San Diego,Escondido Union,Rincon Middle,TA,1210.0
127,37680986107882,Escondido Union,L. R. Green Elementary,92025-7300,http://www.eusd.org,Elementary,33.086003,-117.05973,2020-08-13,"3115 Las Palmas Avenue,Escondido,CA,92025",92025,"L. R. Green Elementary, Escondido Union",S,San Diego,Escondido Union,L. R. Green Elementary,TA,857.0
128,37680986110381,Escondido Union,Pioneer Elementary,92027-1629,http://www.eusd.org,Elementary,33.138286,-117.07223,2019-02-13,"980 North Ash Street,Escondido,CA,92027",92027,"Pioneer Elementary, Escondido Union",S,San Diego,Escondido Union,Pioneer Elementary,TA,746.0
129,37680986111769,Escondido Union,Rock Springs Elementary,92026-2200,http://www.eusd.org,Elementary,33.13701,-117.1059,2020-08-13,"1155 Deodar Road,Escondido,CA,92026",92026,"Rock Springs Elementary, Escondido Union",S,San Diego,Escondido Union,Rock Springs Elementary,TA,566.0
130,37681060127241,Escondido Union High,Del Lago Academy - Campus of Applied Science,92029-4211,http://www.dellagoacademy.org/,High School,33.096589,-117.10349,2019-02-13,"1740 Scenic Trail Way,Escondido,CA,92029",92029,"Del Lago Academy - Campus of Applied Science, Escondido Union High",S,San Diego,Escondido Union High,Del Lago Academy - Campus of Applied Science,TA,830.0
131,37681063730058,Escondido Union High,San Pasqual High,92025-7636,http://www.sphseagles.com,High School,33.077688,-117.05724,2019-02-13,"3300 Bear Valley Parkway,Escondido,CA,92025",92025,"San Pasqual High, Escondido Union High",S,San Diego,Escondido Union High,San Pasqual High,TA,2294.0
132,37681063732054,Escondido Union High,Valley High (Continuation),92027-5333,http://www.vhsgrizzlies.com,High School,33.142244,-117.02326,2019-07-12,"410 North Hidden Trails Road,Escondido,CA,92027",92027,"Valley High (Continuation), Escondido Union High",S,San Diego,Escondido Union High,Valley High (Continuation),TA,416.0
133,37681063732062,Escondido Union High,Escondido High,92026-2015,http://www.ehscougars.com,High School,33.144413,-117.09028,2019-02-13,"1535 North Broadway,Escondido,CA,92026",92026,"Escondido High, Escondido Union High",S,San Diego,Escondido Union High,Escondido High,TA,2373.0
134,37681063735313,Escondido Union High,Orange Glen High,92027-4115,http://www.orangeglenhigh.org/,High School,33.129474,-117.038,2020-08-14,"2200 Glen Ridge Road,Escondido,CA,92027",92027,"Orange Glen High, Escondido Union High",S,San Diego,Escondido Union High,Orange Glen High,TA,1950.0
135,37681140115519,Fallbrook Union Elementary,Santa Margarita Academy,92028-2108,http://www.fuesd.org/apps/pages/index.jsp?urec_id775631&typed&prec_id1195348,Intermediate/Middle/Junior High,33.380281,-117.25397,2020-08-13,"400 West Elder Street,Fallbrook,CA,92028",92028,"Santa Margarita Academy, Fallbrook Union Elementary",S,San Diego,Fallbrook Union Elementary,Santa Margarita Academy,TA,12.0
136,37681140131920,Fallbrook Union Elementary,Maie Ellis Elementary,92028-2108,http://mee.fuesd.org/,Elementary,33.380281,-117.25397,2019-02-13,"400 West Elder Street,Fallbrook,CA,92028",92028,"Maie Ellis Elementary, Fallbrook Union Elementary",S,San Diego,Fallbrook Union Elementary,Maie Ellis Elementary,TA,567.0
137,37681146038269,Fallbrook Union Elementary,La Paloma Elementary,92028-2108,http://lap.fuesd.org/,Elementary,33.378156,-117.23539,2020-08-13,"300 Heald Lane,Fallbrook,CA,92028",92028,"La Paloma Elementary, Fallbrook Union Elementary",S,San Diego,Fallbrook Union Elementary,La Paloma Elementary,TA,612.0
138,37681146038277,Fallbrook Union Elementary,James E. Potter Intermediate,92028-2108,http://pjh.fuesd.org/,Intermediate/Middle/Junior High,33.369188,-117.22164,2020-08-13,"1743 Reche Road,Fallbrook,CA,92028",92028,"James E. Potter Intermediate, Fallbrook Union Elementary",S,San Diego,Fallbrook Union Elementary,James E. Potter Intermediate,TA,924.0
139,37681146038285,Fallbrook Union Elementary,Fallbrook STEM Academy,92028-2108,http://fss.fuesd.org/,Elementary,33.376687,-117.25531,2020-08-13,"405 West Fallbrook Street,Fallbrook,CA,92028",92028,"Fallbrook STEM Academy, Fallbrook Union Elementary",S,San Diego,Fallbrook Union Elementary,Fallbrook STEM Academy,TA,624.0
140,37681146038301,Fallbrook Union Elementary,Mary Fay Pendleton Elementary,92058-8234,http://mfp.fuesd.org/,Elementary,33.323361,-117.31057,2020-08-13,"110 Marine Drive,Oceanside,CA,92058",92058,"Mary Fay Pendleton Elementary, Fallbrook Union Elementary",S,San Diego,Fallbrook Union Elementary,Mary Fay Pendleton Elementary,TA,962.0
141,37681146096515,Fallbrook Union Elementary,San Onofre Elementary,92672-2517,http://sos.fuesd.org/,Elementary,33.390408,-117.57875,2020-08-13,"200 Pate Road,San Clemente,CA,92672",92672,"San Onofre Elementary, Fallbrook Union Elementary",S,San Diego,Fallbrook Union Elementary,San Onofre Elementary,TA,504.0
142,37681146096911,Fallbrook Union Elementary,Fallbrook Homeschool Academy,92028-2108,http://fha.fuesd.org/,Elementary,33.378171,-117.23546,2020-08-13,"300 Heald Lane,Fallbrook,CA,92028",92028,"Fallbrook Homeschool Academy, Fallbrook Union Elementary",S,San Diego,Fallbrook Union Elementary,Fallbrook Homeschool Academy,TA,60.0
143,37681146109524,Fallbrook Union Elementary,Live Oak Elementary,92028-2108,http://loe.fuesd.org/,Elementary,33.369178,-117.2174,2020-08-13,"1978 Reche Road,Fallbrook,CA,92028",92028,"Live Oak Elementary, Fallbrook Union Elementary",S,San Diego,Fallbrook Union Elementary,Live Oak Elementary,TA,693.0
144,37681146116420,Fallbrook Union Elementary,William H. Frazier Elementary,92028-2108,,Elementary,33.387442,-117.22413,2020-08-13,"1835 Gum Tree Lane,Fallbrook,CA,92028",92028,"William H. Frazier Elementary, Fallbrook Union Elementary",S,San Diego,Fallbrook Union Elementary,William H. Frazier Elementary,TA,614.0
145,37681223730967,Fallbrook Union High,Oasis High (Alternative),92028-4500,http://www.oasishigh.org,High School,33.351956,-117.23611,2020-08-13,"2208 South Stage Coach Lane,Fallbrook,CA,92028",92028,"Oasis High (Alternative), Fallbrook Union High",S,San Diego,Fallbrook Union High,Oasis High (Alternative),TA,108.0
146,37681223732179,Fallbrook Union High,Fallbrook High,92028-4429,http://www.fallbrookhs.org,High School,33.349505,-117.24137,2020-09-08,"2400 South Stage Coach Lane,Fallbrook,CA,92028",92028,"Fallbrook High, Fallbrook Union High",S,San Diego,Fallbrook Union High,Fallbrook High,TA,2138.0
147,37681223732195,Fallbrook Union High,Ivy High (Continuation),92028-4500,http://www.ivyhigh.org,High School,33.347369,-117.23808,2020-08-13,"1056 Winterhaven Road,Fallbrook,CA,92028",92028,"Ivy High (Continuation), Fallbrook Union High",S,San Diego,Fallbrook Union High,Ivy High (Continuation),TA,153.0
148,37681300128793,Grossmont Union High,MERIT Academy,92020-1109,http://merit.guhsd.net,High School,32.816861,-116.97965,2020-08-13,"1600 North Cuyamaca Street,El Cajon,CA,92020",92020,"MERIT Academy, Grossmont Union High",S,San Diego,Grossmont Union High,MERIT Academy,TA,100.0
149,37681300128819,Grossmont Union High,REACH Academy,92019-2359,http://reach.guhsd.net,High School,32.793343,-116.93536,2020-08-13,"230 Jamacha Road,El Cajon,CA,92019",92019,"REACH Academy, Grossmont Union High",S,San Diego,Grossmont Union High,REACH Academy,TA,35.0
150,37681300132548,Grossmont Union High,IDEA Center,92020-1187,http://idea.guhsd.net,High School,32.816861,-116.97965,2020-08-13,"1600 North Cuyamaca Street,El Cajon,CA,92020",92020,"IDEA Center, Grossmont Union High",S,San Diego,Grossmont Union High,IDEA Center,TA,270.0
151,37681303730066,Grossmont Union High,Valhalla High,92019-3742,http://valhalla.guhsd.net/,High School,32.762192,-116.92037,2020-09-09,"1725 Hillsdale Road,El Cajon,CA,92019",92019,"Valhalla High, Grossmont Union High",S,San Diego,Grossmont Union High,Valhalla High,TA,2194.0
152,37681303730702,Grossmont Union High,West Hills High,92071-2046,http://wolfpack.guhsd.net/,High School,32.849846,-117.01297,2020-08-13,"8756 Mast Boulevard,Santee,CA,92071",92071,"West Hills High, Grossmont Union High",S,San Diego,Grossmont Union High,West Hills High,TA,1791.0
153,37681303731486,Grossmont Union High,Elite Academy,92019-2359,http://elite.guhsd.net,High School,32.793615,-116.93495,2020-08-13,"230 Jamacha Boulevard,El Cajon,CA,92019",92019,"Elite Academy, Grossmont Union High",S,San Diego,Grossmont Union High,Elite Academy,TA,50.0
154,37681303731536,Grossmont Union High,Grossmont Middle College High,92020-1765,http://middlecollege.guhsd.net,High School,32.814927,-117.00889,2017-07-19,"8800 Grossmont College Drive,El Cajon,CA,92020",92020,"Grossmont Middle College High, Grossmont Union High",S,San Diego,Grossmont Union High,Grossmont Middle College High,TA,71.0
155,37681303731692,Grossmont Union High,El Cajon Valley High,92021-6226,http://braves.guhsd.net/,High School,32.800133,-116.94728,2020-08-13,"1035 East Madison Avenue,El Cajon,CA,92021",92021,"El Cajon Valley High, Grossmont Union High",S,San Diego,Grossmont Union High,El Cajon Valley High,TA,1835.0
156,37681303731809,Grossmont Union High,El Capitan High,92040-2406,http://elcapitan.guhsd.net/,High School,32.868106,-116.91489,2020-08-13,"10410 Ashwood Street,Lakeside,CA,92040",92040,"El Capitan High, Grossmont Union High",S,San Diego,Grossmont Union High,El Capitan High,TA,1817.0
157,37681303732336,Grossmont Union High,Granite Hills High,92019-1052,http://granite.guhsd.net/,High School,32.800159,-116.91681,2020-08-13,"1719 East Madison Avenue,El Cajon,CA,92019",92019,"Granite Hills High, Grossmont Union High",S,San Diego,Grossmont Union High,Granite Hills High,TA,2388.0
158,37681303732559,Grossmont Union High,Chaparral High,92020-1187,http://chaparral.guhsd.net/,High School,32.816896,-116.9797,2020-08-13,"1600 North Cuyamaca Street,El Cajon,CA,92020",92020,"Chaparral High, Grossmont Union High",S,San Diego,Grossmont Union High,Chaparral High,TA,178.0
159,37681303732625,Grossmont Union High,Grossmont High,91944-1043,http://www.foothillers.com,High School,32.78067,-116.98498,2020-08-13,"1100 Murray Drive,La Mesa,CA,91944",91944,"Grossmont High, Grossmont Union High",S,San Diego,Grossmont Union High,Grossmont High,TA,2335.0
160,37681303734548,Grossmont Union High,Monte Vista High,91977-6934,http://monarchs.guhsd.net/,High School,32.738087,-116.97221,2020-08-13,"3230 Sweetwater Springs Boulevard,Spring Valley,CA,91977",91977,"Monte Vista High, Grossmont Union High",S,San Diego,Grossmont Union High,Monte Vista High,TA,1811.0
161,37681303734761,Grossmont Union High,Mount Miguel High,91977-3765,http://mountmiguel.guhsd.net,High School,32.724917,-117.01689,2020-08-13,"8585 Blossom Lane,Spring Valley,CA,91977",91977,"Mount Miguel High, Grossmont Union High",S,San Diego,Grossmont Union High,Mount Miguel High,TA,1455.0
162,37681303737905,Grossmont Union High,Santana High,92071-1903,http://sultans.guhsd.net/,High School,32.857284,-116.97097,2020-08-13,"9915 North Magnolia Avenue,Santee,CA,92071",92071,"Santana High, Grossmont Union High",S,San Diego,Grossmont Union High,Santana High,TA,1684.0
163,37681556097182,Jamul-Dulzura Union Elementary,Oak Grove Middle,91935-3223,http://www.jdusd.net/middle.cfm,Intermediate/Middle/Junior High,32.722358,-116.86159,2020-08-13,"14344 Olive Vista Drive,Jamul,CA,91935",91935,"Oak Grove Middle, Jamul-Dulzura Union Elementary",S,San Diego,Jamul-Dulzura Union Elementary,Oak Grove Middle,TA,234.0
164,37681636038327,Julian Union Elementary,Julian Elementary,92036-0337,,Elementary,33.07808,-116.59581,2020-08-15,"1704 Cape Horn,Julian,CA,92036",92036,"Julian Elementary, Julian Union Elementary",S,San Diego,Julian Union Elementary,Julian Elementary,TA,203.0
165,37681636105845,Julian Union Elementary,Julian Junior High,92036-0337,,Intermediate/Middle/Junior High,33.07808,-116.59581,2020-08-15,"1704 Cape Horn,Julian,CA,92036",92036,"Julian Junior High, Julian Union Elementary",S,San Diego,Julian Union Elementary,Julian Junior High,TA,114.0
166,37681713733219,Julian Union High,Julian High,92036-0417,http://www.juhsd.org,High School,33.076465,-116.59451,2020-08-13,"1656 Highway 78,Julian,CA,92036",92036,"Julian High, Julian Union High",S,San Diego,Julian Union High,Julian High,TA,111.0
167,37681890129288,Lakeside Union Elementary,Eucalyptus Hills Elementary,92040-1046,http://www.lsusd.net,Elementary,32.892434,-116.94779,2019-08-23,"11838 Valle Vista Road,Lakeside,CA,92040",92040,"Eucalyptus Hills Elementary, Lakeside Union Elementary",S,San Diego,Lakeside Union Elementary,Eucalyptus Hills Elementary,TA,122.0
168,37681896038343,Lakeside Union Elementary,Lakeside Farms Elementary,92040-0578,http://www.lsusd.net,Elementary,32.867036,-116.93598,2020-08-13,"11915 Lakeside Avenue,Lakeside,CA,92040",92040,"Lakeside Farms Elementary, Lakeside Union Elementary",S,San Diego,Lakeside Union Elementary,Lakeside Farms Elementary,TA,718.0
169,37681896038350,Lakeside Union Elementary,Lakeside Middle,92040-0578,http://www.lsusd.net,Intermediate/Middle/Junior High,32.85513,-116.93804,2019-02-13,"11833 Woodside Avenue,Lakeside,CA,92040",92040,"Lakeside Middle, Lakeside Union Elementary",S,San Diego,Lakeside Union Elementary,Lakeside Middle,TA,869.0
170,37681896038368,Lakeside Union Elementary,Lakeview Elementary,92040-0578,http://www.lsusd.net,Elementary,32.843603,-116.90428,2019-02-13,"9205 Lakeview Road,Lakeside,CA,92040",92040,"Lakeview Elementary, Lakeside Union Elementary",S,San Diego,Lakeside Union Elementary,Lakeview Elementary,TA,736.0
171,37681896038376,Lakeside Union Elementary,Lindo Park Elementary,92040-0578,http://www.lsusd.net,Elementary,32.859031,-116.91443,2020-08-13,"12824 Lakeshore Drive,Lakeside,CA,92040",92040,"Lindo Park Elementary, Lakeside Union Elementary",S,San Diego,Lakeside Union Elementary,Lindo Park Elementary,TA,566.0
172,37681896038384,Lakeside Union Elementary,Riverview Elementary,92040-4539,http://www.lsusd.net,Elementary,32.846449,-116.93109,2019-08-22,"9308 Winter Gardens Boulevard,Lakeside,CA,92040",92040,"Riverview Elementary, Lakeside Union Elementary",S,San Diego,Lakeside Union Elementary,Riverview Elementary,TA,611.0
173,37681896038392,Lakeside Union Elementary,Winter Gardens Elementary,92040-5406,http://www.lsusd.net,Elementary,32.831458,-116.93122,2019-08-23,"8501 Pueblo Road,Lakeside,CA,92040",92040,"Winter Gardens Elementary, Lakeside Union Elementary",S,San Diego,Lakeside Union Elementary,Winter Gardens Elementary,TA,374.0
174,37681896085047,Lakeside Union Elementary,Tierra del Sol Middle,92040-4317,http://www.lsusd.net,Intermediate/Middle/Junior High,32.854481,-116.91164,2019-02-13,"9611 Petite Lane,Lakeside,CA,92040",92040,"Tierra del Sol Middle, Lakeside Union Elementary",S,San Diego,Lakeside Union Elementary,Tierra del Sol Middle,TA,812.0
175,37681896110092,Lakeside Union Elementary,Lemon Crest Elementary,92040-0578,http://www.lsusd.net,Elementary,32.85228,-116.92172,2019-02-13,"12463 Lemon Crest Drive,Lakeside,CA,92040",92040,"Lemon Crest Elementary, Lakeside Union Elementary",S,San Diego,Lakeside Union Elementary,Lemon Crest Elementary,TA,622.0
176,37681970115543,La Mesa-Spring Valley,Quest Academy,91977-3336,http://www.lmsvschools.org,Intermediate/Middle/Junior High,32.730135,-117.00817,2019-02-13,"8805 Tyler Street,Spring Valley,CA,91977",91977,"Quest Academy, La Mesa-Spring Valley",S,San Diego,La Mesa-Spring Valley,Quest Academy,TA,35.0
177,37681970132290,La Mesa-Spring Valley,La Mesa Arts Academy,91942-6212,http://www.lmsvschools.org,Intermediate/Middle/Junior High,32.75519,-117.03025,2020-08-13,"4200 Parks Avenue,La Mesa,CA,91942",91942,"La Mesa Arts Academy, La Mesa-Spring Valley",S,San Diego,La Mesa-Spring Valley,La Mesa Arts Academy,TA,1108.0
178,37681970132431,La Mesa-Spring Valley,"Science, Technology, Engineering, Arts, and Math Academy at La Presa",91977-4819,http://www.lmsvschools.org,Intermediate/Middle/Junior High,32.712351,-117.00522,2020-08-13,"1001 Leland Street,Spring Valley,CA,91977",91977,"Science, Technology, Engineering, Arts, and Math Academy at La Presa, La Mesa-Spring Valley",S,San Diego,La Mesa-Spring Valley,"Science, Technology, Engineering, Arts, and Math Academy at La Presa",TA,1010.0
179,37681970132951,La Mesa-Spring Valley,Trust Blended Learning,91942-3400,http://www.lmsvschools.org,Elementary,32.790456,-117.00419,2020-08-13,"9009 Park Placeaza Drive,La Mesa,CA,91942",91942,"Trust Blended Learning, La Mesa-Spring Valley",S,San Diego,La Mesa-Spring Valley,Trust Blended Learning,TA,60.0
180,37681970134155,La Mesa-Spring Valley,Spring Valley Academy,91977-1437,http://www.lmsvschools.org,Intermediate/Middle/Junior High,32.750413,-116.98775,2020-08-13,"3900 Conrad Drive,Spring Valley,CA,91977",91977,"Spring Valley Academy, La Mesa-Spring Valley",S,San Diego,La Mesa-Spring Valley,Spring Valley Academy,TA,933.0
181,37681976038400,La Mesa-Spring Valley,Avondale Elementary,91977-3737,http://www.lmsvschools.org,Elementary,32.719139,-117.01727,2020-08-13,"8401 Stansbury Street,Spring Valley,CA,91977",91977,"Avondale Elementary, La Mesa-Spring Valley",S,San Diego,La Mesa-Spring Valley,Avondale Elementary,TA,473.0
182,37681976038418,La Mesa-Spring Valley,Bancroft Elementary,91977-3336,http://www.lmsvschools.org,Elementary,32.730135,-117.00817,2020-08-13,"8805 Tyler Street,Spring Valley,CA,91977",91977,"Bancroft Elementary, La Mesa-Spring Valley",S,San Diego,La Mesa-Spring Valley,Bancroft Elementary,TA,556.0
183,37681976038434,La Mesa-Spring Valley,Casa de Oro Elementary,91977-1720,http://www.lmsvschools.org,Elementary,32.747767,-116.97276,2020-08-13,"10227 Ramona Drive,Spring Valley,CA,91977",91977,"Casa de Oro Elementary, La Mesa-Spring Valley",S,San Diego,La Mesa-Spring Valley,Casa de Oro Elementary,TA,394.0
184,37681976038442,La Mesa-Spring Valley,Fletcher Hills Elementary,92020-2809,http://www.lmsvschools.org,Elementary,32.800478,-116.99618,2020-08-13,"2330 Center Place,El Cajon,CA,92020",92020,"Fletcher Hills Elementary, La Mesa-Spring Valley",S,San Diego,La Mesa-Spring Valley,Fletcher Hills Elementary,TA,699.0
185,37681976038459,La Mesa-Spring Valley,Highlands Elementary,91977-3003,http://www.lmsvschools.org,Elementary,32.737305,-116.98155,2020-08-13,"3131 South Barcelona Street,Spring Valley,CA,91977",91977,"Highlands Elementary, La Mesa-Spring Valley",S,San Diego,La Mesa-Spring Valley,Highlands Elementary,TA,606.0
186,37681976038467,La Mesa-Spring Valley,Kempton Street Literacy Academy,91977-5017,http://www.lmsvschools.org,Elementary,32.710497,-117.00175,2019-09-16,"740 Kempton Street,Spring Valley,CA,91977",91977,"Kempton Street Literacy Academy, La Mesa-Spring Valley",S,San Diego,La Mesa-Spring Valley,Kempton Street Literacy Academy,TA,471.0
187,37681976038475,La Mesa-Spring Valley,La Mesa Dale Elementary,91941-5214,http://www.lmsvschools.org,Elementary,32.757662,-117.03215,2020-08-13,"4370 Parks Avenue,La Mesa,CA,91941",91941,"La Mesa Dale Elementary, La Mesa-Spring Valley",S,San Diego,La Mesa-Spring Valley,La Mesa Dale Elementary,TA,542.0
188,37681976038509,La Mesa-Spring Valley,La Presa Elementary,91977-6011,http://www.lmsvschools.org,Elementary,32.706482,-116.99327,2020-08-13,"519 La Presa Street,Spring Valley,CA,91977",91977,"La Presa Elementary, La Mesa-Spring Valley",S,San Diego,La Mesa-Spring Valley,La Presa Elementary,TA,495.0
189,37681976038517,La Mesa-Spring Valley,Lemon Avenue Elementary,91941-5214,,Elementary,32.768184,-117.00837,2020-08-13,"8787 Lemon Avenue,La Mesa,CA,91941",91941,"Lemon Avenue Elementary, La Mesa-Spring Valley",S,San Diego,La Mesa-Spring Valley,Lemon Avenue Elementary,TA,645.0
190,37681976038525,La Mesa-Spring Valley,Maryland Avenue Elementary,91941-5214,http://www.lmsvschools.org,Elementary,32.777787,-117.0382,2020-08-13,"5400 Maryland Avenue,La Mesa,CA,91941",91941,"Maryland Avenue Elementary, La Mesa-Spring Valley",S,San Diego,La Mesa-Spring Valley,Maryland Avenue Elementary,TA,563.0
191,37681976038533,La Mesa-Spring Valley,Murray Manor Elementary,91942-2704,http://www.lmsvschools.org,Elementary,32.788351,-117.01987,2020-08-13,"8305 El Paso Street,La Mesa,CA,91942",91942,"Murray Manor Elementary, La Mesa-Spring Valley",S,San Diego,La Mesa-Spring Valley,Murray Manor Elementary,TA,710.0
192,37681976038541,La Mesa-Spring Valley,Northmont Elementary,91942-3811,http://www.lmsvschools.org,Elementary,32.790877,-116.99398,2020-08-13,"9405 Gregory Street,La Mesa,CA,91942",91942,"Northmont Elementary, La Mesa-Spring Valley",S,San Diego,La Mesa-Spring Valley,Northmont Elementary,TA,536.0
193,37681976038558,La Mesa-Spring Valley,Parkway Middle,91942-3400,http://www.lmsvschools.org,Intermediate/Middle/Junior High,32.791277,-117.00293,2020-08-13,"9009 Park Plaza Drive,La Mesa,CA,91942",91942,"Parkway Middle, La Mesa-Spring Valley",S,San Diego,La Mesa-Spring Valley,Parkway Middle,TA,890.0
194,37681976038566,La Mesa-Spring Valley,Rancho Elementary,91977-5716,http://www.lmsvschools.org,Elementary,32.70508,-117.01594,2020-08-13,"8845 Noeline Avenue,Spring Valley,CA,91977",91977,"Rancho Elementary, La Mesa-Spring Valley",S,San Diego,La Mesa-Spring Valley,Rancho Elementary,TA,387.0
195,37681976038574,La Mesa-Spring Valley,Rolando Elementary,91941-5214,http://www.lmsvschools.org,Elementary,32.763199,-117.04876,2020-08-13,"6925 Tower Street,La Mesa,CA,91941",91941,"Rolando Elementary, La Mesa-Spring Valley",S,San Diego,La Mesa-Spring Valley,Rolando Elementary,TA,598.0
196,37681976070833,La Mesa-Spring Valley,Murdock Elementary,91941-5214,http://www.lmsvschools.org,Elementary,32.758828,-116.98474,2020-08-13,"4354 Conrad Drive,La Mesa,CA,91941",91941,"Murdock Elementary, La Mesa-Spring Valley",S,San Diego,La Mesa-Spring Valley,Murdock Elementary,TA,648.0
197,37681976098446,La Mesa-Spring Valley,Loma Elementary,91978-1517,http://www.lmsvschools.org,Elementary,32.736664,-116.96884,2020-08-13,"10355 Loma Lane,Spring Valley,CA,91978",91978,"Loma Elementary, La Mesa-Spring Valley",S,San Diego,La Mesa-Spring Valley,Loma Elementary,TA,412.0
198,37681976111207,La Mesa-Spring Valley,Sweetwater Springs Elementary,91977-6903,http://www.lmsvschools.org,Elementary,32.731776,-116.9766,2020-08-13,"10129 Austin Drive,Spring Valley,CA,91977",91977,"Sweetwater Springs Elementary, La Mesa-Spring Valley",S,San Diego,La Mesa-Spring Valley,Sweetwater Springs Elementary,TA,547.0
199,37682056038608,Lemon Grove,Lemon Grove Academy for the Sciences and Humanities,91945-2542,,Elementary,32.738507,-117.02886,2020-08-13,"7866 Lincoln Street,Lemon Grove,CA,91945",91945,"Lemon Grove Academy for the Sciences and Humanities, Lemon Grove",S,San Diego,Lemon Grove,Lemon Grove Academy for the Sciences and Humanities,TA,1182.0
200,37682056038624,Lemon Grove,Monterey Heights Elementary,91945-2515,,Elementary,32.722188,-117.03315,2020-08-13,"7550 Canton Drive,Lemon Grove,CA,91945",91945,"Monterey Heights Elementary, Lemon Grove",S,San Diego,Lemon Grove,Monterey Heights Elementary,TA,456.0
201,37682056038632,Lemon Grove,Mt. Vernon,91945-3336,,Elementary,32.732311,-117.02093,2020-07-22,"8350 Mount Vernon Street,Lemon Grove,CA,91945",91945,"Mt. Vernon, Lemon Grove",S,San Diego,Lemon Grove,Mt. Vernon,TA,581.0
202,37682056038657,Lemon Grove,San Altos Elementary,91945-2515,,Elementary,32.724107,-117.04534,2020-08-13,"1750 Madera Street,Lemon Grove,CA,91945",91945,"San Altos Elementary, Lemon Grove",S,San Diego,Lemon Grove,San Altos Elementary,TA,412.0
203,37682056038665,Lemon Grove,San Miguel Elementary,91945-2515,,Elementary,32.735134,-117.04597,2020-08-13,"7059 San Miguel Avenue,Lemon Grove,CA,91945",91945,"San Miguel Elementary, Lemon Grove",S,San Diego,Lemon Grove,San Miguel Elementary,TA,567.0
204,37682056038673,Lemon Grove,Vista La Mesa Academy,91941-7542,,Elementary,32.748456,-117.04497,2020-08-13,"3900 Violet Street,La Mesa,CA,91941",91941,"Vista La Mesa Academy, Lemon Grove",S,San Diego,Lemon Grove,Vista La Mesa Academy,TA,697.0
205,37682130126995,Mountain Empire Unified,Camp Lockett Middle,91906-3154,http://www.meusd.k12.ca.us,Intermediate/Middle/Junior High,32.616483,-116.47593,2020-08-13,"31360 Highway 94,Campo,CA,91906",91906,"Camp Lockett Middle, Mountain Empire Unified",S,San Diego,Mountain Empire Unified,Camp Lockett Middle,TA,124.0
206,37682130127001,Mountain Empire Unified,Pine Valley Middle,91962,http://www.meusd.net,Intermediate/Middle/Junior High,32.819591,-116.52548,2020-08-13,"7454 Pine Boulevard,Pine Valley,CA,91962",91962,"Pine Valley Middle, Mountain Empire Unified",S,San Diego,Mountain Empire Unified,Pine Valley Middle,TA,178.0
207,37682133730934,Mountain Empire Unified,Campo High (Continuation),91962-4005,,High School,32.734352,-116.49294,2020-08-13,"3305 Buckman Springs Road,Pine Valley,CA,91962",91962,"Campo High (Continuation), Mountain Empire Unified",S,San Diego,Mountain Empire Unified,Campo High (Continuation),TA,48.0
208,37682133730991,Mountain Empire Unified,Hillside Junior/Senior High,91962-4005,,High School,32.734352,-116.49294,2020-08-13,"3305 Buckman Springs Road,Pine Valley,CA,91962",91962,"Hillside Junior/Senior High, Mountain Empire Unified",S,San Diego,Mountain Empire Unified,Hillside Junior/Senior High,TA,35.0
209,37682133731080,Mountain Empire Unified,Cottonwood Community Day,91962-4003,,High School,32.732694,-116.49425,2019-02-13,"3291 Buckman Springs Road,Pine Valley,CA,91962",91962,"Cottonwood Community Day, Mountain Empire Unified",S,San Diego,Mountain Empire Unified,Cottonwood Community Day,TA,14.0
210,37682133734878,Mountain Empire Unified,Mountain Empire High,91962-4005,,High School,32.734424,-116.4937,2020-08-13,"3305 Buckman Springs Road,Pine Valley,CA,91962",91962,"Mountain Empire High, Mountain Empire Unified",S,San Diego,Mountain Empire Unified,Mountain Empire High,TA,424.0
211,37682136038681,Mountain Empire Unified,Campo Elementary,91906-2004,http://www.meusd.k12.ca.us,Elementary,32.643626,-116.48561,2020-08-13,"1654 Buckman Springs Road,Campo,CA,91906",91906,"Campo Elementary, Mountain Empire Unified",S,San Diego,Mountain Empire Unified,Campo Elementary,TA,372.0
212,37682136038699,Mountain Empire Unified,Descanso Elementary,91916-9757,,Elementary,32.858654,-116.61341,2020-08-13,"24842 Viejas Boulevard,Descanso,CA,91916",91916,"Descanso Elementary, Mountain Empire Unified",S,San Diego,Mountain Empire Unified,Descanso Elementary,TA,225.0
213,37682136085054,Mountain Empire Unified,Clover Flat Elementary,91905-9733,,Elementary,32.668361,-116.29589,2020-08-13,"39639 Old Highway 80,Boulevard,CA,91905",91905,"Clover Flat Elementary, Mountain Empire Unified",S,San Diego,Mountain Empire Unified,Clover Flat Elementary,TA,165.0
214,37682136097190,Mountain Empire Unified,Potrero Elementary,91963-4110,,Elementary,32.610058,-116.6133,2019-08-23,"24875 Potrero Valley Road,Potrero,CA,91963",91963,"Potrero Elementary, Mountain Empire Unified",S,San Diego,Mountain Empire Unified,Potrero Elementary,TA,314.0
215,37682216038731,National Elementary,Central Elementary,91950-3416,,Elementary,32.676133,-117.1013,2019-02-13,"933 E Avenue,National City,CA,91950",91950,"Central Elementary, National Elementary",S,San Diego,National Elementary,Central Elementary,TA,636.0
216,37682216038749,National Elementary,El Toyon Elementary,91950-1823,,Elementary,32.688436,-117.08889,2019-02-13,"2000 East Division Street,National City,CA,91950",91950,"El Toyon Elementary, National Elementary",S,San Diego,National Elementary,El Toyon Elementary,TA,515.0
217,37682216038756,National Elementary,John A. Otis Elementary,91950-4630,,Elementary,32.669036,-117.0972,2019-02-13,"621 East 18th Street,National City,CA,91950",91950,"John A. Otis Elementary, National Elementary",S,San Diego,National Elementary,John A. Otis Elementary,TA,523.0
218,37682216038764,National Elementary,Ira Harbison,91950-3116,,Elementary,32.685779,-117.07317,2020-08-13,"3235 EastEighth Street,National City,CA,91950",91950,"Ira Harbison, National Elementary",S,San Diego,National Elementary,Ira Harbison,TA,554.0
219,37682216038772,National Elementary,Kimball,91950-5526,,Elementary,32.666367,-117.10637,2019-02-13,"302 West 18th Street,National City,CA,91950",91950,"Kimball, National Elementary",S,San Diego,National Elementary,Kimball,TA,440.0
220,37682216038780,National Elementary,Las Palmas,91950-5013,,Elementary,32.672498,-117.08437,2019-02-13,"1900 East 18th Street,National City,CA,91950",91950,"Las Palmas, National Elementary",S,San Diego,National Elementary,Las Palmas,TA,706.0
221,37682216038798,National Elementary,Lincoln Acres,91950-6298,,Elementary,32.671255,-117.07569,2020-08-11,"2200 Lanoitan Avenue,National City,CA,91950",91950,"Lincoln Acres, National Elementary",S,San Diego,National Elementary,Lincoln Acres,TA,602.0
222,37682216038806,National Elementary,Olivewood,91950-7017,,Elementary,32.662903,-117.09498,2019-02-13,"2505 F Avenue,National City,CA,91950",91950,"Olivewood, National Elementary",S,San Diego,National Elementary,Olivewood,TA,641.0
223,37682216038814,National Elementary,Palmer Way,91950-5251,,Elementary,32.679585,-117.07477,2019-02-13,"2900 Palmer Street,National City,CA,91950",91950,"Palmer Way, National Elementary",S,San Diego,National Elementary,Palmer Way,TA,577.0
224,37682216108559,National Elementary,Rancho de la Nacion,91950-1850,,Elementary,32.687964,-117.09059,2020-08-11,"1830 East Division Street,National City,CA,91950",91950,"Rancho de la Nacion, National Elementary",S,San Diego,National Elementary,Rancho de la Nacion,TA,518.0
225,37682960102822,Poway Unified,Stone Ranch Elementary,92127-4431,http://www.powayusd.com/pusdsres,Elementary,33.005421,-117.11572,2020-08-13,"16150 4S Ranch Parkway,San Diego,CA,92127",92127,"Stone Ranch Elementary, Poway Unified",S,San Diego,Poway Unified,Stone Ranch Elementary,TA,858.0
226,37682960108332,Poway Unified,Oak Valley Middle,92127-3719,http://www.powayusd.com/pusdovms,Intermediate/Middle/Junior High,32.999254,-117.1098,2020-08-13,"16055 Winecreek Road,San Diego,CA,92127",92127,"Oak Valley Middle, Poway Unified",S,San Diego,Poway Unified,Oak Valley Middle,TA,1530.0
227,37682960111187,Poway Unified,Monterey Ridge Elementary,92127-8853,http://www.powayusd.com/pusdmres,Elementary,33.0264,-117.1094,2020-08-13,"17117 4S Ranch Parkway,San Diego,CA,92127",92127,"Monterey Ridge Elementary, Poway Unified",S,San Diego,Poway Unified,Monterey Ridge Elementary,TA,1021.0
228,37682960116475,Poway Unified,Del Sur Elementary,92127-6144,http://www.powayusd.com/pusddses,Elementary,33.0185,-117.14056,2020-08-13,"15665 Paseo Del Sur,San Diego,CA,92127",92127,"Del Sur Elementary, Poway Unified",S,San Diego,Poway Unified,Del Sur Elementary,TA,991.0
229,37682960116764,Poway Unified,Willow Grove Elementary,92127-4813,http://www.powayusd.com/pusdwges,Elementary,32.993542,-117.16104,2020-08-13,"14727 Via Azul,San Diego,CA,92127",92127,"Willow Grove Elementary, Poway Unified",S,San Diego,Poway Unified,Willow Grove Elementary,TA,807.0
230,37682960118935,Poway Unified,Del Norte High,92127-4457,http://www.powayusd.com/pusddnhs,High School,33.015119,-117.12162,2020-08-15,"16601 Nighthawk Lane,San Diego,CA,92127",92127,"Del Norte High, Poway Unified",S,San Diego,Poway Unified,Del Norte High,TA,2389.0
231,37682960129056,Poway Unified,Design 39 Campus,92127-4463,http://www.powayusd.com/pusddesign39/,Elementary,33.018484,-117.12715,2020-08-13,"17050 Del Sur Ridge Road,San Diego,CA,92127",92127,"Design 39 Campus, Poway Unified",S,San Diego,Poway Unified,Design 39 Campus,TA,1146.0
232,37682963730074,Poway Unified,Mt. Carmel High,92129-2799,http://www.powayusd.com/pusdmchs,High School,32.965926,-117.12091,2020-08-13,"9550 Carmel Mountain Road,San Diego,CA,92129",92129,"Mt. Carmel High, Poway Unified",S,San Diego,Poway Unified,Mt. Carmel High,TA,1966.0
233,37682963730819,Poway Unified,Rancho Bernardo High,92128-4499,http://www.powayusd.com/pusdrbhs,High School,32.994329,-117.06805,2020-08-13,"13010 Paseo Lucido,San Diego,CA,92128",92128,"Rancho Bernardo High, Poway Unified",S,San Diego,Poway Unified,Rancho Bernardo High,TA,2420.0
234,37682963731528,Poway Unified,Westview High,92129-4465,http://www.powayusd.com/pusdwvhs,High School,32.965082,-117.14808,2020-08-13,"13500 Camino Del Sur,San Diego,CA,92129",92129,"Westview High, Poway Unified",S,San Diego,Poway Unified,Westview High,TA,2420.0
235,37682963735842,Poway Unified,Abraxas Continuation High,92064-3299,http://www.powayusd.com/pusdahs,High School,32.973675,-117.06088,2020-08-13,"12450 Glenoak Road,Poway,CA,92064",92064,"Abraxas Continuation High, Poway Unified",S,San Diego,Poway Unified,Abraxas Continuation High,TA,339.0
236,37682963735867,Poway Unified,Poway High,92064-2299,http://www.powayusd.com/pusdphs,High School,32.996858,-117.02366,2020-08-13,"15500 Espola Road,Poway,CA,92064",92064,"Poway High, Poway Unified",S,San Diego,Poway Unified,Poway High,TA,2302.0
237,37682966038970,Poway Unified,Garden Road Elementary,92064-5299,http://www.powayusd.com/pusdgres,Elementary,32.956246,-117.01434,2020-08-13,"14614 Garden Road,Poway,CA,92064",92064,"Garden Road Elementary, Poway Unified",S,San Diego,Poway Unified,Garden Road Elementary,TA,479.0
238,37682966038988,Poway Unified,Meadowbrook Middle,92064-3599,http://www.powayusd.com/pusdmbms,Intermediate/Middle/Junior High,32.963401,-117.06405,2019-02-13,"12320 Meadowbrook Lane,Poway,CA,92064",92064,"Meadowbrook Middle, Poway Unified",S,San Diego,Poway Unified,Meadowbrook Middle,TA,1353.0
239,37682966038996,Poway Unified,Midland Elementary,92064-4024,http://www.powayusd.com/pusdmies,Elementary,32.966051,-117.03619,2020-08-13,"13910 Midland Road,Poway,CA,92064",92064,"Midland Elementary, Poway Unified",S,San Diego,Poway Unified,Midland Elementary,TA,658.0
240,37682966039002,Poway Unified,Pomerado Elementary,92064-3597,http://www.powayusd.com/pusdpoes,Elementary,32.958705,-117.06457,2020-08-13,"12321 Ninth Street,Poway,CA,92064",92064,"Pomerado Elementary, Poway Unified",S,San Diego,Poway Unified,Pomerado Elementary,TA,394.0
241,37682966039010,Poway Unified,Valley Elementary,92064-5799,http://www.powayusd.com/pusdves,Elementary,32.953597,-117.04526,2019-02-13,"13000 Bowron Road,Poway,CA,92064",92064,"Valley Elementary, Poway Unified",S,San Diego,Poway Unified,Valley Elementary,TA,754.0
242,37682966070841,Poway Unified,Los Penasquitos Elementary,92129-1852,http://www.powayusd.com/pusdlpes,Elementary,32.970519,-117.09622,2020-08-13,"14125 Cuca Street,San Diego,CA,92129",92129,"Los Penasquitos Elementary, Poway Unified",S,San Diego,Poway Unified,Los Penasquitos Elementary,TA,550.0
243,37682966070858,Poway Unified,Westwood Elementary,92127-1299,http://www.powayusd.com/pusdwwes,Elementary,33.03119,-117.08695,2020-08-13,"17449 Matinal Road,San Diego,CA,92127",92127,"Westwood Elementary, Poway Unified",S,San Diego,Poway Unified,Westwood Elementary,TA,864.0
244,37682966070866,Poway Unified,Twin Peaks Middle,92064-3091,http://www.powayusd.com/pusdtpms,Intermediate/Middle/Junior High,32.980105,-117.02769,2020-08-13,"14640 Tierra Bonita Road,Poway,CA,92064",92064,"Twin Peaks Middle, Poway Unified",S,San Diego,Poway Unified,Twin Peaks Middle,TA,1257.0
245,37682966085088,Poway Unified,Painted Rock Elementary,92064-1628,http://www.powayusd.com/pusdpres,Elementary,33.017454,-117.03971,2020-08-13,"16711 Martincoit Road,Poway,CA,92064",92064,"Painted Rock Elementary, Poway Unified",S,San Diego,Poway Unified,Painted Rock Elementary,TA,691.0
246,37682966093223,Poway Unified,Black Mountain Middle,92129-2198,http://www.powayusd.com/pusdbmms,Intermediate/Middle/Junior High,32.96914,-117.12709,2020-08-13,"9353 Oviedo Street,San Diego,CA,92129",92129,"Black Mountain Middle, Poway Unified",S,San Diego,Poway Unified,Black Mountain Middle,TA,1310.0
247,37682966093231,Poway Unified,Sunset Hills Elementary,92129-2199,http://www.powayusd.com/pusdshes,Elementary,32.96914,-117.12709,2020-08-13,"9291 Oviedo Street,San Diego,CA,92129",92129,"Sunset Hills Elementary, Poway Unified",S,San Diego,Poway Unified,Sunset Hills Elementary,TA,459.0
248,37682966095053,Poway Unified,Tierra Bonita Elementary,92064-3090,http://www.powayusd.com/pusdtbes,Elementary,32.98141,-117.02771,2020-08-13,"14678 Tierra Bonita Road,Poway,CA,92064",92064,"Tierra Bonita Elementary, Poway Unified",S,San Diego,Poway Unified,Tierra Bonita Elementary,TA,483.0
249,37682966097208,Poway Unified,Rolling Hills Elementary,92129-1016,http://www.powayusd.com/pusdrhes,Elementary,32.989542,-117.09273,2020-08-13,"15255 Penasquitos Drive,San Diego,CA,92129",92129,"Rolling Hills Elementary, Poway Unified",S,San Diego,Poway Unified,Rolling Hills Elementary,TA,438.0
250,37682966097216,Poway Unified,Chaparral Elementary,92064-1123,http://www.powayusd.com/pusdches,Elementary,33.023731,-117.04995,2020-08-13,"17250 Tannin Drive,Poway,CA,92064",92064,"Chaparral Elementary, Poway Unified",S,San Diego,Poway Unified,Chaparral Elementary,TA,857.0
251,37682966099444,Poway Unified,Sundance Elementary,92129-2334,http://www.powayusd.com/pusdsdes,Elementary,32.960094,-117.13331,2020-08-13,"8944 Twin Trails Drive,San Diego,CA,92129",92129,"Sundance Elementary, Poway Unified",S,San Diego,Poway Unified,Sundance Elementary,TA,463.0
252,37682966106520,Poway Unified,Canyon View Elementary,92129-3525,http://www.powayusd.com/pusdcves,Elementary,32.947126,-117.12807,2020-08-13,"9225 Adolphia Street,San Diego,CA,92129",92129,"Canyon View Elementary, Poway Unified",S,San Diego,Poway Unified,Canyon View Elementary,TA,527.0
253,37682966107460,Poway Unified,Bernardo Heights Middle,92128-4479,http://www.powayusd.com/pusdbhms,Intermediate/Middle/Junior High,32.995489,-117.06788,2020-08-13,"12990 Paseo Lucido,San Diego,CA,92128",92128,"Bernardo Heights Middle, Poway Unified",S,San Diego,Poway Unified,Bernardo Heights Middle,TA,1595.0
254,37682966109300,Poway Unified,Deer Canyon Elementary,92129-4411,http://www.powayusd.com/pusddces,Elementary,32.964038,-117.14377,2020-08-13,"13455 Russet Leaf Lane,San Diego,CA,92129",92129,"Deer Canyon Elementary, Poway Unified",S,San Diego,Poway Unified,Deer Canyon Elementary,TA,467.0
255,37682966109318,Poway Unified,Morning Creek Elementary,92128-4047,http://www.powayusd.com/pusdmces,Elementary,32.953272,-117.09554,2020-08-13,"10925 Morning Creek Drive, South,San Diego,CA,92128",92128,"Morning Creek Elementary, Poway Unified",S,San Diego,Poway Unified,Morning Creek Elementary,TA,771.0
256,37682966109326,Poway Unified,Turtleback Elementary,92127-2044,http://www.powayusd.com/pusdtes,Elementary,33.004949,-117.08814,2020-08-13,"15855 Turtleback Road,San Diego,CA,92127",92127,"Turtleback Elementary, Poway Unified",S,San Diego,Poway Unified,Turtleback Elementary,TA,646.0
257,37682966110878,Poway Unified,Adobe Bluffs Elementary,92129-4448,http://www.powayusd.com/pusdabes,Elementary,32.974268,-117.14039,2019-02-13,"8707 Adobe Bluffs Drive,San Diego,CA,92129",92129,"Adobe Bluffs Elementary, Poway Unified",S,San Diego,Poway Unified,Adobe Bluffs Elementary,TA,464.0
258,37682966110886,Poway Unified,Highland Ranch Elementary,92128-3702,http://www.powayusd.com/pusdhres,Elementary,32.984064,-117.07108,2020-08-13,"14840 Waverley Downs Way,San Diego,CA,92128",92128,"Highland Ranch Elementary, Poway Unified",S,San Diego,Poway Unified,Highland Ranch Elementary,TA,712.0
259,37682966111306,Poway Unified,Mesa Verde Middle,92129-4405,http://www.powayusd.com/pusdmvms,Intermediate/Middle/Junior High,32.962739,-117.14671,2020-08-13,"8375 Entreken Way,San Diego,CA,92129",92129,"Mesa Verde Middle, Poway Unified",S,San Diego,Poway Unified,Mesa Verde Middle,TA,1364.0
260,37682966111314,Poway Unified,Park Village Elementary,92129-3781,http://www.powayusd.com/pusdpves,Elementary,32.940459,-117.15069,2020-08-13,"7930 Park Village Road,San Diego,CA,92129",92129,"Park Village Elementary, Poway Unified",S,San Diego,Poway Unified,Park Village Elementary,TA,634.0
261,37682966114854,Poway Unified,Shoal Creek Elementary,92128-4573,http://www.powayusd.com/pusdsces,Elementary,32.967503,-117.08054,2020-08-13,"11775 Shoal Creek Drive,San Diego,CA,92128",92128,"Shoal Creek Elementary, Poway Unified",S,San Diego,Poway Unified,Shoal Creek Elementary,TA,549.0
262,37682966117469,Poway Unified,Creekside Elementary,92128-6366,http://www.powayusd.com/pusdcses,Elementary,32.943627,-117.07551,2020-08-13,"12362 Springhurst Drive,San Diego,CA,92128",92128,"Creekside Elementary, Poway Unified",S,San Diego,Poway Unified,Creekside Elementary,TA,590.0
263,37683040102178,Ramona City Unified,Future Bound Independent Study Secondary,92065-2348,http://www.ramonausd.net,High School,33.039022,-116.86397,2020-06-26,"720 Ninth Street,Ramona,CA,92065",92065,"Future Bound Independent Study Secondary, Ramona City Unified",S,San Diego,Ramona City Unified,Future Bound Independent Study Secondary,TA,53.0
264,37683040131250,Ramona City Unified,Mountain Valley Academy,92065-3222,http://www.ramonausd.net/rcs,Elementary-High Combination,33.026764,-116.87845,2020-08-13,"1010 Ramona Street,Ramona,CA,92065",92065,"Mountain Valley Academy, Ramona City Unified",S,San Diego,Ramona City Unified,Mountain Valley Academy,TA,268.0
265,37683040131268,Ramona City Unified,Ramona Community Montessori,92065-3222,http://www.ramonausd.net/rcs,Elementary,33.026764,-116.87845,2020-08-13,"1010 Ramona Street,Ramona,CA,92065",92065,"Ramona Community Montessori, Ramona City Unified",S,San Diego,Ramona City Unified,Ramona Community Montessori,TA,269.0
266,37683043735958,Ramona City Unified,Montecito High (Continuation),92065-2348,http://mhs.ramonausd.net,High School,33.039022,-116.86397,2020-08-13,"720 Ninth Street,Ramona,CA,92065",92065,"Montecito High (Continuation), Ramona City Unified",S,San Diego,Ramona City Unified,Montecito High (Continuation),TA,186.0
267,37683043735974,Ramona City Unified,Ramona High,92065-3304,http://www.ramonausd.net/rhs,High School,33.025724,-116.86867,2020-08-13,"1401 Hanson Lane,Ramona,CA,92065",92065,"Ramona High, Ramona City Unified",S,San Diego,Ramona City Unified,Ramona High,TA,1578.0
268,37683046039028,Ramona City Unified,Hanson Elementary,92065-3106,http://www.ramonausd.net,Elementary,33.018565,-116.89073,2020-08-13,"2520 Boundary Avenue,Ramona,CA,92065",92065,"Hanson Elementary, Ramona City Unified",S,San Diego,Ramona City Unified,Hanson Elementary,TA,601.0
269,37683046039036,Ramona City Unified,Ramona Elementary,92065-2346,,Elementary,33.04261,-116.86452,2020-08-13,"415 Eighth Street,Ramona,CA,92065",92065,"Ramona Elementary, Ramona City Unified",S,San Diego,Ramona City Unified,Ramona Elementary,TA,483.0
270,37683046105555,Ramona City Unified,James Dukes Elementary,92065-4649,,Elementary,33.007843,-116.79124,2020-08-13,"24908 Abalar Way,Ramona,CA,92065",92065,"James Dukes Elementary, Ramona City Unified",S,San Diego,Ramona City Unified,James Dukes Elementary,TA,576.0
271,37683046105563,Ramona City Unified,Olive Peirce Middle,92065-3306,,Elementary-High Combination,33.025724,-116.87161,2020-08-13,"1521 Hanson Lane,Ramona,CA,92065",92065,"Olive Peirce Middle, Ramona City Unified",S,San Diego,Ramona City Unified,Olive Peirce Middle,TA,899.0
272,37683046107999,Ramona City Unified,Mt. Woodson Elementary,92065-6907,,Elementary,33.031043,-116.95661,2020-08-13,"17427 Archie Moore Road,Ramona,CA,92065",92065,"Mt. Woodson Elementary, Ramona City Unified",S,San Diego,Ramona City Unified,Mt. Woodson Elementary,TA,496.0
273,37683046110720,Ramona City Unified,Barnett Elementary,92065-4120,,Elementary,33.01808,-116.8121,2020-08-13,"23925 Couna Way,Ramona,CA,92065",92065,"Barnett Elementary, Ramona City Unified",S,San Diego,Ramona City Unified,Barnett Elementary,TA,484.0
274,37683126039051,Rancho Santa Fe Elementary,R. Roger Rowe Elementary,92067-0809,,Elementary,33.021758,-117.20694,2020-08-13,"5927 La Granada,Rancho Santa Fe,CA,92067",92067,"R. Roger Rowe Elementary, Rancho Santa Fe Elementary",S,San Diego,Rancho Santa Fe Elementary,R. Roger Rowe Elementary,TA,387.0
275,37683126070908,Rancho Santa Fe Elementary,R. Roger Rowe Middle,92067-0809,,Intermediate/Middle/Junior High,33.021758,-117.20694,2020-08-13,"5927 La Granada,Rancho Santa Fe,CA,92067",92067,"R. Roger Rowe Middle, Rancho Santa Fe Elementary",S,San Diego,Rancho Santa Fe Elementary,R. Roger Rowe Middle,TA,222.0
276,37683380107029,San Diego Unified,San Diego International Studies,92101-4722,http://is.sdhs.sandi.net,High School,32.719461,-117.15366,2020-08-13,"1405 Park Boulevard,San Diego,CA,92101",92101,"San Diego International Studies, San Diego Unified",S,San Diego,San Diego Unified,San Diego International Studies,TA,1277.0
277,37683380107052,San Diego Unified,San Diego Business/Leadership,92101-4722,http://biz.sdhs.sandi.net,High School,32.719461,-117.15366,2020-08-13,"1405 Park Boulevard,San Diego,CA,92101",92101,"San Diego Business/Leadership, San Diego Unified",S,San Diego,San Diego Unified,San Diego Business/Leadership,TA,591.0
278,37683380107078,San Diego Unified,Kearny Digital Media & Design,92111-5731,http://dmd.khs.sandi.net,High School,32.798708,-117.16044,2020-08-13,"1954 Komet Way,San Diego,CA,92111",92111,"Kearny Digital Media & Design, San Diego Unified",S,San Diego,San Diego Unified,Kearny Digital Media & Design,TA,405.0
279,37683380107094,San Diego Unified,Kearny College Connections,92111-5731,http://www.sandi.net,High School,32.798708,-117.16044,2020-08-13,"1954 Komet Way,San Diego,CA,92111",92111,"Kearny College Connections, San Diego Unified",S,San Diego,San Diego Unified,Kearny College Connections,TA,410.0
280,37683380107102,San Diego Unified,Kearny Eng Innov & Design,92111-5731,http://www.sandi.net,High School,32.798708,-117.16044,2020-08-13,"1954 Komet Way,San Diego,CA,92111",92111,"Kearny Eng Innov & Design, San Diego Unified",S,San Diego,San Diego Unified,Kearny Eng Innov & Design,TA,348.0
281,37683380107177,San Diego Unified,Crawford High,92115-6023,http://www.sandi.net/crawford/,High School,32.752163,-117.07694,2020-08-13,"4191 Colts Way,San Diego,CA,92115",92115,"Crawford High, San Diego Unified",S,San Diego,San Diego Unified,Crawford High,TA,1240.0
282,37683380107219,San Diego Unified,San Diego Science and Technology,92101-4722,http://sandi.net/sdhsscitech/,High School,32.719461,-117.15366,2020-08-13,"1405 Park Boulevard,San Diego,CA,92101",92101,"San Diego Science and Technology, San Diego Unified",S,San Diego,San Diego Unified,San Diego Science and Technology,TA,834.0
283,37683380107482,San Diego Unified,San Diego Metro Career and Tech,92111-4902,http://www.sandi.net/met,High School,32.803695,-117.16498,2020-08-13,"7250 Mesa College Drive, Room L-502,San Diego,CA,92111",92111,"San Diego Metro Career and Tech, San Diego Unified",S,San Diego,San Diego Unified,San Diego Metro Career and Tech,TA,150.0
284,37683380108266,San Diego Unified,Golden Hill K-8,92102-2409,http://www.sandi.net/goldenhill,Elementary,32.71876,-117.12318,2020-07-02,"1240 33rd Street,San Diego,CA,92102",92102,"Golden Hill K-8, San Diego Unified",S,San Diego,San Diego Unified,Golden Hill K-8,TA,491.0
285,37683380108274,San Diego Unified,Porter Elementary,92113-5006,http://new.sandi.net/schools/porter,Elementary,32.69871,-117.09106,2020-08-13,"4800 T Street,San Diego,CA,92113",92113,"Porter Elementary, San Diego Unified",S,San Diego,San Diego Unified,Porter Elementary,TA,936.0
286,37683380108282,San Diego Unified,Cherokee Point Elementary,92105-2414,http://new.sandi.net/schools/cherokeepoint,Elementary,32.747185,-117.11183,2020-07-02,"3735 38th Street,San Diego,CA,92105",92105,"Cherokee Point Elementary, San Diego Unified",S,San Diego,San Diego Unified,Cherokee Point Elementary,TA,510.0
287,37683380108290,San Diego Unified,Ibarra Elementary,92115-4947,,Elementary,32.753027,-117.08953,2020-08-13,"4877 Orange Avenue,San Diego,CA,92115",92115,"Ibarra Elementary, San Diego Unified",S,San Diego,San Diego Unified,Ibarra Elementary,TA,634.0
288,37683380111864,San Diego Unified,Normal Heights Elementary,92116-3737,http://www.sandi.net/normalheights,Elementary,32.761139,-117.11376,2020-08-13,"3750 Ward Road,San Diego,CA,92116",92116,"Normal Heights Elementary, San Diego Unified",S,San Diego,San Diego Unified,Normal Heights Elementary,TA,412.0
289,37683380114025,San Diego Unified,Lincoln High,92113-2071,http://lincolnhighsd.net/hornets,High School,32.704034,-117.09196,2020-08-13,"4777 Imperial Avenue,San Diego,CA,92113",92113,"Lincoln High, San Diego Unified",S,San Diego,San Diego Unified,Lincoln High,TA,1728.0
290,37683380114033,San Diego Unified,Rodriguez Elementary,92113-2525,http://new.sandi.net/schools/rodriguez,Elementary,32.697615,-117.12725,2020-08-13,"825 South 31st Street,San Diego,CA,92113",92113,"Rodriguez Elementary, San Diego Unified",S,San Diego,San Diego Unified,Rodriguez Elementary,TA,514.0
291,37683380114041,San Diego Unified,Joyner Elementary,92105-3426,,Elementary,32.742094,-117.1027,2020-09-10,"4271 Myrtle Avenue,San Diego,CA,92105",92105,"Joyner Elementary, San Diego Unified",S,San Diego,San Diego Unified,Joyner Elementary,TA,743.0
292,37683380116939,San Diego Unified,Innovation Middle,92117-2303,http://www.imiddle.org,Intermediate/Middle/Junior High,32.838063,-117.17514,2020-08-13,"5095 Arvinels Avenue,San Diego,CA,92117",92117,"Innovation Middle, San Diego Unified",S,San Diego,San Diego Unified,Innovation Middle,TA,518.0
293,37683380117325,San Diego Unified,Millennial Tech Middle,92102-3713,http://mtechmiddle.org,Intermediate/Middle/Junior High,32.716935,-117.08861,2020-02-13,"1110 Carolina Lane,San Diego,CA,92102",92102,"Millennial Tech Middle, San Diego Unified",S,San Diego,San Diego Unified,Millennial Tech Middle,TA,514.0
294,37683380120410,San Diego Unified,iHigh Virtual Academy,92110-3012,http://www.sandi.net/ihigh,High School,32.751221,-117.19481,2020-08-13,"3939 Conde Street,San Diego,CA,92110",92110,"iHigh Virtual Academy, San Diego Unified",S,San Diego,San Diego Unified,iHigh Virtual Academy,TA,76.0
295,37683380124115,San Diego Unified,Knox Middle,92113-3599,http://sandi.net/schools,Intermediate/Middle/Junior High,32.695466,-117.08946,2020-08-13,"1098 South 49th Street,San Diego,CA,92113",92113,"Knox Middle, San Diego Unified",S,San Diego,San Diego Unified,Knox Middle,TA,723.0
296,37683380126938,San Diego Unified,Home & Hosp/Transition Support,92103,,Elementary-High Combination,32.715329,-117.15725,2020-08-13,"4100 Normal Street, Annex 14,San Diego,CA,92103",92103,"Home & Hosp/Transition Support, San Diego Unified",S,San Diego,San Diego Unified,Home & Hosp/Transition Support,TA,541.0
297,37683380132316,San Diego Unified,Jonas Salk Elementary,92126-3449,http://www.sandi.net/salk,Elementary,32.906344,-117.15512,2020-08-13,"7825 Flanders Drive,San Diego,CA,92126",92126,"Jonas Salk Elementary, San Diego Unified",S,San Diego,San Diego Unified,Jonas Salk Elementary,TA,698.0
298,37683383730116,San Diego Unified,John Muir Language Academy,92117-4728,http://www.sandi.net/muir,Elementary,32.823298,-117.19419,2019-10-03,"4431 Mount Herbert Avenue,San Diego,CA,92117",92117,"John Muir Language Academy, San Diego Unified",S,San Diego,San Diego Unified,John Muir Language Academy,TA,203.0
299,37683383730173,San Diego Unified,Serra High,92124-2037,http://www.serra.sandi.net,High School,32.825282,-117.10407,2020-08-13,"5156 Santo Road,San Diego,CA,92124",92124,"Serra High, San Diego Unified",S,San Diego,San Diego Unified,Serra High,TA,1547.0
300,37683383730181,San Diego Unified,Mira Mesa High,92126-3275,http://www.miramesahigh.org,High School,32.910904,-117.14037,2020-08-13,"10510 Marauder Way,San Diego,CA,92126",92126,"Mira Mesa High, San Diego Unified",S,San Diego,San Diego Unified,Mira Mesa High,TA,2549.0
301,37683383730231,San Diego Unified,Twain High,92111-7320,http://www.sandi.net/twain,High School,32.771471,-117.17933,2020-08-13,"6402 Linda Vista Road,San Diego,CA,92111",92111,"Twain High, San Diego Unified",S,San Diego,San Diego Unified,Twain High,TA,609.0
302,37683383730314,San Diego Unified,University City High,92122-2455,http://www.universitycityhigh.org,High School,32.861197,-117.20954,2020-08-13,"6949 Genesee Avenue,San Diego,CA,92122",92122,"University City High, San Diego Unified",S,San Diego,San Diego Unified,University City High,TA,1877.0
303,37683383730363,San Diego Unified,Whittier K-12,92117-5938,,Elementary-High Combination,32.803799,-117.19929,2020-09-10,"3401 Clairemont Drive,San Diego,CA,92117",92117,"Whittier K-12, San Diego Unified",S,San Diego,San Diego Unified,Whittier K-12,TA,63.0
304,37683383730371,San Diego Unified,San Diego SCPA,92139-2412,http://www.scpa.sandi.net,Elementary-High Combination,32.679265,-117.04953,2020-08-13,"2425 Dusk Drive,San Diego,CA,92139",92139,"San Diego SCPA, San Diego Unified",S,San Diego,San Diego Unified,San Diego SCPA,TA,1453.0
305,37683383730751,San Diego Unified,Mt. Everest Academy,92117-4847,http://www.sandi.net/mteverest,Elementary-High Combination,32.820017,-117.1861,2020-08-13,"4350 Mount Everest Boulevard,San Diego,CA,92117",92117,"Mt. Everest Academy, San Diego Unified",S,San Diego,San Diego Unified,Mt. Everest Academy,TA,325.0
306,37683383730884,San Diego Unified,Scripps Ranch High,92131-1126,http://srhs.falcons.org,High School,32.908719,-117.11199,2020-09-10,"10410 Falcon Way,San Diego,CA,92131",92131,"Scripps Ranch High, San Diego Unified",S,San Diego,San Diego Unified,Scripps Ranch High,TA,2217.0
307,37683383731056,San Diego Unified,TRACE,92110-2818,,High School,32.750337,-117.19342,2020-08-13,"2375 Congress Street Suite 4,San Diego,CA,92110",92110,"TRACE, San Diego Unified",S,San Diego,San Diego Unified,TRACE,TA,610.0
308,37683383731130,San Diego Unified,ALBA,92104-1706,,High School,32.751186,-117.13509,2020-08-13,"4041 Oregon Street,San Diego,CA,92104",92104,"ALBA, San Diego Unified",S,San Diego,San Diego Unified,ALBA,TA,116.0
309,37683383731213,San Diego Unified,Clairemont High,92117-5853,http://sandi.net/clairemont,High School,32.807111,-117.20332,2020-08-13,"4150 Ute Drive,San Diego,CA,92117",92117,"Clairemont High, San Diego Unified",S,San Diego,San Diego Unified,Clairemont High,TA,948.0
310,37683383731551,San Diego Unified,Creative Performing and Media Arts,92117-1401,http://www.cpmamiddle.org,Intermediate/Middle/Junior High,32.835962,-117.182,2020-08-13,"5050 Conrad Avenue,San Diego,CA,92117",92117,"Creative Performing and Media Arts, San Diego Unified",S,San Diego,San Diego Unified,Creative Performing and Media Arts,TA,958.0
311,37683383732781,San Diego Unified,Henry High,92120-3250,,High School,32.796333,-117.05148,2020-09-10,"6702 Wandermere Drive,San Diego,CA,92120",92120,"Henry High, San Diego Unified",S,San Diego,San Diego Unified,Henry High,TA,2498.0
312,37683383732997,San Diego Unified,Hoover High,92115-4312,http://www.hoovercardinals.org,High School,32.755352,-117.09761,2020-08-13,"4474 El Cajon Boulevard,San Diego,CA,92115",92115,"Hoover High, San Diego Unified",S,San Diego,San Diego Unified,Hoover High,TA,2337.0
313,37683383733508,San Diego Unified,La Jolla High,92037-6103,http://ljhs.sandi.net,High School,32.832726,-117.27269,2020-08-13,"750 Nautilus Street,La Jolla,CA,92037",92037,"La Jolla High, San Diego Unified",S,San Diego,San Diego Unified,La Jolla High,TA,1440.0
314,37683383733698,San Diego Unified,Madison High,92117-3211,http://www.madison.sandi.net,High School,32.831046,-117.17568,2020-08-13,"4833 Doliva Drive,San Diego,CA,92117",92117,"Madison High, San Diego Unified",S,San Diego,San Diego Unified,Madison High,TA,1007.0
315,37683383734431,San Diego Unified,Mission Bay High,92109-4825,http://www.missionbayhigh.com,High School,32.801298,-117.22441,2020-08-13,"2475 Grand Avenue,San Diego,CA,92109",92109,"Mission Bay High, San Diego Unified",S,San Diego,San Diego Unified,Mission Bay High,TA,1167.0
316,37683383734654,San Diego Unified,Morse High,92114-5928,http://morsehs.enschool.org,High School,32.702602,-117.04876,2020-08-13,"6905 Skyline Drive,San Diego,CA,92114",92114,"Morse High, San Diego Unified",S,San Diego,San Diego Unified,Morse High,TA,1844.0
317,37683383735750,San Diego Unified,Point Loma High,92106-1646,http://www.pointlomahigh.com,High School,32.740362,-117.22662,2020-09-10,"2335 Chatsworth Boulevard,San Diego,CA,92106",92106,"Point Loma High, San Diego Unified",S,San Diego,San Diego Unified,Point Loma High,TA,1984.0
318,37683383737962,San Diego Unified,Garfield High,92101-4759,http://www.sandi.net/garfield,High School,32.718735,-117.14953,2020-08-13,"1255 16th Street,San Diego,CA,92101",92101,"Garfield High, San Diego Unified",S,San Diego,San Diego Unified,Garfield High,TA,435.0
319,37683386039101,San Diego Unified,Adams Elementary,92116-3536,http://sandi.net/adams,Elementary,32.76156,-117.11786,2020-09-10,"4672 35th Street,San Diego,CA,92116",92116,"Adams Elementary, San Diego Unified",S,San Diego,San Diego Unified,Adams Elementary,TA,314.0
320,37683386039119,San Diego Unified,Alcott Elementary,92117-2503,http://new.sandi.net/schools/alcott,Elementary,32.832311,-117.22046,2020-08-13,"4680 Hidalgo Avenue,San Diego,CA,92117",92117,"Alcott Elementary, San Diego Unified",S,San Diego,San Diego Unified,Alcott Elementary,TA,203.0
321,37683386039135,San Diego Unified,Angier Elementary,92123-2013,http://www.sandi.net/angier,Elementary,32.804911,-117.14534,2020-08-13,"8450 Hurlbut Street,San Diego,CA,92123",92123,"Angier Elementary, San Diego Unified",S,San Diego,San Diego Unified,Angier Elementary,TA,554.0
322,37683386039143,San Diego Unified,Audubon K-8,92114-4836,,Elementary,32.71121,-117.03008,2020-07-02,"8111 San Vicente,San Diego,CA,92114",92114,"Audubon K-8, San Diego Unified",S,San Diego,San Diego Unified,Audubon K-8,TA,549.0
323,37683386039150,San Diego Unified,Baker Elementary,92113-1808,,Elementary,32.698826,-117.10711,2020-08-13,"4041 T Street,San Diego,CA,92113",92113,"Baker Elementary, San Diego Unified",S,San Diego,San Diego Unified,Baker Elementary,TA,475.0
324,37683386039168,San Diego Unified,Balboa Elementary,92113-4017,http://new.sandi.net/schools/balboa,Elementary,32.687014,-117.108,2020-07-02,"1844 South 40th Street,San Diego,CA,92113",92113,"Balboa Elementary, San Diego Unified",S,San Diego,San Diego Unified,Balboa Elementary,TA,546.0
325,37683386039184,San Diego Unified,Barnard Elementary,92109-4855,,Elementary,32.802554,-117.2251,2020-09-10,"2445 Fogg Street,San Diego,CA,92109",92109,"Barnard Elementary, San Diego Unified",S,San Diego,San Diego Unified,Barnard Elementary,TA,529.0
326,37683386039200,San Diego Unified,Bay Park Elementary,92110-3338,http://www.sandi.net/baypark,Elementary,32.786443,-117.20399,2020-08-13,"2433 Denver Street,San Diego,CA,92110",92110,"Bay Park Elementary, San Diego Unified",S,San Diego,San Diego Unified,Bay Park Elementary,TA,518.0
327,37683386039242,San Diego Unified,Bird Rock Elementary,92037-8016,http://www.sandi.net/birdrock,Elementary,32.811037,-117.26501,2020-08-13,"5371 La Jolla Hermosa Avenue,La Jolla,CA,92037",92037,"Bird Rock Elementary, San Diego Unified",S,San Diego,San Diego Unified,Bird Rock Elementary,TA,457.0
328,37683386039259,San Diego Unified,Birney Elementary,92103-2406,http://new.sandi.net/schools/birney,Elementary,32.755275,-117.14875,2020-08-13,"4345 Campus Avenue,San Diego,CA,92103",92103,"Birney Elementary, San Diego Unified",S,San Diego,San Diego Unified,Birney Elementary,TA,693.0
329,37683386039267,San Diego Unified,Boone Elementary,92114-7115,http://new.sandi.net/schools/boone,Elementary,32.694651,-117.0364,2019-11-14,"7330 Brookhaven Road,San Diego,CA,92114",92114,"Boone Elementary, San Diego Unified",S,San Diego,San Diego Unified,Boone Elementary,TA,462.0
330,37683386039283,San Diego Unified,Burbank Elementary,92113-1237,,Elementary,32.70044,-117.13891,2020-07-02,"2146 Julian Avenue,San Diego,CA,92113",92113,"Burbank Elementary, San Diego Unified",S,San Diego,San Diego Unified,Burbank Elementary,TA,555.0
331,37683386039291,San Diego Unified,Cabrillo Elementary,92106-2447,http://new.sandi.net/schools/cabrillo,Elementary,32.720377,-117.23364,2020-09-10,"3120 Talbot Street,San Diego,CA,92106",92106,"Cabrillo Elementary, San Diego Unified",S,San Diego,San Diego Unified,Cabrillo Elementary,TA,167.0
332,37683386039309,San Diego Unified,Cadman Elementary,92117-4543,,Elementary,32.822127,-117.21453,2020-08-13,"4370 Kamloop Avenue,San Diego,CA,92117",92117,"Cadman Elementary, San Diego Unified",S,San Diego,San Diego Unified,Cadman Elementary,TA,202.0
333,37683386039341,San Diego Unified,Carson Elementary,92111-7021,,Elementary,32.776942,-117.17104,2020-07-02,"6905 Kramer Street,San Diego,CA,92111",92111,"Carson Elementary, San Diego Unified",S,San Diego,San Diego Unified,Carson Elementary,TA,426.0
334,37683386039358,San Diego Unified,Carver Elementary,92105-3807,,Elementary,32.739196,-117.07105,2020-08-13,"3251 Juanita Street,San Diego,CA,92105",92105,"Carver Elementary, San Diego Unified",S,San Diego,San Diego Unified,Carver Elementary,TA,269.0
335,37683386039366,San Diego Unified,Central Elementary,92105-1436,http://www.sandi.net/central,Elementary,32.751484,-117.10716,2019-02-13,"4063 Polk Avenue,San Diego,CA,92105",92105,"Central Elementary, San Diego Unified",S,San Diego,San Diego Unified,Central Elementary,TA,838.0
336,37683386039374,San Diego Unified,Chesterton Elementary,92111-5824,http://new.sandi.net/schools/chesterton,Elementary,32.794045,-117.16209,2020-08-13,"7335 Wheatley Street,San Diego,CA,92111",92111,"Chesterton Elementary, San Diego Unified",S,San Diego,San Diego Unified,Chesterton Elementary,TA,501.0
337,37683386039382,San Diego Unified,Chollas/Mead Elementary,92102-4732,http://www.sandi.net/chollasmead,Elementary,32.710528,-117.09784,2020-08-13,"401 North 45th Street,San Diego,CA,92102",92102,"Chollas/Mead Elementary, San Diego Unified",S,San Diego,San Diego Unified,Chollas/Mead Elementary,TA,637.0
338,37683386039390,San Diego Unified,Clay Elementary,92115-4244,http://www.sandi.net/clay,Elementary,32.763509,-117.05796,2020-08-13,"6506 Solita Avenue,San Diego,CA,92115",92115,"Clay Elementary, San Diego Unified",S,San Diego,San Diego Unified,Clay Elementary,TA,340.0
339,37683386039424,San Diego Unified,Crown Point Elementary,92109-5946,http://new.sandi.net/schools/crownpoint,Elementary,32.793243,-117.23889,2020-08-13,"4033 Ingraham Street,San Diego,CA,92109",92109,"Crown Point Elementary, San Diego Unified",S,San Diego,San Diego Unified,Crown Point Elementary,TA,347.0
340,37683386039432,San Diego Unified,Cubberley Elementary,92123-2638,http://www.sandi.net/cubberley,Elementary,32.801667,-117.12714,2020-08-13,"3201 Marathon Drive,San Diego,CA,92123",92123,"Cubberley Elementary, San Diego Unified",S,San Diego,San Diego Unified,Cubberley Elementary,TA,193.0
341,37683386039440,San Diego Unified,Curie Elementary,92122-2523,http://www.curiepta.org,Elementary,32.854678,-117.20303,2020-08-13,"4080 Governor Drive,San Diego,CA,92122",92122,"Curie Elementary, San Diego Unified",S,San Diego,San Diego Unified,Curie Elementary,TA,601.0
342,37683386039481,San Diego Unified,Dewey Elementary,92110-4835,,Elementary,32.74754,-117.20804,2020-08-13,"3251 Rosecrans Street,San Diego,CA,92110",92110,"Dewey Elementary, San Diego Unified",S,San Diego,San Diego Unified,Dewey Elementary,TA,443.0
343,37683386039499,San Diego Unified,Edison Elementary,92104-2291,http://www.sandi.net/edison,Elementary,32.751057,-117.11804,2020-09-10,"4077 35th Street,San Diego,CA,92104",92104,"Edison Elementary, San Diego Unified",S,San Diego,San Diego Unified,Edison Elementary,TA,561.0
344,37683386039515,San Diego Unified,Encanto Elementary,92114-2818,http://sandi.net/encanto,Elementary,32.714909,-117.05804,2020-07-02,"822 65th Street,San Diego,CA,92114",92114,"Encanto Elementary, San Diego Unified",S,San Diego,San Diego Unified,Encanto Elementary,TA,557.0
345,37683386039523,San Diego Unified,Euclid Elementary,92105-1910,,Elementary,32.752319,-117.09226,2020-08-13,"4166 Euclid Avenue,San Diego,CA,92105",92105,"Euclid Elementary, San Diego Unified",S,San Diego,San Diego Unified,Euclid Elementary,TA,686.0
346,37683386039556,San Diego Unified,Field Elementary,92117-2810,http://www.sandi.net/field,Elementary,32.832971,-117.19927,2020-07-02,"4375 Bannock Avenue,San Diego,CA,92117",92117,"Field Elementary, San Diego Unified",S,San Diego,San Diego Unified,Field Elementary,TA,322.0
347,37683386039564,San Diego Unified,Fletcher Elementary,92123-3701,,Elementary,32.785778,-117.1585,2020-08-13,"7666 Bobolink Way,San Diego,CA,92123",92123,"Fletcher Elementary, San Diego Unified",S,San Diego,San Diego Unified,Fletcher Elementary,TA,188.0
348,37683386039572,San Diego Unified,Florence Elementary,92103-3089,,Elementary,32.748814,-117.16391,2020-08-13,"3914 First Avenue,San Diego,CA,92103",92103,"Florence Elementary, San Diego Unified",S,San Diego,San Diego Unified,Florence Elementary,TA,253.0
349,37683386039598,San Diego Unified,Foster Elementary,92120-2794,http://www.sandi.net/foster,Elementary,32.791734,-117.0841,2020-08-13,"6550 51st Street,San Diego,CA,92120",92120,"Foster Elementary, San Diego Unified",S,San Diego,San Diego Unified,Foster Elementary,TA,448.0
350,37683386039606,San Diego Unified,Franklin Elementary,92116-4802,,Elementary,32.75806,-117.104,2020-08-13,"4481 Copeland Avenue,San Diego,CA,92116",92116,"Franklin Elementary, San Diego Unified",S,San Diego,San Diego Unified,Franklin Elementary,TA,397.0
351,37683386039614,San Diego Unified,Freese Elementary,92114-7309,http://www.sandi.net/freese,Elementary,32.703611,-117.02741,2020-08-13,"8140 Greenlawn Drive,San Diego,CA,92114",92114,"Freese Elementary, San Diego Unified",S,San Diego,San Diego Unified,Freese Elementary,TA,322.0
352,37683386039630,San Diego Unified,Fulton K-8,92114-5930,http://www.sandi.net/fulton,Elementary,32.702667,-117.04741,2020-08-13,"7055 Skyline Drive,San Diego,CA,92114",92114,"Fulton K-8, San Diego Unified",S,San Diego,San Diego Unified,Fulton K-8,TA,372.0
353,37683386039648,San Diego Unified,Gage Elementary,92119-1918,http://sandi.net/gage,Elementary,32.806947,-117.01474,2020-02-04,"6811 Bisby Lake Avenue,San Diego,CA,92119",92119,"Gage Elementary, San Diego Unified",S,San Diego,San Diego Unified,Gage Elementary,TA,609.0
354,37683386039655,San Diego Unified,Garfield Elementary,92116-3018,,Elementary,32.7583,-117.13512,2020-08-13,"4487 Oregon Street,San Diego,CA,92116",92116,"Garfield Elementary, San Diego Unified",S,San Diego,San Diego Unified,Garfield Elementary,TA,327.0
355,37683386039671,San Diego Unified,Grant K-8,92103-1792,http://www.grantk8.com,Elementary,32.749893,-117.17562,2020-09-10,"1425 Washington Place,San Diego,CA,92103",92103,"Grant K-8, San Diego Unified",S,San Diego,San Diego Unified,Grant K-8,TA,768.0
356,37683386039697,San Diego Unified,Green Elementary,92119-2969,http://sandi.net/green,Elementary,32.796445,-117.04495,2020-08-13,"7030 Wandermere Place,San Diego,CA,92119",92119,"Green Elementary, San Diego Unified",S,San Diego,San Diego Unified,Green Elementary,TA,464.0
357,37683386039705,San Diego Unified,Hamilton Elementary,92105-4635,http://new.sandi.net/schools/hamilton,Elementary,32.736135,-117.10096,2020-07-02,"2807 Fairmount Avenue,San Diego,CA,92105",92105,"Hamilton Elementary, San Diego Unified",S,San Diego,San Diego Unified,Hamilton Elementary,TA,666.0
358,37683386039713,San Diego Unified,Hardy Elementary,92115-1329,http://www.sandi.net/hardy,Elementary,32.771216,-117.07974,2020-08-13,"5420 Montezuma Road,San Diego,CA,92115",92115,"Hardy Elementary, San Diego Unified",S,San Diego,San Diego Unified,Hardy Elementary,TA,371.0
359,37683386039721,San Diego Unified,Hawthorne Elementary,92117-1358,,Elementary,32.838493,-117.18864,2020-08-13,"4750 Lehrer Drive,San Diego,CA,92117",92117,"Hawthorne Elementary, San Diego Unified",S,San Diego,San Diego Unified,Hawthorne Elementary,TA,261.0
360,37683386039739,San Diego Unified,Hearst Elementary,92120-4604,http://www.sandi.net/hearst,Elementary,32.782889,-117.06432,2020-08-13,"6230 Del Cerro Boulevard,San Diego,CA,92120",92120,"Hearst Elementary, San Diego Unified",S,San Diego,San Diego Unified,Hearst Elementary,TA,521.0
361,37683386039747,San Diego Unified,Holmes Elementary,92111-3808,http://www.sandi.net/holmes,Elementary,32.810047,-117.18916,2020-08-13,"4902 Mount Ararat Drive,San Diego,CA,92111",92111,"Holmes Elementary, San Diego Unified",S,San Diego,San Diego Unified,Holmes Elementary,TA,587.0
362,37683386039754,San Diego Unified,Horton Elementary,92102-3734,,Elementary,32.712278,-117.08621,2020-09-10,"5050 Guymon Street,San Diego,CA,92102",92102,"Horton Elementary, San Diego Unified",S,San Diego,San Diego Unified,Horton Elementary,TA,444.0
363,37683386039762,San Diego Unified,Fay Elementary,92105-2209,,Elementary,32.750942,-117.08361,2020-07-02,"4080 52nd Street,San Diego,CA,92105",92105,"Fay Elementary, San Diego Unified",S,San Diego,San Diego Unified,Fay Elementary,TA,820.0
364,37683386039770,San Diego Unified,Jefferson Elementary,92104-3532,,Elementary,32.74722,-117.13284,2020-08-13,"3770 Utah Street,San Diego,CA,92104",92104,"Jefferson Elementary, San Diego Unified",S,San Diego,San Diego Unified,Jefferson Elementary,TA,444.0
365,37683386039788,San Diego Unified,Johnson Elementary,92114-1229,,Elementary,32.719126,-117.07514,2020-08-13,"1355 Kelton Road,San Diego,CA,92114",92114,"Johnson Elementary, San Diego Unified",S,San Diego,San Diego Unified,Johnson Elementary,TA,316.0
366,37683386039796,San Diego Unified,Jones Elementary,92123-2836,http://www2.sandi.net/jones,Elementary,32.796255,-117.14242,2020-08-13,"2751 Greyling Drive,San Diego,CA,92123",92123,"Jones Elementary, San Diego Unified",S,San Diego,San Diego Unified,Jones Elementary,TA,330.0
367,37683386039804,San Diego Unified,Juarez Elementary,92123-3535,,Elementary,32.792242,-117.12589,2020-02-03,"2633 Melbourne Drive,San Diego,CA,92123",92123,"Juarez Elementary, San Diego Unified",S,San Diego,San Diego Unified,Juarez Elementary,TA,272.0
368,37683386039846,San Diego Unified,La Jolla Elementary,92037-5131,http://www.ljes.org,Elementary,32.839513,-117.27086,2020-08-13,"1111 Marine Street,La Jolla,CA,92037",92037,"La Jolla Elementary, San Diego Unified",S,San Diego,San Diego Unified,La Jolla Elementary,TA,586.0
369,37683386039853,San Diego Unified,Lafayette Elementary,92117-3346,http://new.sandi.net/schools/lafayette,Elementary,32.827552,-117.16914,2020-08-13,"6125 Printwood Way,San Diego,CA,92117",92117,"Lafayette Elementary, San Diego Unified",S,San Diego,San Diego Unified,Lafayette Elementary,TA,285.0
370,37683386039861,San Diego Unified,Pacific View Leadership Elementary,92139-3612,,Elementary,32.670197,-117.0571,2020-08-13,"6196 Childs Avenue,San Diego,CA,92139",92139,"Pacific View Leadership Elementary, San Diego Unified",S,San Diego,San Diego Unified,Pacific View Leadership Elementary,TA,284.0
371,37683386039879,San Diego Unified,Linda Vista Elementary,92111-5530,http://www.sandi.net/lindavista,Elementary,32.793449,-117.17314,2020-07-02,"2772 Ulric Street,San Diego,CA,92111",92111,"Linda Vista Elementary, San Diego Unified",S,San Diego,San Diego Unified,Linda Vista Elementary,TA,385.0
372,37683386039887,San Diego Unified,Lindbergh/Schweitzer Elementary,92111-3128,http://sandi.net/lindberghschweitzer,Elementary,32.819448,-117.17152,2020-08-13,"4133 Mount Albertine Avenue,San Diego,CA,92111",92111,"Lindbergh/Schweitzer Elementary, San Diego Unified",S,San Diego,San Diego Unified,Lindbergh/Schweitzer Elementary,TA,359.0
373,37683386039903,San Diego Unified,Loma Portal Elementary,92106-1599,http://www.lomaportalelementary.com,Elementary,32.740347,-117.2211,2020-08-13,"3341 Browning Street,San Diego,CA,92106",92106,"Loma Portal Elementary, San Diego Unified",S,San Diego,San Diego Unified,Loma Portal Elementary,TA,423.0
374,37683386039911,San Diego Unified,Longfellow K-8,92110-1114,http://www.sandiegounified.org/schools/logan,Elementary,32.783766,-117.18851,2020-09-10,"5055 July Street,San Diego,CA,92110",92110,"Longfellow K-8, San Diego Unified",S,San Diego,San Diego Unified,Longfellow K-8,TA,723.0
375,37683386039929,San Diego Unified,Perkins K-8,92113-2104,,Elementary,32.700764,-117.14913,2020-08-13,"1770 Main Street,San Diego,CA,92113",92113,"Perkins K-8, San Diego Unified",S,San Diego,San Diego Unified,Perkins K-8,TA,571.0
376,37683386039952,San Diego Unified,Marshall Elementary,92105-3698,,Elementary,32.742345,-117.08638,2020-09-10,"3550 Altadena Avenue,San Diego,CA,92105",92105,"Marshall Elementary, San Diego Unified",S,San Diego,San Diego Unified,Marshall Elementary,TA,648.0
377,37683386039960,San Diego Unified,Marvin Elementary,92120-1905,http://www.sandi.net/marvin,Elementary,32.796157,-117.06913,2020-08-13,"5720 Brunswick Avenue,San Diego,CA,92120",92120,"Marvin Elementary, San Diego Unified",S,San Diego,San Diego Unified,Marvin Elementary,TA,534.0
378,37683386039978,San Diego Unified,McKinley Elementary,92104-5218,http://new.sandi.net/schools/mckinley/pages,Elementary,32.736627,-117.12208,2020-08-13,"3045 Felton Street,San Diego,CA,92104",92104,"McKinley Elementary, San Diego Unified",S,San Diego,San Diego Unified,McKinley Elementary,TA,559.0
379,37683386040000,San Diego Unified,Language Academy,92115-2602,http://sandi.net/languageacademy,Elementary,32.768355,-117.06227,2020-02-03,"4961 64th Street,San Diego,CA,92115",92115,"Language Academy, San Diego Unified",S,San Diego,San Diego Unified,Language Academy,TA,1155.0
380,37683386040026,San Diego Unified,Oak Park Elementary,92105-4999,http://www.sandi.net/oakpark,Elementary,32.732601,-117.0797,2020-08-13,"2606 54th Street,San Diego,CA,92105",92105,"Oak Park Elementary, San Diego Unified",S,San Diego,San Diego Unified,Oak Park Elementary,TA,562.0
381,37683386040034,San Diego Unified,Ocean Beach Elementary,92107-2297,http://www.obelementary.com,Elementary,32.745144,-117.24615,2020-08-13,"4741 Santa Monica Avenue,San Diego,CA,92107",92107,"Ocean Beach Elementary, San Diego Unified",S,San Diego,San Diego Unified,Ocean Beach Elementary,TA,443.0
382,37683386040042,San Diego Unified,Pacific Beach Elementary,92109-1856,http://www.sandi.net/pbe,Elementary,32.808661,-117.25041,2020-08-13,"1234 Tourmaline Street,San Diego,CA,92109",92109,"Pacific Beach Elementary, San Diego Unified",S,San Diego,San Diego Unified,Pacific Beach Elementary,TA,402.0
383,37683386040059,San Diego Unified,Paradise Hills Elementary,92139-1799,,Elementary,32.679597,-117.06622,2020-08-13,"5816 Alleghany Street,San Diego,CA,92139",92139,"Paradise Hills Elementary, San Diego Unified",S,San Diego,San Diego Unified,Paradise Hills Elementary,TA,326.0
384,37683386040067,San Diego Unified,Perry Elementary,92139-1142,http://www.sandi.net/perry,Elementary,32.684978,-117.05864,2020-08-13,"6290 Oriskany Road,San Diego,CA,92139",92139,"Perry Elementary, San Diego Unified",S,San Diego,San Diego Unified,Perry Elementary,TA,434.0
385,37683386040083,San Diego Unified,Riley/New Dawn,92111-4016,http://www.sandi.net/riley,Elementary-High Combination,32.809086,-117.17936,2020-08-13,"5650 Mount Ackerly Drive,San Diego,CA,92111",92111,"Riley/New Dawn, San Diego Unified",S,San Diego,San Diego Unified,Riley/New Dawn,TA,247.0
386,37683386040091,San Diego Unified,Rolando Park Elementary,92115-6740,,Elementary,32.747808,-117.05444,2020-08-13,"6620 Marlowe Drive,San Diego,CA,92115",92115,"Rolando Park Elementary, San Diego Unified",S,San Diego,San Diego Unified,Rolando Park Elementary,TA,220.0
387,37683386040109,San Diego Unified,Ross Elementary,92111-4317,,Elementary,32.811323,-117.16124,2020-08-13,"7470 Bagdad Street,San Diego,CA,92111",92111,"Ross Elementary, San Diego Unified",S,San Diego,San Diego Unified,Ross Elementary,TA,229.0
388,37683386040117,San Diego Unified,Rowan Elementary,92105-5631,,Elementary,32.723626,-117.11303,2020-09-10,"1755 Rowan Street,San Diego,CA,92105",92105,"Rowan Elementary, San Diego Unified",S,San Diego,San Diego Unified,Rowan Elementary,TA,202.0
389,37683386040133,San Diego Unified,Sequoia Elementary,92117-3220,http://new.sandi.net/schools/sequoia,Elementary,32.828397,-117.17864,2020-08-13,"4690 Limerick Avenue,San Diego,CA,92117",92117,"Sequoia Elementary, San Diego Unified",S,San Diego,San Diego Unified,Sequoia Elementary,TA,199.0
390,37683386040141,San Diego Unified,Sessions Elementary,92109-3617,http://new.sandi.net/schools/sessions,Elementary,32.8087,-117.23201,2020-09-10,"2150 Beryl Street,San Diego,CA,92109",92109,"Sessions Elementary, San Diego Unified",S,San Diego,San Diego Unified,Sessions Elementary,TA,545.0
391,37683386040158,San Diego Unified,Sherman Elementary,92102-2918,,Elementary,32.708405,-117.1439,2020-07-02,"301 22nd Street,San Diego,CA,92102",92102,"Sherman Elementary, San Diego Unified",S,San Diego,San Diego Unified,Sherman Elementary,TA,671.0
392,37683386040166,San Diego Unified,Silver Gate Elementary,92107-3699,http://new.sandi.net/schools/silvergate,Elementary,32.733235,-117.24415,2020-08-13,"1499 Venice Street,San Diego,CA,92107",92107,"Silver Gate Elementary, San Diego Unified",S,San Diego,San Diego Unified,Silver Gate Elementary,TA,518.0
393,37683386040174,San Diego Unified,Spreckels Elementary,92122-3399,http://www.sandi.net/spreckels,Elementary,32.849998,-117.21334,2020-08-13,"6033 Stadium Street,San Diego,CA,92122",92122,"Spreckels Elementary, San Diego Unified",S,San Diego,San Diego Unified,Spreckels Elementary,TA,679.0
394,37683386040208,San Diego Unified,Sunset View Elementary,92107-4199,http://www.sunsetviewelementary.com,Elementary,32.724692,-117.25049,2020-09-10,"4365 Hill Street,San Diego,CA,92107",92107,"Sunset View Elementary, San Diego Unified",S,San Diego,San Diego Unified,Sunset View Elementary,TA,439.0
395,37683386040224,San Diego Unified,Toler Elementary,92117-6017,http://www.sandi.net/toler,Elementary,32.80064,-117.20929,2020-08-13,"3350 Baker Street,San Diego,CA,92117",92117,"Toler Elementary, San Diego Unified",S,San Diego,San Diego Unified,Toler Elementary,TA,280.0
396,37683386040232,San Diego Unified,Torrey Pines Elementary,92037-2106,http://www.sandi.net/torreypines,Elementary,32.858621,-117.24378,2020-08-13,"8350 Cliffridge Avenue,La Jolla,CA,92037",92037,"Torrey Pines Elementary, San Diego Unified",S,San Diego,San Diego Unified,Torrey Pines Elementary,TA,505.0
397,37683386040257,San Diego Unified,Valencia Park Elementary,92114-5599,http://new.sandi.net/schools/valenciapark,Elementary,32.701466,-117.07178,2020-08-13,"5880 Skyline Drive,San Diego,CA,92114",92114,"Valencia Park Elementary, San Diego Unified",S,San Diego,San Diego Unified,Valencia Park Elementary,TA,555.0
398,37683386040265,San Diego Unified,Washington Elementary,92101-2598,http://www.sandi.net/washington,Elementary,32.724215,-117.1667,2020-08-13,"1789 State Street,San Diego,CA,92101",92101,"Washington Elementary, San Diego Unified",S,San Diego,San Diego Unified,Washington Elementary,TA,377.0
399,37683386040273,San Diego Unified,Webster Elementary,92102-1354,http://webster.sandi.net,Elementary,32.724157,-117.09239,2020-08-13,"4801 Elm Street,San Diego,CA,92102",92102,"Webster Elementary, San Diego Unified",S,San Diego,San Diego Unified,Webster Elementary,TA,281.0
400,37683386040281,San Diego Unified,Wegeforth Elementary,92123-2207,http://www.sandi.net/wegeforth,Elementary,32.805607,-117.1365,2020-08-13,"3443 Ediwhar Avenue,San Diego,CA,92123",92123,"Wegeforth Elementary, San Diego Unified",S,San Diego,San Diego Unified,Wegeforth Elementary,TA,245.0
401,37683386040299,San Diego Unified,Benchley/Weinberger Elementary,92119-3051,http://www.sandi.net/bw,Elementary,32.794462,-117.03254,2020-08-13,"6269 Twin Lake Drive,San Diego,CA,92119",92119,"Benchley/Weinberger Elementary, San Diego Unified",S,San Diego,San Diego Unified,Benchley/Weinberger Elementary,TA,572.0
402,37683386040307,San Diego Unified,Whitman Elementary,92117-1101,http://new.sandi.net/schools/whitman,Elementary,32.836074,-117.20321,2020-08-13,"4050 Appleton Street,San Diego,CA,92117",92117,"Whitman Elementary, San Diego Unified",S,San Diego,San Diego Unified,Whitman Elementary,TA,129.0
403,37683386059588,San Diego Unified,Bell Middle,92139-1399,http://www.sandi.net/bell,Intermediate/Middle/Junior High,32.688916,-117.03736,2019-02-13,"620 Briarwood Road,San Diego,CA,92139",92139,"Bell Middle, San Diego Unified",S,San Diego,San Diego Unified,Bell Middle,TA,784.0
404,37683386059596,San Diego Unified,Correia Middle,92107-1510,http://www.correiamiddle.com,Intermediate/Middle/Junior High,32.748723,-117.23133,2020-08-13,"4302 Valeta Street,San Diego,CA,92107",92107,"Correia Middle, San Diego Unified",S,San Diego,San Diego Unified,Correia Middle,TA,810.0
405,37683386059604,San Diego Unified,Dana,92106-3709,http://www.danamiddle.com,Elementary,32.73311,-117.23346,2020-08-13,"1775 Chatsworth Boulevard,San Diego,CA,92106",92106,"Dana, San Diego Unified",S,San Diego,San Diego Unified,Dana,TA,789.0
406,37683386059638,San Diego Unified,Lewis Middle,92120-1220,http://www.lewis.edu,Intermediate/Middle/Junior High,32.795877,-117.07977,2020-08-13,"5170 Greenbrier Avenue,San Diego,CA,92120",92120,"Lewis Middle, San Diego Unified",S,San Diego,San Diego Unified,Lewis Middle,TA,1107.0
407,37683386059646,San Diego Unified,Mann Middle,92115-5336,http://www.sandi.net/mann,Intermediate/Middle/Junior High,32.75662,-117.0793,2020-08-13,"4345 54th Street,San Diego,CA,92115",92115,"Mann Middle, San Diego Unified",S,San Diego,San Diego Unified,Mann Middle,TA,850.0
408,37683386059653,San Diego Unified,Marston Middle,92117-5915,http://www.marstonmiddle.org,Intermediate/Middle/Junior High,32.808054,-117.20111,2020-08-13,"3799 Clairemont Drive,San Diego,CA,92117",92117,"Marston Middle, San Diego Unified",S,San Diego,San Diego Unified,Marston Middle,TA,689.0
409,37683386059679,San Diego Unified,Montgomery Middle,92111-6099,http://montgomery.sandi.net,Intermediate/Middle/Junior High,32.788093,-117.17162,2020-09-10,"2470 Ulric Street,San Diego,CA,92111",92111,"Montgomery Middle, San Diego Unified",S,San Diego,San Diego Unified,Montgomery Middle,TA,508.0
410,37683386059687,San Diego Unified,Muirlands Middle,92037-6299,http://www.muirlandsms.org,Intermediate/Middle/Junior High,32.83213,-117.2697,2020-09-10,"1056 Nautilus Street,La Jolla,CA,92037",92037,"Muirlands Middle, San Diego Unified",S,San Diego,San Diego Unified,Muirlands Middle,TA,948.0
411,37683386059695,San Diego Unified,Pacific Beach Middle,92109-3192,http://pbmiddle.sandi.net,Intermediate/Middle/Junior High,32.802126,-117.24167,2020-02-03,"4676 Ingraham Street,San Diego,CA,92109",92109,"Pacific Beach Middle, San Diego Unified",S,San Diego,San Diego Unified,Pacific Beach Middle,TA,775.0
412,37683386059703,San Diego Unified,Roosevelt International Middle,92103-5299,http://rooseveltmiddle.org,Intermediate/Middle/Junior High,32.740202,-117.14746,2020-09-10,"3366 Park Boulevard,San Diego,CA,92103",92103,"Roosevelt International Middle, San Diego Unified",S,San Diego,San Diego Unified,Roosevelt International Middle,TA,1043.0
413,37683386059711,San Diego Unified,Taft Middle,92123-4015,http://sandi.net/taft,Intermediate/Middle/Junior High,32.802346,-117.13113,2020-08-13,"9191 Gramercy Drive,San Diego,CA,92123",92123,"Taft Middle, San Diego Unified",S,San Diego,San Diego Unified,Taft Middle,TA,522.0
414,37683386061972,San Diego Unified,Pershing Middle,92119-2636,http://www.sandi.net/pershing,Intermediate/Middle/Junior High,32.800979,-117.02039,2020-08-13,"8204 San Carlos Drive,San Diego,CA,92119",92119,"Pershing Middle, San Diego Unified",S,San Diego,San Diego Unified,Pershing Middle,TA,714.0
415,37683386061980,San Diego Unified,Wilson Middle,92105-1038,http://wilsontigers.org,Intermediate/Middle/Junior High,32.753259,-117.11195,2019-02-13,"3838 Orange Avenue,San Diego,CA,92105",92105,"Wilson Middle, San Diego Unified",S,San Diego,San Diego Unified,Wilson Middle,TA,1005.0
416,37683386069116,San Diego Unified,Miramar Ranch Elementary,92131-1204,http://miramarranch.org,Elementary,32.910297,-117.09902,2020-08-13,"10770 Red Cedar Drive,San Diego,CA,92131",92131,"Miramar Ranch Elementary, San Diego Unified",S,San Diego,San Diego Unified,Miramar Ranch Elementary,TA,729.0
417,37683386071914,San Diego Unified,Mason Elementary,92126-3235,http://www.sandi.net/mason,Elementary,32.906112,-117.13948,2020-08-13,"10340 San Ramon Drive,San Diego,CA,92126",92126,"Mason Elementary, San Diego Unified",S,San Diego,San Diego Unified,Mason Elementary,TA,583.0
418,37683386077317,San Diego Unified,Penn Elementary,92139-3843,http://www.sandi.net/penn,Elementary,32.673067,-117.0471,2020-08-13,"2797 Utica Drive,San Diego,CA,92139",92139,"Penn Elementary, San Diego Unified",S,San Diego,San Diego Unified,Penn Elementary,TA,435.0
419,37683386089015,San Diego Unified,Ericson Elementary,92126-1943,http://new.sandi.net/schools/ericson,Elementary,32.927749,-117.13565,2020-08-13,"11174 Westonhill Drive,San Diego,CA,92126",92126,"Ericson Elementary, San Diego Unified",S,San Diego,San Diego Unified,Ericson Elementary,TA,715.0
420,37683386089023,San Diego Unified,Hickman Elementary,92126-2629,http://new.sandi.net/schools/hickman,Elementary,32.914994,-117.15224,2020-08-13,"10850 Montongo Street,San Diego,CA,92126",92126,"Hickman Elementary, San Diego Unified",S,San Diego,San Diego Unified,Hickman Elementary,TA,452.0
421,37683386089049,San Diego Unified,Sandburg Elementary,92126-1235,http://www.sandi.net/sandburg,Elementary,32.925833,-117.14979,2020-08-13,"11230 Avenida del Gato,San Diego,CA,92126",92126,"Sandburg Elementary, San Diego Unified",S,San Diego,San Diego Unified,Sandburg Elementary,TA,561.0
422,37683386089056,San Diego Unified,Tierrasanta Elementary,92124-1417,http://www.sandi.net/tierrasanta,Elementary,32.829402,-117.09678,2020-02-21,"5450 La Cuenta Drive,San Diego,CA,92124",92124,"Tierrasanta Elementary, San Diego Unified",S,San Diego,San Diego Unified,Tierrasanta Elementary,TA,538.0
423,37683386089064,San Diego Unified,Walker Elementary,92126-2908,,Elementary,32.912841,-117.12669,2020-08-13,"9225 Hillery Drive,San Diego,CA,92126",92126,"Walker Elementary, San Diego Unified",S,San Diego,San Diego Unified,Walker Elementary,TA,473.0
424,37683386093256,San Diego Unified,Miller Elementary,92124-2933,http://sandi.net/miller,Elementary,32.818568,-117.10756,2020-09-10,"4343 Shields Street,San Diego,CA,92124",92124,"Miller Elementary, San Diego Unified",S,San Diego,San Diego Unified,Miller Elementary,TA,869.0
425,37683386096051,San Diego Unified,Hancock Elementary,92124-3501,http://www.sandi.net/hancock,Elementary,32.805301,-117.108,2020-08-13,"3303 Taussig Street,San Diego,CA,92124",92124,"Hancock Elementary, San Diego Unified",S,San Diego,San Diego Unified,Hancock Elementary,TA,734.0
426,37683386096598,San Diego Unified,Standley Middle,92122-3330,http://www.sandi.net/standley,Intermediate/Middle/Junior High,32.852231,-117.20568,2020-08-13,"6298 Radcliffe Drive,San Diego,CA,92122",92122,"Standley Middle, San Diego Unified",S,San Diego,San Diego Unified,Standley Middle,TA,1055.0
427,37683386096879,San Diego Unified,Dailard Elementary,92120-2125,http://www.sandi.net/dailard,Elementary,32.804463,-117.0539,2020-08-13,"6425 Cibola Road,San Diego,CA,92120",92120,"Dailard Elementary, San Diego Unified",S,San Diego,San Diego Unified,Dailard Elementary,TA,536.0
428,37683386097844,San Diego Unified,Wangenheim Middle,92126-3799,http://sandi.net/wangenheim,Intermediate/Middle/Junior High,32.905408,-117.12646,2020-08-13,"9230 Gold Coast Drive,San Diego,CA,92126",92126,"Wangenheim Middle, San Diego Unified",S,San Diego,San Diego Unified,Wangenheim Middle,TA,973.0
429,37683386099055,San Diego Unified,Doyle Elementary,92122-1601,http://www.sandiegounified.org/doyle,Elementary,32.863694,-117.22184,2020-08-13,"3950 Berino Court,San Diego,CA,92122",92122,"Doyle Elementary, San Diego Unified",S,San Diego,San Diego Unified,Doyle Elementary,TA,749.0
430,37683386099063,San Diego Unified,Farb Middle,92124-3015,http://www.farbmiddle.org,Intermediate/Middle/Junior High,32.819754,-117.09995,2020-08-13,"4880 La Cuenta Drive,San Diego,CA,92124",92124,"Farb Middle, San Diego Unified",S,San Diego,San Diego Unified,Farb Middle,TA,543.0
431,37683386099071,San Diego Unified,Jerabek Elementary,92131-1426,http://www.jerabekweb.com,Elementary,32.908201,-117.08352,2020-08-13,"10050 Avenida Magnifica,San Diego,CA,92131",92131,"Jerabek Elementary, San Diego Unified",S,San Diego,San Diego Unified,Jerabek Elementary,TA,666.0
432,37683386099089,San Diego Unified,Vista Grande Elementary,92124-1306,http://www.vistagrandeelementary.net,Elementary,32.834267,-117.10709,2020-08-13,"5606 Antigua Boulevard,San Diego,CA,92124",92124,"Vista Grande Elementary, San Diego Unified",S,San Diego,San Diego Unified,Vista Grande Elementary,TA,425.0
433,37683386106173,San Diego Unified,Bethune K-8,92114-7827,http://www.sandi.net/bethune,Elementary,32.689764,-117.05013,2020-08-13,"6835 Benjamin Holt Road,San Diego,CA,92114",92114,"Bethune K-8, San Diego Unified",S,San Diego,San Diego Unified,Bethune K-8,TA,643.0
434,37683386106181,San Diego Unified,De Portola Middle,92124-1507,http://www.sandi.net/deportola,Intermediate/Middle/Junior High,32.828049,-117.09202,2020-08-13,"11010 Clairemont Mesa Boulevard,San Diego,CA,92124",92124,"De Portola Middle, San Diego Unified",S,San Diego,San Diego Unified,De Portola Middle,TA,947.0
435,37683386106199,San Diego Unified,Zamorano Elementary,92139-2989,http://new.sandi.net/schools/zamorano,Elementary,32.680338,-117.03864,2020-08-13,"2655 Casey Street,San Diego,CA,92139",92139,"Zamorano Elementary, San Diego Unified",S,San Diego,San Diego Unified,Zamorano Elementary,TA,1116.0
436,37683386107056,San Diego Unified,Challenger Middle,92126-2599,http://www.challengerms.org,Intermediate/Middle/Junior High,32.913729,-117.15613,2020-09-10,"10810 Parkdale Avenue,San Diego,CA,92126",92126,"Challenger Middle, San Diego Unified",S,San Diego,San Diego Unified,Challenger Middle,TA,979.0
437,37683386109599,San Diego Unified,Hage Elementary,92126-4823,http://www.hagepta.com,Elementary,32.920514,-117.12094,2020-08-13,"9750 Galvin Avenue,San Diego,CA,92126",92126,"Hage Elementary, San Diego Unified",S,San Diego,San Diego Unified,Hage Elementary,TA,757.0
438,37683386112460,San Diego Unified,Kumeyaay Elementary,92124-4031,,Elementary,32.836632,-117.09116,2020-08-13,"6475 Antigua Boulevard,San Diego,CA,92124",92124,"Kumeyaay Elementary, San Diego Unified",S,San Diego,San Diego Unified,Kumeyaay Elementary,TA,443.0
439,37683386112478,San Diego Unified,Nye Elementary,92114-6574,,Elementary,32.696055,-117.07013,2020-08-13,"981 Valencia Parkway,San Diego,CA,92114",92114,"Nye Elementary, San Diego Unified",S,San Diego,San Diego Unified,Nye Elementary,TA,420.0
440,37683386112726,San Diego Unified,Dingeman Elementary,92131-3701,http://www.dingeman.net,Elementary,32.933134,-117.0907,2020-08-13,"11840 Scripps Creek Drive,San Diego,CA,92131",92131,"Dingeman Elementary, San Diego Unified",S,San Diego,San Diego Unified,Dingeman Elementary,TA,766.0
441,37683386114060,San Diego Unified,Clark Middle,92105-4238,http://www.monroeclark.org,Intermediate/Middle/Junior High,32.740317,-117.10004,2019-02-13,"4388 Thorn Street,San Diego,CA,92105",92105,"Clark Middle, San Diego Unified",S,San Diego,San Diego Unified,Clark Middle,TA,1430.0
442,37683386114292,San Diego Unified,Kimbrough Elementary,92102-3132,,Elementary,32.708732,-117.13288,2020-07-02,"321 Hoitt Street,San Diego,CA,92102",92102,"Kimbrough Elementary, San Diego Unified",S,San Diego,San Diego Unified,Kimbrough Elementary,TA,447.0
443,37683386114300,San Diego Unified,Chavez Elementary,92113-4037,http://new.sandi.net/schools/chavez,Elementary,32.691605,-117.10807,2020-07-02,"1404 South 40th Street,San Diego,CA,92113",92113,"Chavez Elementary, San Diego Unified",S,San Diego,San Diego Unified,Chavez Elementary,TA,529.0
444,37683386114375,San Diego Unified,Rosa Parks Elementary,92105-2822,http://parks.sandi.net,Elementary,32.745833,-117.09748,2020-07-02,"4510 Landis Street,San Diego,CA,92105",92105,"Rosa Parks Elementary, San Diego Unified",S,San Diego,San Diego Unified,Rosa Parks Elementary,TA,1201.0
445,37683386115331,San Diego Unified,Marshall Middle,92131-2135,http://marshallmiddle.org,Intermediate/Middle/Junior High,32.896523,-117.10011,2020-08-13,"9700 Avenue of Nations,San Diego,CA,92131",92131,"Marshall Middle, San Diego Unified",S,San Diego,San Diego Unified,Marshall Middle,TA,1517.0
446,37683386119135,San Diego Unified,Scripps Elementary,92131-3743,,Elementary,32.930673,-117.08174,2020-08-13,"11778 Cypress Canyon Road,San Diego,CA,92131",92131,"Scripps Elementary, San Diego Unified",S,San Diego,San Diego Unified,Scripps Elementary,TA,755.0
447,37683460106328,San Dieguito Union High,Canyon Crest Academy,92130-2499,http://www.sduhsd.net,High School,32.96024,-117.18835,2020-08-13,"5951 Village Center Loop Road,San Diego,CA,92130",92130,"Canyon Crest Academy, San Dieguito Union High",S,San Diego,San Dieguito Union High,Canyon Crest Academy,TA,2578.0
448,37683460131649,San Dieguito Union High,Pacific Trails Middle,92130-2499,http://www.sduhsd.net/our-schools/pacific-trails-middle-school/index.html,Intermediate/Middle/Junior High,32.958864,-117.18624,2020-08-13,"5975 Village Center Loop Road,San Diego,CA,92130",92130,"Pacific Trails Middle, San Dieguito Union High",S,San Diego,San Dieguito Union High,Pacific Trails Middle,TA,749.0
449,37683463730033,San Dieguito Union High,Torrey Pines High,92130-1316,http://www.sduhsd.net/tp,High School,32.956384,-117.22497,2020-08-13,"3710 Del Mar Heights Road,San Diego,CA,92130",92130,"Torrey Pines High, San Dieguito Union High",S,San Diego,San Dieguito Union High,Torrey Pines High,TA,2509.0
450,37683463731007,San Dieguito Union High,La Costa Canyon High,92009,,High School,33.075076,-117.23236,2020-08-13,"1 Maverick Way,Encinitas,CA,92009",92009,"La Costa Canyon High, San Dieguito Union High",S,San Diego,San Dieguito Union High,La Costa Canyon High,TA,2030.0
451,37683463737384,San Dieguito Union High,Sunset High (Continuation),92024-3703,,High School,33.043504,-117.27747,2019-02-13,"684 Requeza Street,Encinitas,CA,92024",92024,"Sunset High (Continuation), San Dieguito Union High",S,San Diego,San Dieguito Union High,Sunset High (Continuation),TA,204.0
452,37683463737418,San Dieguito Union High,San Dieguito HS Academy,92024-3357,,High School,33.036329,-117.27501,2019-02-13,"800 Santa Fe Drive,Encinitas,CA,92024",92024,"San Dieguito HS Academy, San Dieguito Union High",S,San Diego,San Dieguito Union High,San Dieguito HS Academy,TA,1862.0
453,37683466059737,San Dieguito Union High,Oak Crest Middle,92024-3996,,Intermediate/Middle/Junior High,33.042141,-117.26833,2020-08-13,"675 Balour Drive,Encinitas,CA,92024",92024,"Oak Crest Middle, San Dieguito Union High",S,San Diego,San Dieguito Union High,Oak Crest Middle,TA,764.0
454,37683466061998,San Dieguito Union High,Earl Warren Middle,92075-2038,,Intermediate/Middle/Junior High,32.995158,-117.26242,2020-08-13,"155 Stevens Street,Solana Beach,CA,92075",92075,"Earl Warren Middle, San Dieguito Union High",S,San Diego,San Dieguito Union High,Earl Warren Middle,TA,668.0
455,37683466104749,San Dieguito Union High,Diegueno Middle,92024-5400,,Intermediate/Middle/Junior High,33.056629,-117.24202,2019-02-13,"2150 Village Park Way,Encinitas,CA,92024",92024,"Diegueno Middle, San Dieguito Union High",S,San Diego,San Dieguito Union High,Diegueno Middle,TA,962.0
456,37683466117352,San Dieguito Union High,Carmel Valley Middle,92130-3572,http://sduhsd.net/cv,Intermediate/Middle/Junior High,32.946669,-117.22895,2020-08-13,"3800 Mykonos Lane,San Diego,CA,92130",92130,"Carmel Valley Middle, San Dieguito Union High",S,San Diego,San Dieguito Union High,Carmel Valley Middle,TA,1169.0
457,37683536040331,San Pasqual Union Elementary,San Pasqual Union Elementary,92027-6700,http://www.sanpasqualunion.net,Elementary,33.111418,-117.01127,2020-08-13,"15305 Rockwood Road,Escondido,CA,92027",92027,"San Pasqual Union Elementary, San Pasqual Union Elementary",S,San Diego,San Pasqual Union Elementary,San Pasqual Union Elementary,TA,603.0
458,37683616040349,Santee,Cajon Park Elementary,92071-1704,http://www.santeesd.net,Elementary,32.865962,-116.97111,2020-08-13,"10300 Magnolia Avenue,Santee,CA,92071",92071,"Cajon Park Elementary, Santee",S,San Diego,Santee,Cajon Park Elementary,TA,1048.0
459,37683616040356,Santee,Carlton Hills Elementary,92071-2515,http://www.santeesd.net,Elementary,32.848026,-116.99684,2020-08-13,"9353 Pike Road,Santee,CA,92071",92071,"Carlton Hills Elementary, Santee",S,San Diego,Santee,Carlton Hills Elementary,TA,704.0
460,37683616040364,Santee,Chet F. Harritt Elementary,92071-3513,http://www.santeesd.net,Elementary,32.831437,-117.01939,2020-08-13,"8120 Arlette Street,Santee,CA,92071",92071,"Chet F. Harritt Elementary, Santee",S,San Diego,Santee,Chet F. Harritt Elementary,TA,679.0
461,37683616040372,Santee,Pepper Drive Elementary,92020-1155,http://www.santeesd.net,Elementary,32.826876,-116.95401,2020-08-13,"1935 Marlinda Way,El Cajon,CA,92020",92020,"Pepper Drive Elementary, Santee",S,San Diego,Santee,Pepper Drive Elementary,TA,1022.0
462,37683616040380,Santee,PRIDE Academy at Prospect Avenue,92071-3798,http://www.santeesd.net,Elementary,32.833793,-116.996,2020-08-13,"9303 Prospect Avenue,Santee,CA,92071",92071,"PRIDE Academy at Prospect Avenue, Santee",S,San Diego,Santee,PRIDE Academy at Prospect Avenue,TA,632.0
463,37683616040406,Santee,Sycamore Canyon Elementary,92071-1099,http://www.santeesd.net,Elementary,32.862781,-117.00388,2020-08-13,"10201 Settle Road,Santee,CA,92071",92071,"Sycamore Canyon Elementary, Santee",S,San Diego,Santee,Sycamore Canyon Elementary,TA,396.0
464,37683616068159,Santee,Carlton Oaks Elementary,92071-2354,http://www.santeesd.net,Elementary,32.844606,-117.01489,2020-08-13,"9353 Wethersfield Road,Santee,CA,92071",92071,"Carlton Oaks Elementary, Santee",S,San Diego,Santee,Carlton Oaks Elementary,TA,903.0
465,37683616085153,Santee,Rio Seco Elementary,92071-2674,http://www.santeesd.net,Elementary,32.851376,-116.98324,2020-08-13,"9545 Cuyamaca Street,Santee,CA,92071",92071,"Rio Seco Elementary, Santee",S,San Diego,Santee,Rio Seco Elementary,TA,1062.0
466,37683616085161,Santee,Hill Creek Elementary,92071-2836,http://www.santeesd.net,Elementary,32.852951,-116.96326,2020-08-13,"9665 Jeremy Street,Santee,CA,92071",92071,"Hill Creek Elementary, Santee",S,San Diego,Santee,Hill Creek Elementary,TA,818.0
467,37683616111041,Santee,Santee Alternative,92071,http://www.santeesd.net,Elementary,32.862499,-116.97421,2019-02-13,"10250 El Nopal,Santee,CA,92071",92071,"Santee Alternative, Santee",S,San Diego,Santee,Santee Alternative,TA,34.0
468,37683616120190,Santee,Santee Success Program,92071-1998,http://www.santeesd.net,Intermediate/Middle/Junior High,32.865952,-116.97111,2019-02-13,"10280 North Magnolia Avenue,Santee,CA,92071",92071,"Santee Success Program, Santee",S,San Diego,Santee,Santee Success Program,TA,18.0
469,37683790123000,San Ysidro Elementary,Willow Elementary,92173-3096,http://www.sysdschools.org,Elementary,32.547737,-117.04235,2019-02-13,"226 Willow Road,San Ysidro,CA,92173",92173,"Willow Elementary, San Ysidro Elementary",S,San Diego,San Ysidro Elementary,Willow Elementary,TA,890.0
470,37683790137737,San Ysidro Elementary,Vista Del Mar,92154-8401,http://www.sysdschools.org,Intermediate/Middle/Junior High,32.570714,-117.02802,2020-08-13,"4885 Del Sol Boulevard,San Diego,CA,92154",92154,"Vista Del Mar, San Ysidro Elementary",S,San Diego,San Ysidro Elementary,Vista Del Mar,TA,444.0
471,37683796085146,San Ysidro Elementary,Smythe Elementary,92173-1599,http://www.sysdschools.org,Elementary,32.562092,-117.04941,2019-02-13,"1880 Smythe Avenue,San Ysidro,CA,92173",92173,"Smythe Elementary, San Ysidro Elementary",S,San Diego,San Ysidro Elementary,Smythe Elementary,TA,716.0
472,37683796089007,San Ysidro Elementary,La Mirada Elementary,92173-1508,http://www.sysdschools.org,Elementary,32.564207,-117.04606,2020-08-13,"222 Avenida de la Madrid,San Ysidro,CA,92173",92173,"La Mirada Elementary, San Ysidro Elementary",S,San Diego,San Ysidro Elementary,La Mirada Elementary,TA,471.0
473,37683796093264,San Ysidro Elementary,Sunset Elementary,92173-3334,http://www.sysdschools.org,Elementary,32.5582,-117.04998,2019-02-13,"3825 Sunset Lane,San Ysidro,CA,92173",92173,"Sunset Elementary, San Ysidro Elementary",S,San Diego,San Ysidro Elementary,Sunset Elementary,TA,742.0
474,37683796098453,San Ysidro Elementary,San Ysidro Middle,92173-1623,http://www.sysdschools.org,Intermediate/Middle/Junior High,32.562958,-117.03832,2020-08-13,"4345 Otay Mesa Road,San Ysidro,CA,92173",92173,"San Ysidro Middle, San Ysidro Elementary",S,San Diego,San Ysidro Elementary,San Ysidro Middle,TA,722.0
475,37683796119341,San Ysidro Elementary,Ocean View Hills,92154-8488,http://www.sysdschools.org,Elementary,32.572128,-117.02577,2019-10-24,"4919 Del Sol Boulevard,San Diego,CA,92154",92154,"Ocean View Hills, San Ysidro Elementary",S,San Diego,San Ysidro Elementary,Ocean View Hills,TA,1077.0
476,37683870105825,Solana Beach Elementary,Solana Pacific Elementary,92130-2584,,Elementary,32.952072,-117.23132,2020-08-13,"3901 Townsgate Drive,San Diego,CA,92130",92130,"Solana Pacific Elementary, Solana Beach Elementary",S,San Diego,Solana Beach Elementary,Solana Pacific Elementary,TA,573.0
477,37683870129049,Solana Beach Elementary,Solana Ranch Elementary,92130-5791,http://www.sbsd.k12.ca.us,Elementary,32.964436,-117.19227,2020-08-13,"13605 Pacific Highlands Ranch Parkway,San Diego,CA,92130",92130,"Solana Ranch Elementary, Solana Beach Elementary",S,San Diego,Solana Beach Elementary,Solana Ranch Elementary,TA,605.0
478,37683876040455,Solana Beach Elementary,Skyline Elementary,92075-1400,,Elementary,32.996163,-117.26298,2020-08-13,"606 Lomas Santa Fe Drive,Solana Beach,CA,92075",92075,"Skyline Elementary, Solana Beach Elementary",S,San Diego,Solana Beach Elementary,Skyline Elementary,TA,528.0
479,37683876070882,Solana Beach Elementary,Solana Vista Elementary,92075-1535,,Elementary,33.00415,-117.25085,2020-08-13,"780 Santa Victoria Avenue,Solana Beach,CA,92075",92075,"Solana Vista Elementary, Solana Beach Elementary",S,San Diego,Solana Beach Elementary,Solana Vista Elementary,TA,359.0
480,37683876106140,Solana Beach Elementary,Solana Highlands Elementary,92130-1808,,Elementary,32.954318,-117.24018,2020-08-13,"3520 Long Run Drive,San Diego,CA,92130",92130,"Solana Highlands Elementary, Solana Beach Elementary",S,San Diego,Solana Beach Elementary,Solana Highlands Elementary,TA,323.0
481,37683876111181,Solana Beach Elementary,Solana Santa Fe Elementary,92067-8940,,Elementary,32.997084,-117.19246,2020-08-13,"6570 El Apajo,Rancho Santa Fe,CA,92067",92067,"Solana Santa Fe Elementary, Solana Beach Elementary",S,San Diego,Solana Beach Elementary,Solana Santa Fe Elementary,TA,337.0
482,37683876112353,Solana Beach Elementary,Carmel Creek Elementary,92130-2480,http://sbsd.k12.ca.us/cc,Elementary,32.950872,-117.22565,2020-08-13,"4210 Carmel Center Road,San Diego,CA,92130",92130,"Carmel Creek Elementary, Solana Beach Elementary",S,San Diego,Solana Beach Elementary,Carmel Creek Elementary,TA,392.0
483,37683956040463,South Bay Union,Bayside STEAM Academy,91932-1524,,Elementary,32.587565,-117.11311,2020-08-13,"490 Emory Street,Imperial Beach,CA,91932",91932,"Bayside STEAM Academy, South Bay Union",S,San Diego,South Bay Union,Bayside STEAM Academy,TA,590.0
484,37683956040471,South Bay Union,Central Elementary,91932-2920,,Elementary,32.577528,-117.10592,2020-08-13,"1290 Ebony Avenue,Imperial Beach,CA,91932",91932,"Central Elementary, South Bay Union",S,San Diego,South Bay Union,Central Elementary,TA,594.0
485,37683956040489,South Bay Union,Emory Elementary,92154-2021,,Elementary,32.576466,-117.09159,2020-08-13,"1915 Coronado Avenue,San Diego,CA,92154",92154,"Emory Elementary, South Bay Union",S,San Diego,South Bay Union,Emory Elementary,TA,580.0
486,37683956040521,South Bay Union,Oneonta Elementary,91932-3403,,Elementary,32.57272,-117.11215,2019-02-13,"1311 Tenth Street,Imperial Beach,CA,91932",91932,"Oneonta Elementary, South Bay Union",S,San Diego,South Bay Union,Oneonta Elementary,TA,572.0
487,37683956040539,South Bay Union,Sunnyslope Elementary,92154-1498,,Elementary,32.58014,-117.07974,2019-07-15,"2500 Elm Avenue,San Diego,CA,92154",92154,"Sunnyslope Elementary, South Bay Union",S,San Diego,South Bay Union,Sunnyslope Elementary,TA,560.0
488,37683956067029,South Bay Union,Godfrey G. Berry Elementary,92154-3032,,Elementary,32.568151,-117.08999,2020-08-13,"2001 Rimbey Street,San Diego,CA,92154",92154,"Godfrey G. Berry Elementary, South Bay Union",S,San Diego,South Bay Union,Godfrey G. Berry Elementary,TA,545.0
489,37683956094973,South Bay Union,Howard Pence Elementary,92154-2256,,Elementary,32.579102,-117.06191,2019-07-15,"877 Via Tonga Court,San Diego,CA,92154",92154,"Howard Pence Elementary, South Bay Union",S,San Diego,South Bay Union,Howard Pence Elementary,TA,723.0
490,37683956098487,South Bay Union,George Nicoloff Elementary,92173-1235,,Elementary,32.564248,-117.06662,2020-07-09,"1777 Howard Avenue,San Ysidro,CA,92173",92173,"George Nicoloff Elementary, South Bay Union",S,San Diego,South Bay Union,George Nicoloff Elementary,TA,818.0
491,37683956116008,South Bay Union,Teofilo Mendoza,92154-2034,,Elementary,32.576464,-117.08954,2020-08-13,"2050 Coronado Avenue,San Diego,CA,92154",92154,"Teofilo Mendoza, South Bay Union",S,San Diego,South Bay Union,Teofilo Mendoza,TA,871.0
492,37684036040554,Spencer Valley Elementary,Spencer Valley Elementary,92070-0159,http://svesd.net,Elementary,33.09656,-116.64555,2019-02-13,"4414 Highway 78 and 79,Santa Ysabel,CA,92070",92070,"Spencer Valley Elementary, Spencer Valley Elementary",S,San Diego,Spencer Valley Elementary,Spencer Valley Elementary,TA,47.0
493,37684110111831,Sweetwater Union High,Olympian High,91913-3973,http://www.sweetwaterschools.org,High School,32.607105,-116.97209,2019-02-13,"1925 Magdalena Avenue,Chula Vista,CA,91913",91913,"Olympian High, Sweetwater Union High",S,San Diego,Sweetwater Union High,Olympian High,TA,2604.0
494,37684110115873,Sweetwater Union High,East Hills Academy,91913,http://www.sweetwaterschools.org/,High School,32.6101,-117.0768,2020-08-13,"1791 Rock Mountain Road,Chula Vista,CA,91913",91913,"East Hills Academy, Sweetwater Union High",S,San Diego,Sweetwater Union High,East Hills Academy,TA,82.0
495,37684113730124,Sweetwater Union High,Southwest Senior High,92154-4548,http://www.sweetwaterschools.org,High School,32.568057,-117.08409,2019-08-26,"1685 Hollister Street,San Diego,CA,92154",92154,"Southwest Senior High, Sweetwater Union High",S,San Diego,Sweetwater Union High,Southwest Senior High,TA,1933.0
496,37684113730405,Sweetwater Union High,Bonita Vista Senior High,91913-2004,http://www.sweetwaterschools.org/,High School,32.64603,-117.00114,2019-02-13,"751 Otay Lakes Road,Chula Vista,CA,91913",91913,"Bonita Vista Senior High, Sweetwater Union High",S,San Diego,Sweetwater Union High,Bonita Vista Senior High,TA,2479.0
497,37684113730801,Sweetwater Union High,Castle Park Senior High,91911-4529,,High School,32.606982,-117.05284,2019-02-13,"1395 Hilltop Drive,Chula Vista,CA,91911",91911,"Castle Park Senior High, Sweetwater Union High",S,San Diego,Sweetwater Union High,Castle Park Senior High,TA,1926.0
498,37684113730843,Sweetwater Union High,Eastlake High,91915-2102,http://www.sweetwaterschools.org,High School,32.646442,-116.96522,2019-08-26,"1120 Eastlake Parkway,Chula Vista,CA,91915",91915,"Eastlake High, Sweetwater Union High",S,San Diego,Sweetwater Union High,Eastlake High,TA,3046.0
499,37684113731064,Sweetwater Union High,Chula Vista Senior High,91911-1102,,High School,32.622027,-117.07697,2020-08-12,"820 Fourth Avenue,Chula Vista,CA,91911",91911,"Chula Vista Senior High, Sweetwater Union High",S,San Diego,Sweetwater Union High,Chula Vista Senior High,TA,2701.0
500,37684113731155,Sweetwater Union High,Options Secondary,91911-1705,,High School,32.61526,-117.07696,2020-08-13,"467 Moss Street,Chula Vista,CA,91911",91911,"Options Secondary, Sweetwater Union High",S,San Diego,Sweetwater Union High,Options Secondary,TA,135.0
501,37684113731460,Sweetwater Union High,Alta Vista Academy,91911-6618,http://www.sweetwaterschools.org,High School,32.61872,-117.02445,2020-08-13,"730 Medical Center Court,Chula Vista,CA,91911",91911,"Alta Vista Academy, Sweetwater Union High",S,San Diego,Sweetwater Union High,Alta Vista Academy,TA,77.0
502,37684113731502,Sweetwater Union High,San Ysidro High,92154-4806,http://www.sweetwaterschools.org,High School,32.566438,-117.01748,2019-02-13,"5353 Airway Road,San Diego,CA,92154",92154,"San Ysidro High, Sweetwater Union High",S,San Diego,Sweetwater Union High,San Ysidro High,TA,2632.0
503,37684113731627,Sweetwater Union High,Otay Ranch Senior High,91913-1900,http://www.sweetwaterschools.org,High School,32.619073,-116.99635,2019-02-13,"1250 Olympic Parkway,Chula Vista,CA,91913",91913,"Otay Ranch Senior High, Sweetwater Union High",S,San Diego,Sweetwater Union High,Otay Ranch Senior High,TA,2510.0
504,37684113732047,Sweetwater Union High,Palomar High,91911-3098,http://www.sweetwaterschools.org,High School,32.604757,-117.07385,2019-08-27,"480 Palomar Street,Chula Vista,CA,91911",91911,"Palomar High, Sweetwater Union High",S,San Diego,Sweetwater Union High,Palomar High,TA,440.0
505,37684113732849,Sweetwater Union High,Hilltop Senior High,91910-6105,http://www.sweetwaterschools.org,High School,32.636851,-117.0599,2019-10-31,"555 Claire Avenue,Chula Vista,CA,91910",91910,"Hilltop Senior High, Sweetwater Union High",S,San Diego,Sweetwater Union High,Hilltop Senior High,TA,2224.0
506,37684113733953,Sweetwater Union High,Mar Vista Senior High,91932-2027,,High School,32.580208,-117.12224,2019-08-26,"505 Elm Avenue,Imperial Beach,CA,91932",91932,"Mar Vista Senior High, Sweetwater Union High",S,San Diego,Sweetwater Union High,Mar Vista Senior High,TA,1759.0
507,37684113738226,Sweetwater Union High,Sweetwater High,91950-7415,http://www.sweetwaterschools.org,High School,32.659933,-117.0917,2019-02-13,"2900 Highland Avenue,National City,CA,91950",91950,"Sweetwater High, Sweetwater Union High",S,San Diego,Sweetwater Union High,Sweetwater High,TA,2865.0
508,37684113738234,Sweetwater Union High,Montgomery Senior High,92154-1507,,High School,32.583873,-117.06422,2019-08-26,"3250 Palm Avenue,San Diego,CA,92154",92154,"Montgomery Senior High, Sweetwater Union High",S,San Diego,Sweetwater Union High,Montgomery Senior High,TA,2054.0
509,37684116059745,Sweetwater Union High,Bonita Vista Middle,91910-6910,http://www.sweetwaterschools.org/,Intermediate/Middle/Junior High,32.648596,-117.00527,2019-02-13,"650 Otay Lakes Road,Chula Vista,CA,91910",91910,"Bonita Vista Middle, Sweetwater Union High",S,San Diego,Sweetwater Union High,Bonita Vista Middle,TA,1249.0
510,37684116059752,Sweetwater Union High,Castle Park Middle,91911-4414,,Intermediate/Middle/Junior High,32.604981,-117.05939,2019-02-13,"160 Quintard Street,Chula Vista,CA,91911",91911,"Castle Park Middle, Sweetwater Union High",S,San Diego,Sweetwater Union High,Castle Park Middle,TA,905.0
511,37684116059760,Sweetwater Union High,Chula Vista Middle,91910-4305,,Intermediate/Middle/Junior High,32.635067,-117.08645,2020-08-10,"415 Fifth Avenue,Chula Vista,CA,91910",91910,"Chula Vista Middle, Sweetwater Union High",S,San Diego,Sweetwater Union High,Chula Vista Middle,TA,963.0
512,37684116059778,Sweetwater Union High,Granger Junior High,91950-6299,http://www.sweetwaterschools.org,Intermediate/Middle/Junior High,32.672621,-117.07383,2019-08-26,"2101 Granger Avenue,National City,CA,91950",91950,"Granger Junior High, Sweetwater Union High",S,San Diego,Sweetwater Union High,Granger Junior High,TA,1032.0
513,37684116059786,Sweetwater Union High,Mar Vista Academy,92154-2802,http://www.sweetwaterschools.org,Intermediate/Middle/Junior High,32.57488,-117.09709,2019-02-13,"1267 Thermal Avenue,San Diego,CA,92154",92154,"Mar Vista Academy, Sweetwater Union High",S,San Diego,Sweetwater Union High,Mar Vista Academy,TA,827.0
514,37684116059794,Sweetwater Union High,National City Middle,91950-4535,http://www.sweetwaterschools.org,Intermediate/Middle/Junior High,32.669245,-117.09973,2019-08-26,"1701 D Avenue,National City,CA,91950",91950,"National City Middle, Sweetwater Union High",S,San Diego,Sweetwater Union High,National City Middle,TA,885.0
515,37684116062004,Sweetwater Union High,Hilltop Middle,91910-6115,http://www.sweetwaterschools.org/,Intermediate/Middle/Junior High,32.630395,-117.06408,2019-08-26,"44 East J Street,Chula Vista,CA,91910",91910,"Hilltop Middle, Sweetwater Union High",S,San Diego,Sweetwater Union High,Hilltop Middle,TA,1071.0
516,37684116062012,Sweetwater Union High,Southwest Middle,92154-3338,http://www.sweetwaterschools.org,Intermediate/Middle/Junior High,32.569138,-117.07381,2019-02-13,"2710 Iris Street,San Diego,CA,92154",92154,"Southwest Middle, Sweetwater Union High",S,San Diego,Sweetwater Union High,Southwest Middle,TA,754.0
517,37684116070890,Sweetwater Union High,Montgomery Middle,92154-3548,,Intermediate/Middle/Junior High,32.576045,-117.05612,2019-02-13,"1051 Picador Boulevard,San Diego,CA,92154",92154,"Montgomery Middle, Sweetwater Union High",S,San Diego,Sweetwater Union High,Montgomery Middle,TA,969.0
518,37684116114276,Sweetwater Union High,Rancho del Rey Middle,91910-7040,http://www.sweetwaterschools.org,Intermediate/Middle/Junior High,32.630868,-117.00764,2019-02-13,"1174 East J Street,Chula Vista,CA,91910",91910,"Rancho del Rey Middle, Sweetwater Union High",S,San Diego,Sweetwater Union High,Rancho del Rey Middle,TA,1841.0
519,37684116117154,Sweetwater Union High,Sweetwater Community Day,91911-4404,,High School,32.605905,-117.06115,2020-08-13,"1355 Second Avenue,Chula Vista,CA,91911",91911,"Sweetwater Community Day, Sweetwater Union High",S,San Diego,Sweetwater Union High,Sweetwater Community Day,TA,45.0
520,37684116120968,Sweetwater Union High,Eastlake Middle,91914-2626,http://www.sweetwaterschools.org,Intermediate/Middle/Junior High,32.655591,-116.94818,2019-08-26,"900 Duncan Ranch Road,Chula Vista,CA,91914",91914,"Eastlake Middle, Sweetwater Union High",S,San Diego,Sweetwater Union High,Eastlake Middle,TA,1896.0
521,37684376040562,Vallecitos Elementary,Vallecitos Elementary,92028-9795,,Elementary,33.413921,-117.14871,2020-08-13,"5211 Fifth Street,Rainbow,CA,92028",92028,"Vallecitos Elementary, Vallecitos Elementary",S,San Diego,Vallecitos Elementary,Vallecitos Elementary,TA,224.0
522,37684520100925,Vista Unified,T.H.E Leadership Academy,92056-3066,http://www.th.vistausd.org,Elementary,33.218505,-117.27087,2020-08-13,"1550 Temple Heights Drive,Oceanside,CA,92056",92056,"T.H.E Leadership Academy, Vista Unified",S,San Diego,Vista Unified,T.H.E Leadership Academy,TA,728.0
523,37684520100933,Vista Unified,Hannalei Elementary,92083-7625,http://www.han.vistausd.org,Elementary,33.178337,-117.21575,2020-08-13,"120 Hannalei Drive,Vista,CA,92083",92083,"Hannalei Elementary, Vista Unified",S,San Diego,Vista Unified,Hannalei Elementary,TA,614.0
524,37684520105882,Vista Unified,Foothill Oak Elementary,92084-4001,http://www.fho.vistausd.org,Elementary,33.218194,-117.22187,2020-08-13,"1370 Oak Drive,Vista,CA,92084",92084,"Foothill Oak Elementary, Vista Unified",S,San Diego,Vista Unified,Foothill Oak Elementary,TA,628.0
525,37684520111237,Vista Unified,Maryland Elementary,92084-2906,http://www.me.vistausd.org,Elementary,33.215538,-117.25793,2020-08-13,"700 North Avenue,Vista,CA,92084",92084,"Maryland Elementary, Vista Unified",S,San Diego,Vista Unified,Maryland Elementary,TA,720.0
526,37684520114637,Vista Unified,"Vista Magnet Middle School of Technology, Science, and Math",92084-6035,http://www.vmms.vistausd.org,Intermediate/Middle/Junior High,33.20314,-117.23667,2020-08-13,"151 Civic Center Drive,Vista,CA,92084",92084,"Vista Magnet Middle School of Technology, Science, and Math, Vista Unified",S,San Diego,Vista Unified,"Vista Magnet Middle School of Technology, Science, and Math",TA,850.0
527,37684520115451,Vista Unified,Major General Raymond Murray High,92083-5720,http://www.mgm.vistausd.org,High School,33.198351,-117.25582,2020-08-13,"215 North Melrose Drive,Vista,CA,92083",92083,"Major General Raymond Murray High, Vista Unified",S,San Diego,Vista Unified,Major General Raymond Murray High,TA,314.0
528,37684520118430,Vista Unified,Mission Vista High,92057-4649,http://www.mvhs.vistausd.org,High School,33.25599,-117.26381,2020-08-13,"1306 Melrose Drive,Oceanside,CA,92057",92057,"Mission Vista High, Vista Unified",S,San Diego,Vista Unified,Mission Vista High,TA,1713.0
529,37684520126300,Vista Unified,Vista Visions Academy,92084-3572,http://www.vva.vistausd.org,Elementary-High Combination,33.222677,-117.21924,2020-08-13,"1575 Bonair Drive,Vista,CA,92084",92084,"Vista Visions Academy, Vista Unified",S,San Diego,Vista Unified,Vista Visions Academy,TA,128.0
530,37684523730207,Vista Unified,Vista Adult Transition Center,92084-3027,http://www.vatc.vistausd.org,Elementary-High Combination,33.221287,-117.24111,2020-08-13,"325 East Bobier Drive,Vista,CA,92084",92084,"Vista Adult Transition Center, Vista Unified",S,San Diego,Vista Unified,Vista Adult Transition Center,TA,129.0
531,37684523730728,Vista Unified,Rancho Buena Vista High,92081-5423,http://www.rbv.vistausd.org,High School,33.164594,-117.24715,2020-08-13,"1601 Longhorn Drive,Vista,CA,92081",92081,"Rancho Buena Vista High, Vista Unified",S,San Diego,Vista Unified,Rancho Buena Vista High,TA,2231.0
532,37684523732039,Vista Unified,Alta Vista High (Continuation),92084-3572,http://www.avhs.vistausd.org,High School,33.222471,-117.2196,2020-08-13,"1575 Bonair Drive,Vista,CA,92084",92084,"Alta Vista High (Continuation), Vista Unified",S,San Diego,Vista Unified,Alta Vista High (Continuation),TA,172.0
533,37684523738705,Vista Unified,Vista High,92084-3101,http://www.vhs.vistausd.org,High School,33.223361,-117.2419,2020-08-13,"1 Panther Drive,Vista,CA,92084",92084,"Vista High, Vista Unified",S,San Diego,Vista Unified,Vista High,TA,2501.0
534,37684526040588,Vista Unified,Beaumont Elementary,92084-6321,http://www.be.vistausd.org,Elementary,33.198044,-117.22481,2020-08-13,"550 Beaumont Drive,Vista,CA,92084",92084,"Beaumont Elementary, Vista Unified",S,San Diego,Vista Unified,Beaumont Elementary,TA,605.0
535,37684526040596,Vista Unified,Bobier Elementary,92083-1903,http://www.bo.vistausd.org,Elementary,33.221088,-117.24761,2020-08-13,"220 West Bobier Drive,Vista,CA,92083",92083,"Bobier Elementary, Vista Unified",S,San Diego,Vista Unified,Bobier Elementary,TA,700.0
536,37684526040604,Vista Unified,California Avenue Elementary,92083-3622,http://www.ca.vistausd.org,Elementary,33.207511,-117.24664,2020-08-13,"215 West California Avenue,Vista,CA,92083",92083,"California Avenue Elementary, Vista Unified",S,San Diego,Vista Unified,California Avenue Elementary,TA,80.0
537,37684526040620,Vista Unified,Grapevine Elementary,92083-5599,http://www.gv.vistausd.org,Elementary,33.199834,-117.27374,2020-06-11,"630 Grapevine Road,Vista,CA,92083",92083,"Grapevine Elementary, Vista Unified",S,San Diego,Vista Unified,Grapevine Elementary,TA,887.0
538,37684526040638,Vista Unified,Monte Vista Elementary,92084-7122,http://www.mv.vistausd.org,Elementary,33.190319,-117.21212,2020-08-13,"1720 Monte Vista Road,Vista,CA,92084",92084,"Monte Vista Elementary, Vista Unified",S,San Diego,Vista Unified,Monte Vista Elementary,TA,559.0
539,37684526040653,Vista Unified,Vista Academy of Visual and Performing Arts,92083-3631,http://www.vapa.vistausd.org/,Elementary,33.207469,-117.24508,2020-08-13,"600 North Santa Fe Avenue,Vista,CA,92083",92083,"Vista Academy of Visual and Performing Arts, Vista Unified",S,San Diego,Vista Unified,Vista Academy of Visual and Performing Arts,TA,620.0
540,37684526059802,Vista Unified,Rancho Minerva Middle,92084-6035,http://www.rmms.vistausd.org,Intermediate/Middle/Junior High,33.204318,-117.20552,2020-08-13,"2245 Foothill Drive,Vista,CA,92084",92084,"Rancho Minerva Middle, Vista Unified",S,San Diego,Vista Unified,Rancho Minerva Middle,TA,777.0
541,37684526059810,Vista Unified,Vista Innovation and Design Academy,92083-3396,http://www.vida.vistausd.org,Intermediate/Middle/Junior High,33.204628,-117.25714,2020-08-13,"740 Olive Avenue,Vista,CA,92083",92083,"Vista Innovation and Design Academy, Vista Unified",S,San Diego,Vista Unified,Vista Innovation and Design Academy,TA,811.0
542,37684526069124,Vista Unified,Casita Center for Science/Math/Technology,92083-5108,http://www.cas.vistausd.org,Elementary,33.191355,-117.28465,2020-08-13,"260 Cedar Drive,Vista,CA,92083",92083,"Casita Center for Science/Math/Technology, Vista Unified",S,San Diego,Vista Unified,Casita Center for Science/Math/Technology,TA,594.0
543,37684526107031,Vista Unified,Alamosa Park Elementary,92057-6301,http://www.ape.vistausd.org,Elementary,33.239596,-117.28112,2020-08-13,"5130 Alamosa Park Drive,Oceanside,CA,92057",92057,"Alamosa Park Elementary, Vista Unified",S,San Diego,Vista Unified,Alamosa Park Elementary,TA,520.0
544,37684526107577,Vista Unified,Roosevelt Middle,92057-6937,http://www.rmw.vistausd.org,Intermediate/Middle/Junior High,33.235127,-117.28067,2020-08-13,"850 Sagewood Drive,Oceanside,CA,92057",92057,"Roosevelt Middle, Vista Unified",S,San Diego,Vista Unified,Roosevelt Middle,TA,1068.0
545,37684526107585,Vista Unified,Lake Elementary,92056-4749,http://www.lk.vistausd.org,Elementary,33.17323,-117.25791,2020-08-13,"4950 Lake Boulevard,Oceanside,CA,92056",92056,"Lake Elementary, Vista Unified",S,San Diego,Vista Unified,Lake Elementary,TA,834.0
546,37684526108708,Vista Unified,Empresa Elementary,92056-6541,http://www.emp.vistausd.org,Elementary,33.223041,-117.28771,2020-08-13,"4850 Avenida Empresa,Oceanside,CA,92056",92056,"Empresa Elementary, Vista Unified",S,San Diego,Vista Unified,Empresa Elementary,TA,901.0
547,37684526110399,Vista Unified,Breeze Hill Elementary,92083-6505,http://www.bh.vistausd.org,Elementary,33.18517,-117.25456,2020-08-13,"1111 Melrose Way,Vista,CA,92083",92083,"Breeze Hill Elementary, Vista Unified",S,San Diego,Vista Unified,Breeze Hill Elementary,TA,885.0
548,37684526110407,Vista Unified,Mission Meadows Elementary,92056-5714,http://www.mm.vistausd.org,Elementary,33.246059,-117.25806,2020-08-13,"5657 Spur Avenue,Oceanside,CA,92056",92056,"Mission Meadows Elementary, Vista Unified",S,San Diego,Vista Unified,Mission Meadows Elementary,TA,581.0
549,37684526112221,Vista Unified,Madison Middle,92056-4749,http://www.mms.vistausd.org,Intermediate/Middle/Junior High,33.173316,-117.25871,2020-08-13,"4930 Lake Boulevard,Oceanside,CA,92056",92056,"Madison Middle, Vista Unified",S,San Diego,Vista Unified,Madison Middle,TA,1124.0
550,37735510107557,Carlsbad Unified,Calavera Hills Middle,92008-7101,http://www.calaverahillscoyotes.com,Intermediate/Middle/Junior High,33.172385,-117.29083,2020-08-13,"4104 Tamarack Avenue,Carlsbad,CA,92008",92008,"Calavera Hills Middle, Carlsbad Unified",S,San Diego,Carlsbad Unified,Calavera Hills Middle,TA,622.0
551,37735510113498,Carlsbad Unified,Poinsettia Elementary,92009-1733,http://www.poinsettiaschool.org,Elementary,33.1186,-117.2562,2020-08-13,"2445 Mica Road,Carlsbad,CA,92009",92009,"Poinsettia Elementary, Carlsbad Unified",S,San Diego,Carlsbad Unified,Poinsettia Elementary,TA,477.0
552,37735510127423,Carlsbad Unified,Sage Creek High,92010-5573,http://carlsbadusd.k12.ca.us,High School,33.142565,-117.24945,2020-08-13,"3900 Bobcat Boulevard,Carlsbad,CA,92010",92010,"Sage Creek High, Carlsbad Unified",S,San Diego,Carlsbad Unified,Sage Creek High,TA,1340.0
553,37735513730017,Carlsbad Unified,Carlsbad Village Academy,92008-2785,http://www.carlsbadusd.k12.ca.us,High School,33.162338,-117.32762,2020-08-13,"3557 Monroe Street,Carlsbad,CA,92008",92008,"Carlsbad Village Academy, Carlsbad Unified",S,San Diego,Carlsbad Unified,Carlsbad Village Academy,TA,129.0
554,37735513730694,Carlsbad Unified,Carlsbad High,92008-2729,http://www.carlsbadusd.k12.ca.us,High School,33.162399,-117.32698,2020-08-13,"3557 Monroe Street,Carlsbad,CA,92008",92008,"Carlsbad High, Carlsbad Unified",S,San Diego,Carlsbad Unified,Carlsbad High,TA,2417.0
555,37735513731163,Carlsbad Unified,Carlsbad Seaside Academy,92008-2785,,High School,33.162338,-117.32762,2019-02-13,"3557 Monroe Street,Carlsbad,CA,92008",92008,"Carlsbad Seaside Academy, Carlsbad Unified",S,San Diego,Carlsbad Unified,Carlsbad Seaside Academy,TA,55.0
556,37735516037774,Carlsbad Unified,Buena Vista Elementary,92008-1535,http://www.carlsbadusd.k12.ca.us,Elementary,33.168932,-117.34252,2020-08-13,"1330 Buena Vista Way,Carlsbad,CA,92008",92008,"Buena Vista Elementary, Carlsbad Unified",S,San Diego,Carlsbad Unified,Buena Vista Elementary,TA,377.0
557,37735516037782,Carlsbad Unified,Jefferson Elementary,92008-3336,http://www.carlsbadusd.k12.ca.us,Elementary,33.153787,-117.33958,2020-08-13,"3743 Jefferson Street,Carlsbad,CA,92008",92008,"Jefferson Elementary, Carlsbad Unified",S,San Diego,Carlsbad Unified,Jefferson Elementary,TA,493.0
558,37735516037790,Carlsbad Unified,Magnolia Elementary,92008-2632,http://www.carlsbadusd.k12.ca.us,Elementary,33.160076,-117.3267,2020-08-13,"1905 Magnolia Avenue,Carlsbad,CA,92008",92008,"Magnolia Elementary, Carlsbad Unified",S,San Diego,Carlsbad Unified,Magnolia Elementary,TA,518.0
559,37735516037816,Carlsbad Unified,Valley Middle,92008-2626,http://www.carlsbadusd.k12.ca.us,Intermediate/Middle/Junior High,33.158874,-117.32931,2020-08-13,"1645 Magnolia Avenue,Carlsbad,CA,92008",92008,"Valley Middle, Carlsbad Unified",S,San Diego,Carlsbad Unified,Valley Middle,TA,1068.0
560,37735516099352,Carlsbad Unified,Kelly Elementary,92008-3734,http://www.carlsbadusd.k12.ca.us,Elementary,33.14836,-117.31122,2020-08-13,"4885 Kelly Drive,Carlsbad,CA,92008",92008,"Kelly Elementary, Carlsbad Unified",S,San Diego,Carlsbad Unified,Kelly Elementary,TA,509.0
561,37735516106512,Carlsbad Unified,Hope Elementary,92008-2430,http://www.carlsbadusd.k12.ca.us,Elementary,33.17052,-117.30462,2020-08-13,"3010 Tamarack Avenue,Carlsbad,CA,92008",92008,"Hope Elementary, Carlsbad Unified",S,San Diego,Carlsbad Unified,Hope Elementary,TA,665.0
562,37735516109201,Carlsbad Unified,Aviara Oaks Elementary,92009-2430,http://www.carlsbadusd.k12.ca.us,Elementary,33.101346,-117.27667,2020-08-13,"6900 Ambrosia Lane,Carlsbad,CA,92009",92009,"Aviara Oaks Elementary, Carlsbad Unified",S,San Diego,Carlsbad Unified,Aviara Oaks Elementary,TA,701.0
563,37735516116578,Carlsbad Unified,Pacific Rim Elementary,92009-3400,http://www.carlsbadusd.k12.ca.us,Elementary,33.110252,-117.30595,2020-08-13,"1100 Camino de las Ondas,Carlsbad,CA,92009",92009,"Pacific Rim Elementary, Carlsbad Unified",S,San Diego,Carlsbad Unified,Pacific Rim Elementary,TA,842.0
564,37735516118137,Carlsbad Unified,Aviara Oaks Middle,92011-5057,http://www.carlsbadusd.k12.ca.us,Intermediate/Middle/Junior High,33.103077,-117.27894,2020-08-13,"6880 Ambrosia Lane,Carlsbad,CA,92011",92011,"Aviara Oaks Middle, Carlsbad Unified",S,San Diego,Carlsbad Unified,Aviara Oaks Middle,TA,1078.0
565,37735516120711,Carlsbad Unified,Calavera Hills Elementary,92008-7101,http://www.carlsbadusd.k12.ca.us/calavera.htm,Elementary,33.172385,-117.29083,2020-08-13,"4100 Tamarack Avenue,Carlsbad,CA,92008",92008,"Calavera Hills Elementary, Carlsbad Unified",S,San Diego,Carlsbad Unified,Calavera Hills Elementary,TA,491.0
566,37735690113514,Oceanside Unified,Louise Foussat Elementary,92058-0678,http://foussat.oside.us/,Elementary,33.237973,-117.32914,2020-08-13,"3800 Pala Road,Oceanside,CA,92058",92058,"Louise Foussat Elementary, Oceanside Unified",S,San Diego,Oceanside Unified,Louise Foussat Elementary,TA,674.0
567,37735690113522,Oceanside Unified,Cesar Chavez Middle,92057-6122,http://www.ccms.oside.us/,Intermediate/Middle/Junior High,33.241726,-117.30066,2020-08-13,"202 Oleander Drive,Oceanside,CA,92057",92057,"Cesar Chavez Middle, Oceanside Unified",S,San Diego,Oceanside Unified,Cesar Chavez Middle,TA,755.0
568,37735693735206,Oceanside Unified,Oceanside High,92054-3066,http://ohs.oside.us/,High School,33.197067,-117.37414,2020-07-08,"1 Pirates Cove,Oceanside,CA,92054",92054,"Oceanside High, Oceanside Unified",S,San Diego,Oceanside Unified,Oceanside High,TA,2352.0
569,37735693739018,Oceanside Unified,El Camino High,92057-8316,http://echs.oside.us/,High School,33.219594,-117.31909,2019-03-25,"400 Rancho del Oro Drive,Oceanside,CA,92057",92057,"El Camino High, Oceanside Unified",S,San Diego,Oceanside Unified,El Camino High,TA,3095.0
570,37735696038830,Oceanside Unified,Jefferson Middle,92058-2305,http://jms.oside.us/,Intermediate/Middle/Junior High,33.208382,-117.36389,2020-08-13,"823 Acacia Street,Oceanside,CA,92058",92058,"Jefferson Middle, Oceanside Unified",S,San Diego,Oceanside Unified,Jefferson Middle,TA,600.0
571,37735696038848,Oceanside Unified,Laurel Elementary,92058-2217,http://www.laurel.oside.us/,Elementary,33.207375,-117.37345,2020-08-13,"1410 Laurel Street,Oceanside,CA,92058",92058,"Laurel Elementary, Oceanside Unified",S,San Diego,Oceanside Unified,Laurel Elementary,TA,517.0
572,37735696038855,Oceanside Unified,Libby Elementary,92057-4316,http://libby.oside.us/,Elementary,33.251715,-117.30467,2020-08-13,"423 West Redondo Drive,Oceanside,CA,92057",92057,"Libby Elementary, Oceanside Unified",S,San Diego,Oceanside Unified,Libby Elementary,TA,522.0
573,37735696038863,Oceanside Unified,Lincoln Middle,92054-5683,http://lms.oside.us/,Intermediate/Middle/Junior High,33.187731,-117.35255,2020-08-13,"2000 California Street,Oceanside,CA,92054",92054,"Lincoln Middle, Oceanside Unified",S,San Diego,Oceanside Unified,Lincoln Middle,TA,913.0
574,37735696038871,Oceanside Unified,Mission Elementary,92058-2327,http://mission.oside.us/,Elementary,33.205741,-117.36293,2020-08-13,"2100 Mission Avenue,Oceanside,CA,92058",92058,"Mission Elementary, Oceanside Unified",S,San Diego,Oceanside Unified,Mission Elementary,TA,561.0
575,37735696038889,Oceanside Unified,North Terrace Elementary,92058-6880,http://nt.oside.us/,Elementary,33.21915,-117.38004,2020-08-13,"141 Santa Rosa Drive,Oceanside,CA,92058",92058,"North Terrace Elementary, Oceanside Unified",S,San Diego,Oceanside Unified,North Terrace Elementary,TA,982.0
576,37735696038897,Oceanside Unified,Palmquist Elementary,92054-5685,http://www.palmquist.oside.us/,Elementary,33.189628,-117.34938,2020-08-13,"1999 California Street,Oceanside,CA,92054",92054,"Palmquist Elementary, Oceanside Unified",S,San Diego,Oceanside Unified,Palmquist Elementary,TA,651.0
577,37735696038905,Oceanside Unified,San Luis Rey Elementary,92054-3854,http://www.slr.oside.us/,Elementary,33.219659,-117.3362,2020-08-13,"3535 Hacienda Drive,Oceanside,CA,92054",92054,"San Luis Rey Elementary, Oceanside Unified",S,San Diego,Oceanside Unified,San Luis Rey Elementary,TA,310.0
578,37735696038913,Oceanside Unified,Santa Margarita Elementary,92058-6699,http://smarg.oside.us/,Elementary,33.230925,-117.37907,2020-08-13,"1 Carnes Road,Oceanside,CA,92058",92058,"Santa Margarita Elementary, Oceanside Unified",S,San Diego,Oceanside Unified,Santa Margarita Elementary,TA,657.0
579,37735696038921,Oceanside Unified,South Oceanside Elementary,92054-6017,http://southo.oside.us/,Elementary,33.177487,-117.35807,2020-08-13,"1806 South Horne Street,Oceanside,CA,92054",92054,"South Oceanside Elementary, Oceanside Unified",S,San Diego,Oceanside Unified,South Oceanside Elementary,TA,679.0
580,37735696088991,Oceanside Unified,Del Rio Elementary,92057-3811,http://delrio.oside.us/,Elementary,33.255349,-117.29486,2020-08-13,"5200 North River Road,Oceanside,CA,92057",92057,"Del Rio Elementary, Oceanside Unified",S,San Diego,Oceanside Unified,Del Rio Elementary,TA,377.0
581,37735696106546,Oceanside Unified,Reynolds Elementary,92057-4228,http://www.reynolds.oside.us/,Elementary,33.255862,-117.3144,2019-02-13,"4575 Douglas Drive,Oceanside,CA,92057",92057,"Reynolds Elementary, Oceanside Unified",S,San Diego,Oceanside Unified,Reynolds Elementary,TA,661.0
582,37735696108211,Oceanside Unified,Christa McAuliffe Elementary,92056-6311,http://mcauliffe.oside.us/,Elementary,33.200502,-117.30626,2020-08-13,"3701 Kelton Drive,Oceanside,CA,92056",92056,"Christa McAuliffe Elementary, Oceanside Unified",S,San Diego,Oceanside Unified,Christa McAuliffe Elementary,TA,582.0
583,37735696109995,Oceanside Unified,Ivey Ranch Elementary,92057-8534,http://ivey.oside.us/,Elementary,33.219404,-117.30103,2020-08-13,"4275 Via Rancho Road,Oceanside,CA,92057",92057,"Ivey Ranch Elementary, Oceanside Unified",S,San Diego,Oceanside Unified,Ivey Ranch Elementary,TA,747.0
584,37735696111777,Oceanside Unified,Martin Luther King Jr. Middle,92057-8535,http://mlk.oside.us/,Intermediate/Middle/Junior High,33.215828,-117.31067,2020-08-13,"1290 Ivey Ranch Road,Oceanside,CA,92057",92057,"Martin Luther King Jr. Middle, Oceanside Unified",S,San Diego,Oceanside Unified,Martin Luther King Jr. Middle,TA,1444.0
585,37735696115299,Oceanside Unified,Stuart Mesa Elementary,92058-8016,http://www.smesa.oside.us/,Elementary,33.254199,-117.40995,2020-08-13,"100 Yamanaka Way,Oceanside,CA,92058",92058,"Stuart Mesa Elementary, Oceanside Unified",S,San Diego,Oceanside Unified,Stuart Mesa Elementary,TA,721.0
586,37735696119713,Oceanside Unified,Nichols Elementary,92057-6539,http://nichols.oside.us/,Elementary,33.23807,-117.31559,2020-08-13,"4250 Old Grove Road,Oceanside,CA,92057",92057,"Nichols Elementary, Oceanside Unified",S,San Diego,Oceanside Unified,Nichols Elementary,TA,658.0
587,37737910105684,San Marcos Unified,San Elijo Middle,92078-1079,http://www.smusd.org,Intermediate/Middle/Junior High,33.09882,-117.19736,2020-08-13,"1600 Schoolhouse Way,San Marcos,CA,92078",92078,"San Elijo Middle, San Marcos Unified",S,San Diego,San Marcos Unified,San Elijo Middle,TA,1864.0
588,37737910105726,San Marcos Unified,Mission Hills High,92069-1965,http://www.smusd.org,High School,33.147163,-117.14694,2020-08-13,"1 Mission Hills Court,San Marcos,CA,92069",92069,"Mission Hills High, San Marcos Unified",S,San Diego,San Marcos Unified,Mission Hills High,TA,2704.0
589,37737910111468,San Marcos Unified,San Elijo Elementary,92078-1080,http://www.smusd.org,Elementary,33.1,-117.1953,2020-08-13,"1615 Schoolhouse Way,San Marcos,CA,92078",92078,"San Elijo Elementary, San Marcos Unified",S,San Diego,San Marcos Unified,San Elijo Elementary,TA,1078.0
590,37737910116467,San Marcos Unified,Joli Ann Leichtag Elementary,92081-8113,http://www.smusd.org,Elementary,33.155513,-117.21079,2020-08-13,"653 Poinsettia Avenue,Vista,CA,92081",92081,"Joli Ann Leichtag Elementary, San Marcos Unified",S,San Diego,San Marcos Unified,Joli Ann Leichtag Elementary,TA,798.0
591,37737910131433,San Marcos Unified,Double Peak,92078-2051,http://www.smusd.org,Elementary,33.106382,-117.16582,2020-08-13,"111 San Elijo Road,San Marcos,CA,92078",92078,"Double Peak, San Marcos Unified",S,San Diego,San Marcos Unified,Double Peak,TA,1337.0
592,37737913730215,San Marcos Unified,Twin Oaks High,92069-9702,http://www.smusd.org,High School,33.179778,-117.1591,2020-08-13,"158 Cassou Road,San Marcos,CA,92069",92069,"Twin Oaks High, San Marcos Unified",S,San Diego,San Marcos Unified,Twin Oaks High,TA,268.0
593,37737913730793,San Marcos Unified,Foothills High,92069-9702,http://www.smusd.org,High School,33.180651,-117.15868,2020-08-13,"158 Cassou Road,San Marcos,CA,92069",92069,"Foothills High, San Marcos Unified",S,San Diego,San Marcos Unified,Foothills High,TA,242.0
594,37737913737632,San Marcos Unified,San Marcos High,92078-4020,http://www.smusd.org,High School,33.131215,-117.20543,2020-08-13,"1615 San Marcos Boulevard,San Marcos,CA,92078",92078,"San Marcos High, San Marcos Unified",S,San Diego,San Marcos Unified,San Marcos High,TA,3536.0
595,37737916039069,San Marcos Unified,La Mirada Academy,92078-2312,http://www.smusd.org,Elementary,33.143808,-117.20381,2019-02-13,"3697 La Mirada Drive,San Marcos,CA,92078",92078,"La Mirada Academy, San Marcos Unified",S,San Diego,San Marcos Unified,La Mirada Academy,TA,972.0
596,37737916039077,San Marcos Unified,Richland Elementary,92069-2199,http://www.smusd.org,Elementary,33.154751,-117.14016,2020-08-13,"910 Borden Road,San Marcos,CA,92069",92069,"Richland Elementary, San Marcos Unified",S,San Diego,San Marcos Unified,Richland Elementary,TA,807.0
597,37737916039085,San Marcos Unified,San Marcos Elementary,92069-2703,http://www.smusd.org,Elementary,33.14128,-117.16829,2020-08-13,"1 Tiger Way,San Marcos,CA,92069",92069,"San Marcos Elementary, San Marcos Unified",S,San Diego,San Marcos Unified,San Marcos Elementary,TA,813.0
598,37737916039093,San Marcos Unified,San Marcos Middle,92069-1555,http://www.smusd.org,Intermediate/Middle/Junior High,33.145673,-117.1749,2020-08-13,"650 West Mission Road,San Marcos,CA,92069",92069,"San Marcos Middle, San Marcos Unified",S,San Diego,San Marcos Unified,San Marcos Middle,TA,1178.0
599,37737916095061,San Marcos Unified,Woodland Park Middle,92069-3220,http://www.smusd.org,Intermediate/Middle/Junior High,33.147436,-117.12958,2020-08-13,"1270 Rock Springs Road,San Marcos,CA,92069",92069,"Woodland Park Middle, San Marcos Unified",S,San Diego,San Marcos Unified,Woodland Park Middle,TA,1432.0
600,37737916105993,San Marcos Unified,La Costa Meadows Elementary,92009-5923,http://www.smusd.org,Elementary,33.104542,-117.23995,2020-08-13,"6889 El Fuerte Street,Carlsbad,CA,92009",92009,"La Costa Meadows Elementary, San Marcos Unified",S,San Diego,San Marcos Unified,La Costa Meadows Elementary,TA,888.0
601,37737916107148,San Marcos Unified,Knob Hill Elementary,92069-3301,http://www.smusd.org,Elementary,33.139633,-117.11971,2020-08-13,"1825 Knob Hill Road,San Marcos,CA,92069",92069,"Knob Hill Elementary, San Marcos Unified",S,San Diego,San Marcos Unified,Knob Hill Elementary,TA,867.0
602,37737916108872,San Marcos Unified,Paloma Elementary,92069-7323,http://www.smusd.org,Elementary,33.159796,-117.18482,2020-08-13,"660 Camino Magnifico,San Marcos,CA,92069",92069,"Paloma Elementary, San Marcos Unified",S,San Diego,San Marcos Unified,Paloma Elementary,TA,897.0
603,37737916114169,San Marcos Unified,Discovery Elementary,92078-4969,http://www.smusd.org,Elementary,33.129296,-117.1905,2020-08-13,"730 Applewilde Drive,San Marcos,CA,92078",92078,"Discovery Elementary, San Marcos Unified",S,San Diego,San Marcos Unified,Discovery Elementary,TA,601.0
604,37737916115349,San Marcos Unified,Twin Oaks Elementary,92069-9831,http://www.smusd.org,Elementary,33.178528,-117.15544,2020-08-13,"1 Cassou Road,San Marcos,CA,92069",92069,"Twin Oaks Elementary, San Marcos Unified",S,San Diego,San Marcos Unified,Twin Oaks Elementary,TA,687.0
605,37737916116206,San Marcos Unified,Carrillo Elementary,92009-3041,http://www.smusd.org,Elementary,33.119466,-117.2419,2020-08-13,"2875 Poinsettia Lane,Carlsbad,CA,92009",92009,"Carrillo Elementary, San Marcos Unified",S,San Diego,San Marcos Unified,Carrillo Elementary,TA,925.0
606,37754163730975,Warner Unified,Warner Junior/Senior High,92086,http://www.warnerusd.net,High School,33.292294,-116.68489,2020-08-13,"30951 Highway 79,Warner Springs,CA,92086",92086,"Warner Junior/Senior High, Warner Unified",S,San Diego,Warner Unified,Warner Junior/Senior High,TA,97.0
607,37754166040661,Warner Unified,Warner Elementary,92086-0008,http://www.warnerusd.net,Elementary,33.346655,-116.73027,2020-08-13,"30951 Highway 79,Warner Springs,CA,92086",92086,"Warner Elementary, Warner Unified",S,San Diego,Warner Unified,Warner Elementary,TA,130.0
608,37756140100511,Valley Center-Pauma Unified,Lilac,92082-3318,http://lilac.vcpusd.org,Elementary,33.256624,-117.06917,2019-08-21,"30109 Lilac Road,Valley Center,CA,92082",92082,"Lilac, Valley Center-Pauma Unified",S,San Diego,Valley Center-Pauma Unified,Lilac,TA,517.0
609,37756143731114,Valley Center-Pauma Unified,Valley Center High,92082-3867,http://vchs.vcpusd.org,High School,33.279829,-117.02379,2020-08-13,"31322 Cole Grade Road,Valley Center,CA,92082",92082,"Valley Center High, Valley Center-Pauma Unified",S,San Diego,Valley Center-Pauma Unified,Valley Center High,TA,1206.0
610,37756143731312,Valley Center-Pauma Unified,Oak Glen High,92082-4123,http://oghs.vcpusd.org,High School,33.282007,-117.02401,2020-08-13,"14172 West Oak Glen Road,Valley Center,CA,92082",92082,"Oak Glen High, Valley Center-Pauma Unified",S,San Diego,Valley Center-Pauma Unified,Oak Glen High,TA,119.0
611,37756143731601,Valley Center-Pauma Unified,Valley Center Prep,92082,http://vcprep.vcpusd.org,Elementary-High Combination,33.236018,-117.02144,2020-08-13,"28751-U Cole Grade Road,Valley Center,CA,92082",92082,"Valley Center Prep, Valley Center-Pauma Unified",S,San Diego,Valley Center-Pauma Unified,Valley Center Prep,TA,128.0
612,37756146038962,Valley Center-Pauma Unified,Pauma Elementary,92061-9578,http://pauma.vcpusd.org,Elementary,33.315897,-116.99873,2019-08-21,"33158 Cole Grade Road,Pauma Valley,CA,92061",92061,"Pauma Elementary, Valley Center-Pauma Unified",S,San Diego,Valley Center-Pauma Unified,Pauma Elementary,TA,249.0
613,37756146093272,Valley Center-Pauma Unified,Valley Center Middle,92082-6740,http://vcms.vcpusd.org,Intermediate/Middle/Junior High,33.224381,-116.97567,2019-08-21,"28102 North Lake Wohlford Road,Valley Center,CA,92082",92082,"Valley Center Middle, Valley Center-Pauma Unified",S,San Diego,Valley Center-Pauma Unified,Valley Center Middle,TA,1021.0
614,37756146106124,Valley Center-Pauma Unified,Valley Center Primary,92082-5907,http://vcps.vcpusd.org,Elementary,33.239526,-117.02157,2019-08-21,"14249 Fruitvale Road,Valley Center,CA,92082",92082,"Valley Center Primary, Valley Center-Pauma Unified",S,San Diego,Valley Center-Pauma Unified,Valley Center Primary,TA,562.0
615,37756146112494,Valley Center-Pauma Unified,Valley Center Elementary,92082-6575,http://vceus.vcpusd.org,Elementary,33.234769,-117.02397,2019-08-21,"28751 Cole Grade Road,Valley Center,CA,92082",92082,"Valley Center Elementary, Valley Center-Pauma Unified",S,San Diego,Valley Center-Pauma Unified,Valley Center Elementary,TA,529.0
616,37768510110122,Bonsall Unified,Bonsall West Elementary,92057-2704,http://www.bonsallusd.com,Elementary,33.263619,-117.29384,2020-08-13,"5050 El Mirlo Drive,Oceanside,CA,92057",92057,"Bonsall West Elementary, Bonsall Unified",S,San Diego,Bonsall Unified,Bonsall West Elementary,TA,558.0
617,37768510129320,Bonsall Unified,Bonsall High,92003-4316,http://www.bonsallhs.com,High School,33.296238,-117.17648,2020-08-13,"7350 West Lilac Road,Bonsall,CA,92003",92003,"Bonsall High, Bonsall Unified",S,San Diego,Bonsall Unified,Bonsall High,TA,370.0
618,37768516037543,Bonsall Unified,Bonsall Elementary,92003-5112,http://www.bonsallusd.com,Elementary,33.287143,-117.22078,2020-08-13,"31555 Old River Road,Bonsall,CA,92003",92003,"Bonsall Elementary, Bonsall Unified",S,San Diego,Bonsall Unified,Bonsall Elementary,TA,960.0
619,37768516108567,Bonsall Unified,Norman L. Sullivan Middle,92003-5112,http://www.bonsallusd.com,Intermediate/Middle/Junior High,33.296116,-117.17507,2020-08-13,"7350 West Lilac Road,Bonsall,CA,92003",92003,"Norman L. Sullivan Middle, Bonsall Unified",S,San Diego,Bonsall Unified,Norman L. Sullivan Middle,TA,654.0
